atco_code,common_name,street,area_code,area_name,lon,lat
1800SJ47601,Abington Road,Marsland Road,E08000009,Trafford,-2.36572,53.41671
1800SJ03561,Ackers Farm,Carrington Lane,E08000009,Trafford,-2.36572,53.41671
1800SJ03571,Ackers Farm,Carrington Lane,E08000009,Trafford,-2.36572,53.41671
1800SJ48171,Ackers Lane,Manchester Road,E08000009,Trafford,-2.36572,53.41671
1800SJ48181,Ackers Lane,Manchester Road,E08000009,Trafford,-2.36572,53.41671
1800SJ48151,Addison Road,Manchester Road,E08000009,Trafford,-2.36572,53.41671
1800SJ48201,Addison Road,Manchester Road,E08000009,Trafford,-2.36572,53.41671
1800SJ48141,Air Products,Manchester Road,E08000009,Trafford,-2.36572,53.41671
1800SJ48211,Air Products,Manchester Road,E08000009,Trafford,-2.36572,53.41671
1800SJ12081,Akzo Nobel,Barton Dock Rd,E08000009,Trafford,-2.36572,53.41671
1800SJ11481,Alan Drive,Arthog Road,E08000009,Trafford,-2.36572,53.41671
1800SJ11321,Alan Drive,Arthog Road,E08000009,Trafford,-2.36572,53.41671
1800SJ47231,Alexandra Road,Marsland Road,E08000009,Trafford,-2.36572,53.41671
1800SJ47571,Alexandra Road,Marsland Road,E08000009,Trafford,-2.36572,53.41671
1800SJ41361,All Saints Church,Hale Road,E08000009,Trafford,-2.36572,53.41671
1800SJ41371,All Saints Church,Hale Road,E08000009,Trafford,-2.36572,53.41671
1800SJH2931,Altrincham College of Arts,Green Lane,E08000009,Trafford,-2.36572,53.41671
1800SJH2861,Altrincham Grammar School for Boys,Marlborough Rd,E08000009,Trafford,-2.36572,53.41671
1800SJH2871,Altrincham Grammar School for Boys,Marlborough Rd,E08000009,Trafford,-2.36572,53.41671
1800SJH2881,Altrincham Grammar School For Girls,Higher Downs,E08000009,Trafford,-2.36572,53.41671
1800SJH2891,Altrincham Grammar School for Girls,Higher Downs,E08000009,Trafford,-2.36572,53.41671
1800SJ01741,Altrincham Railway Station,Station Appr/Ch,E08000009,Trafford,-2.36572,53.41671
1800SJ09371,Arderne Road,Riddings Road,E08000009,Trafford,-2.36572,53.41671
1800SJ49261,Arderne Road,Riddings Road,E08000009,Trafford,-2.36572,53.41671
1800SJ03961,Arran Gardens,Shetland Way,E08000009,Trafford,-2.36572,53.41671
1800SJ03951,Arran Gardens,Shetland Way,E08000009,Trafford,-2.36572,53.41671
1800SJ11301,Arthog Road,Park Road,E08000009,Trafford,-2.36572,53.41671
1800SJ11501,Arthog Road,Park Road,E08000009,Trafford,-2.36572,53.41671
1800SJ03681,Ascot Avenue,Manor Avenue,E08000009,Trafford,-2.36572,53.41671
1800SJ03891,Ascot Avenue,Manor Avenue,E08000009,Trafford,-2.36572,53.41671
1800SJ18511,Asda,George Rich Way,E08000009,Trafford,-2.36572,53.41671
1800SJ18551,Asda,Atlantic Street,E08000009,Trafford,-2.36572,53.41671
1800SJ41091,Ash Lane,Grove Lane,E08000009,Trafford,-2.36572,53.41671
1800SJ01601,Ashburton Road West,Guinness Road,E08000009,Trafford,-2.36572,53.41671
1800SJ01611,Ashburton Road West,Guinness Road,E08000009,Trafford,-2.36572,53.41671
1800SJ11891,Ashfield Road,Stamford Pk Rd,E08000009,Trafford,-2.36572,53.41671
1800SJ03451,Ashfield Road,Cross Street,E08000009,Trafford,-2.36572,53.41671
1800SJ03301,Ashfield Road,Cross Street,E08000009,Trafford,-2.36572,53.41671
1800SJ04481,Ashlands,Ashton Lane,E08000009,Trafford,-2.36572,53.41671
1800SJ04221,Ashlands,Ashton Lane,E08000009,Trafford,-2.36572,53.41671
1800SJ49411,Ashton Avenue,Ellesmere Road,E08000009,Trafford,-2.36572,53.41671
1800SJ49381,Ashton Avenue,Ellesmere Road,E08000009,Trafford,-2.36572,53.41671
1800SJ04371,Ashton Lane,Grosvenor Road,E08000009,Trafford,-2.36572,53.41671
1800SJ04471,Ashton Lane,Grosvenor Road,E08000009,Trafford,-2.36572,53.41671
1800SJ04451,Ashton Park,Grosvenor Road,E08000009,Trafford,-2.36572,53.41671
1800SJ30191,Ayres Road,Seymour Grove,E08000009,Trafford,-2.36572,53.41671
1800SJ30201,Ayres Road,Seymour Grove,E08000009,Trafford,-2.36572,53.41671
1800SJ02901,Balmain Road,Cornhill Road,E08000009,Trafford,-2.36572,53.41671
1800SJ10941,Bancroft Road,Grove Lane,E08000009,Trafford,-2.36572,53.41671
1800SJ11071,Bancroft Road,Grove Lane,E08000009,Trafford,-2.36572,53.41671
1800SJ41631,Baptist Church,Hale Road,E08000009,Trafford,-2.36572,53.41671
1800SJ03411,Barkers Lane,Washway Road,E08000009,Trafford,-2.36572,53.41671
1800SJ04381,Barnfield Crescent,Grosvenor Road,E08000009,Trafford,-2.36572,53.41671
1800SJ04461,Barnfield Crescent,Grosvenor Road,E08000009,Trafford,-2.36572,53.41671
1800SJ49391,Barrington Road,Gaskell Road,E08000009,Trafford,-2.36572,53.41671
1800SJ49401,Barrington Road,Gaskell Road,E08000009,Trafford,-2.36572,53.41671
1800SJ10671,Barry Rise,Park Road,E08000009,Trafford,-2.36572,53.41671
1800SJ00241,Barton Embankment,Trafford Way,E08000009,Trafford,-2.36572,53.41671
1800SJ03001,Barton Road,Broadway,E08000009,Trafford,-2.36572,53.41671
1800SJ03131,Barton Road,Broadway,E08000009,Trafford,-2.36572,53.41671
1800SJ11911,Beech Rd,Hale Road,E08000009,Trafford,-2.36572,53.41671
1800SJ17201,Beechfield,Washway Road,E08000009,Trafford,-2.36572,53.41671
1800SJ48681,Bent Lane,Paddock Lane,E08000009,Trafford,-2.36572,53.41671
1800SJ48611,Bent Lane,Paddock Lane,E08000009,Trafford,-2.36572,53.41671
1800SJ03041,Bent Lanes,Woodhouse Road,E08000009,Trafford,-2.36572,53.41671
1800SJH0641,Birch Rd,Birch Road,E08000009,Trafford,-2.36572,53.41671
1800SJ12461,Blessed Thomas Holford,Urban Road,E08000009,Trafford,-2.36572,53.41671
1800SJ40911,Bloomsbury Lane,Stockport Road,E08000009,Trafford,-2.36572,53.41671
1800SJ40961,Bloomsbury Lane,Stockport Road,E08000009,Trafford,-2.36572,53.41671
1800SJ11131,Bonville Road,Oldfield Road,E08000009,Trafford,-2.36572,53.41671
1800SJ10921,Borough Rd,Stamford Pk Rd,E08000009,Trafford,-2.36572,53.41671
1800SJ10741,Bow Green Road,Langham Road,E08000009,Trafford,-2.36572,53.41671
1800SJH1471,Bow Green Road,Bow Green Road,E08000009,Trafford,-2.36572,53.41671
1800SJ10711,Bow Green Road,Dunham Road,E08000009,Trafford,-2.36572,53.41671
1800SJ10701,Bow Green Road,Dunham Road,E08000009,Trafford,-2.36572,53.41671
1800SJH1461,Bow Green Road,Bow Green Road,E08000009,Trafford,-2.36572,53.41671
1800SJ17031,Bow Green Road,Langham Road,E08000009,Trafford,-2.36572,53.41671
1800SJ10761,Bow Lane,Priory Road,E08000009,Trafford,-2.36572,53.41671
1800SJH2421,Bowden Prepatory School,Cavendish Road,E08000009,Trafford,-2.36572,53.41671
1800SJ09581,Bowdon Church,The Firs,E08000009,Trafford,-2.36572,53.41671
1800SJ09591,Bowdon Church,The Firs,E08000009,Trafford,-2.36572,53.41671
1800SJH0861,Bowdon Primary School,Grange Road,E08000009,Trafford,-2.36572,53.41671
1800SJ02501,Bowers Avenue,Davyhulme Road,E08000009,Trafford,-2.36572,53.41671
1800SJ02511,Bowers Avenue,Davyhulme Road,E08000009,Trafford,-2.36572,53.41671
1800SJ02951,Bowfell Circle,Moorside Road,E08000009,Trafford,-2.36572,53.41671
1800SJ02961,Bowfell Circle,Moorside Road,E08000009,Trafford,-2.36572,53.41671
1800SJH1491,Bowgreen Farm,Bow Lane,E08000009,Trafford,-2.36572,53.41671
1800SJ48041,Box Walk,Wood Lane,E08000009,Trafford,-2.36572,53.41671
1800SJ32081,Boyer Street,Talbot Road,E08000009,Trafford,-2.36572,53.41671
1800SJH1911,Boyer Street,Boyer Street,E08000009,Trafford,-2.36572,53.41671
1800SJ32071,Boyer Street,Talbot Road,E08000009,Trafford,-2.36572,53.41671
1800SJ12111,Brackenfield Walk,Aimson Rd East,E08000009,Trafford,-2.36572,53.41671
1800SJ04321,Brayton Ave,Carrington Lane,E08000009,Trafford,-2.36572,53.41671
1800SJ04331,Brayton Ave,Carrington Lane,E08000009,Trafford,-2.36572,53.41671
1800SJ49061,Briarfield Road,Aimson Rd East,E08000009,Trafford,-2.36572,53.41671
1800SJ49071,Briarfield Road,Aimson Rd East,E08000009,Trafford,-2.36572,53.41671
1800SJ00771,Bridge Inn,Dane Road,E08000009,Trafford,-2.36572,53.41671
1800SJ01401,Brightgate Way,Barton Dock Rd,E08000009,Trafford,-2.36572,53.41671
1800SJ17481,Broad Lane,Hale Road,E08000009,Trafford,-2.36572,53.41671
1800SJH2621,Broad Road,Broad Road,E08000009,Trafford,-2.36572,53.41671
1800SJ09431,Broadheath Primary,Sinderland Road,E08000009,Trafford,-2.36572,53.41671
1800SJ48411,Broadheath Primary,Sinderland Road,E08000009,Trafford,-2.36572,53.41671
1800SJ04161,Broadoak,Ashburton Rd W,E08000009,Trafford,-2.36572,53.41671
1800SJ03231,Broadoak,Ashburton Rd W,E08000009,Trafford,-2.36572,53.41671
1800SJ48321,Broadoak School,Warburton Lane,E08000009,Trafford,-2.36572,53.41671
1800SJ48331,Broadoak School,Warburton Lane,E08000009,Trafford,-2.36572,53.41671
1800SJ03421,Broadoaks Road,Washway Road,E08000009,Trafford,-2.36572,53.41671
1800SJ03331,Broadoaks Road,Washway Road,E08000009,Trafford,-2.36572,53.41671
1800SJ48101,Broadway,Manchester Road,E08000009,Trafford,-2.36572,53.41671
1800SJ48251,Broadway,Manchester Road,E08000009,Trafford,-2.36572,53.41671
1800SJH0391,Broadway,Broadway,E08000009,Trafford,-2.36572,53.41671
1800SJ41431,Broadway,Hale Road,E08000009,Trafford,-2.36572,53.41671
1800SJ03031,Broadway,Woodhouse Road,E08000009,Trafford,-2.36572,53.41671
1800SJH0131,Brook Rd,Brook Road,E08000009,Trafford,-2.36572,53.41671
1800SJ02851,Brook Road,Moorside Road,E08000009,Trafford,-2.36572,53.41671
1800SJ02841,Brook Road,Moorside Road,E08000009,Trafford,-2.36572,53.41671
1800SJ30021,Brook's Bar,Upp Chorlton Rd,E08000009,Trafford,-2.36572,53.41671
1800SJ49291,Brookfield Drive,Park Road,E08000009,Trafford,-2.36572,53.41671
1800SJ49161,Brookfield Drive,Park Road,E08000009,Trafford,-2.36572,53.41671
1800SJ41391,Brooks Drive,Hale Road,E08000009,Trafford,-2.36572,53.41671
1800SJ41621,Broom Road,Hale Road,E08000009,Trafford,-2.36572,53.41671
1800SJ41611,Broomfield Lane,Hale Road,E08000009,Trafford,-2.36572,53.41671
1800SJ04311,Buck Lane,Carrington Lane,E08000009,Trafford,-2.36572,53.41671
1800SJ04341,Buck Lane,Carrington Lane,E08000009,Trafford,-2.36572,53.41671
1800SJ41041,Bulls Head,Wicker Lane,E08000009,Trafford,-2.36572,53.41671
1800SJ41191,Bulls Head,Wicker Lane,E08000009,Trafford,-2.36572,53.41671
1800SJ02601,Calderbank Avenue,Woodsend Road,E08000009,Trafford,-2.36572,53.41671
1800SJ02611,Calderbank Avenue,Woodsend Road,E08000009,Trafford,-2.36572,53.41671
1800SJ01471,Canal Bridge,Mosley Road,E08000009,Trafford,-2.36572,53.41671
1800SJ01541,Canal Bridge,Mosley Road,E08000009,Trafford,-2.36572,53.41671
1800SJ01811,Canalside North,John Gilbert Wy,E08000009,Trafford,-2.36572,53.41671
1800SJ01171,Canterbury Road,Crofts Bank Rd,E08000009,Trafford,-2.36572,53.41671
1800SJ02911,Canterbury Road,Cornhill Rd,E08000009,Trafford,-2.36572,53.41671
1800SJ01191,Canterbury Road,Crofts Bank Rd,E08000009,Trafford,-2.36572,53.41671
1800SJ01961,Carborundum,Trafford Pk Rd,E08000009,Trafford,-2.36572,53.41671
1800SJ01711,Carborundum,Trafford Pk Rd,E08000009,Trafford,-2.36572,53.41671
1800SJ41501,Carlton Road,Hale Road,E08000009,Trafford,-2.36572,53.41671
1800SJ04061,Carnall Leisure Centre,Kingsway Park,E08000009,Trafford,-2.36572,53.41671
1800SJ04031,Carnall Leisure Centre,Kingsway Park,E08000009,Trafford,-2.36572,53.41671
1800SJ41131,Carr Road,Delahays Road,E08000009,Trafford,-2.36572,53.41671
1800SJ41141,Carr Road,Delahays Road,E08000009,Trafford,-2.36572,53.41671
1800SJ48711,Carrgreen Lane,Dunham Road,E08000009,Trafford,-2.36572,53.41671
1800SJ48581,Carrgreen Lane,Dunham Road,E08000009,Trafford,-2.36572,53.41671
1800SJ03611,Carrington Lane,Manor Avenue,E08000009,Trafford,-2.36572,53.41671
1800SJ03501,Carrington Rd,Carrington Rd,E08000009,Trafford,-2.36572,53.41671
1800SJ03491,Carrington Rd,Carrington Road,E08000009,Trafford,-2.36572,53.41671
1800SJ03851,Catterick Avenue,Firsway,E08000009,Trafford,-2.36572,53.41671
1800SJ03721,Catterick Avenue,Firsway,E08000009,Trafford,-2.36572,53.41671
1800SJ00401,Cavendish Road,Chester Road,E08000009,Trafford,-2.36572,53.41671
1800SJ00741,Cavendish Road,Winchester Road,E08000009,Trafford,-2.36572,53.41671
1800SJ41471,Cemetery,Hale Road,E08000009,Trafford,-2.36572,53.41671
1800SJ41341,Cemetery,Hale Road,E08000009,Trafford,-2.36572,53.41671
1800SJH0461,Central Rd,Central Road,E08000009,Trafford,-2.36572,53.41671
1800SJ03691,Central Road,Mcr New Road,E08000009,Trafford,-2.36572,53.41671
1800SJ48261,Central Road,M/Cr New Road,E08000009,Trafford,-2.36572,53.41671
1800SJ11361,Chapel Drive,Chapel Lane,E08000009,Trafford,-2.36572,53.41671
1800SJ11451,Chapel Drive,Chapel Lane,E08000009,Trafford,-2.36572,53.41671
1800SJ00031,Chapel Lane,Chester Road,E08000009,Trafford,-2.36572,53.41671
1800SJ11441,Chapel Lane,Greengate,E08000009,Trafford,-2.36572,53.41671
1800SJ11341,Chapel Lane,Hawley Lane,E08000009,Trafford,-2.36572,53.41671
1800SJH0531,Chapel Ln,Chapel Lane,E08000009,Trafford,-2.36572,53.41671
1800SJ03291,Chapel Road,Cross Street,E08000009,Trafford,-2.36572,53.41671
1800SJH1531,Charcoal Road,Charcoal Road,E08000009,Trafford,-2.36572,53.41671
1800SJH1631,Charcoal Road,Charcoal Road,E08000009,Trafford,-2.36572,53.41671
1800SJ00931,Chatsworth Road,Barton Road,E08000009,Trafford,-2.36572,53.41671
1800SJ04661,Chatsworth Road,Barton Road,E08000009,Trafford,-2.36572,53.41671
1800SJ03741,Chepstow Avenue,Firsway,E08000009,Trafford,-2.36572,53.41671
1800SJ03831,Chepstow Avenue,Firsway,E08000009,Trafford,-2.36572,53.41671
1800SJ47851,Cheriton Avenue,Priory Road,E08000009,Trafford,-2.36572,53.41671
1800SJ48451,Cheshire Cheese,Manchester Road,E08000009,Trafford,-2.36572,53.41671
1800SB30291,Chester Rd,Chester Rd,E08000009,Trafford,-2.36572,53.41671
1800SJ30451,Chester Road,City Road,E08000009,Trafford,-2.36572,53.41671
1800SJ16961,Chester Road,Talbot Road,E08000009,Trafford,-2.36572,53.41671
1800SJ01031,Chester Road,Chapel Lane,E08000009,Trafford,-2.36572,53.41671
1800SJ00451,Chester Road,City Road,E08000009,Trafford,-2.36572,53.41671
1800SJ00861,Chester Road,Davyhulme Rd E,E08000009,Trafford,-2.36572,53.41671
1800SJ16941,Chester Road,Talbot Road,E08000009,Trafford,-2.36572,53.41671
1800SJ00871,Chester Road,Davyhulme Rd E,E08000009,Trafford,-2.36572,53.41671
1800SJ08711,Chester Road,White City Way,E08000009,Trafford,-2.36572,53.41671
1800SJ00181,Chill Factore,Trafford Way,E08000009,Trafford,-2.36572,53.41671
1800SB14271,Chorlton Rd,Moss Ln West,E08000009,Trafford,-2.36572,53.41671
1800SJ10731,Church Brow,Park Road,E08000009,Trafford,-2.36572,53.41671
1800SJ04351,Church Lane,Ashton Lane,E08000009,Trafford,-2.36572,53.41671
1800SJ04241,Church Lane,Ashton Lane,E08000009,Trafford,-2.36572,53.41671
1800SJ03191,Church Rectory,Redclyffe Road,E08000009,Trafford,-2.36572,53.41671
1800SJ17581,Church Street,Oldfield Road,E08000009,Trafford,-2.36572,53.41671
1800SJ01121,Ciss Lane,Stretford Road,E08000009,Trafford,-2.36572,53.41671
1800SJ01231,Ciss Lane,Stretford Road,E08000009,Trafford,-2.36572,53.41671
1800SJ30281,City Road,Chester Road,E08000009,Trafford,-2.36572,53.41671
1800SJ30271,City Road,Chester Road,E08000009,Trafford,-2.36572,53.41671
1800SJ47381,Claremont Road,Ashfield Road,E08000009,Trafford,-2.36572,53.41671
1800SJ49491,Cloverley,Brooklands Road,E08000009,Trafford,-2.36572,53.41671
1800SJ30121,College Road,Upp Chorlton Rd,E08000009,Trafford,-2.36572,53.41671
1800SJ48281,Columbine Walk,Central Road,E08000009,Trafford,-2.36572,53.41671
1800SJ48241,Common Lane,Manchester Road,E08000009,Trafford,-2.36572,53.41671
1800SJ48111,Common Lane,Manchester Road,E08000009,Trafford,-2.36572,53.41671
1800SJ48291,Community Centre,Central Road,E08000009,Trafford,-2.36572,53.41671
1800SJ00681,Community Centre,Humphrey Lane,E08000009,Trafford,-2.36572,53.41671
1800SJ09401,Conservative Club,Heyes Lane,E08000009,Trafford,-2.36572,53.41671
1800SJ49231,Conservative Club,Heyes Lane,E08000009,Trafford,-2.36572,53.41671
1800SB18341,Cornbrook Metrolink Stop,Bridgewater Way,E08000009,Trafford,-2.36572,53.41671
1800SJ30401,Cornbrook Street,Chorlton Road,E08000009,Trafford,-2.36572,53.41671
1800SJ30411,Cornbrook Street,Chorlton Road,E08000009,Trafford,-2.36572,53.41671
1800SJ00321,Cornbrook Street,Stretford Road,E08000009,Trafford,-2.36572,53.41671
1800SJ30511,Cornbrook Street,Stretford Road,E08000009,Trafford,-2.36572,53.41671
1800SJ02491,Cornhill Road,Davyhulme Road,E08000009,Trafford,-2.36572,53.41671
1800SJ02481,Cornhill Road,Davyhulme Road,E08000009,Trafford,-2.36572,53.41671
1800SJ11381,Crabtree Avenue,Greengate,E08000009,Trafford,-2.36572,53.41671
1800SJH1041,Craddock Rd,Craddock Rd,E08000009,Trafford,-2.36572,53.41671
1800SJH2921,Craddock Road,Craddock Road,E08000009,Trafford,-2.36572,53.41671
1800SJ47921,Craven Road,Sinderland Road,E08000009,Trafford,-2.36572,53.41671
1800SJ01071,Cressingham Road,Urmston Lane,E08000009,Trafford,-2.36572,53.41671
1800SJ17711,Cresta Court Hotel,Woodlands Road,E08000009,Trafford,-2.36572,53.41671
1800SJ09661,Cresta Court Hotel,Woodlands Road,E08000009,Trafford,-2.36572,53.41671
1800SJ02991,Crofts Bank Road,Moorside Road,E08000009,Trafford,-2.36572,53.41671
1800SJ00831,Crofts Bank Road,Winchester Road,E08000009,Trafford,-2.36572,53.41671
1800SJ32221,Cromwell Road,Kings Road,E08000009,Trafford,-2.36572,53.41671
1800SJH1131,Cross Lane West,Cross Lane West,E08000009,Trafford,-2.36572,53.41671
1800SJ47361,Cross Street,Ashfield Road,E08000009,Trafford,-2.36572,53.41671
1800SJ47371,Cross Street,Ashfield Road,E08000009,Trafford,-2.36572,53.41671
1800SJ03481,Crossford Bridge,Chester Road,E08000009,Trafford,-2.36572,53.41671
1800SJ00261,Crossford Bridge,Cross Street,E08000009,Trafford,-2.36572,53.41671
1800SJ47771,Cumberland Road,Derbyshire Rd S,E08000009,Trafford,-2.36572,53.41671
1800SJ47631,Cumberland Road,Derbyshire Rd South,E08000009,Trafford,-2.36572,53.41671
1800SJ47861,Dane Road,Priory Road,E08000009,Trafford,-2.36572,53.41671
1800SJ47811,Dane Road,Priory Road,E08000009,Trafford,-2.36572,53.41671
1800SJ03471,Dane Road,Cross Street,E08000009,Trafford,-2.36572,53.41671
1800SJ03281,Dane Road,Cross Street,E08000009,Trafford,-2.36572,53.41671
1800SJ00761,Danefield Road,Dane Road,E08000009,Trafford,-2.36572,53.41671
1800SJ02191,Dartford Road,Church Road,E08000009,Trafford,-2.36572,53.41671
1800SJ00531,Dartford Road,Church Road,E08000009,Trafford,-2.36572,53.41671
1800SJ18501,Davenport Lane,George Rich Way,E08000009,Trafford,-2.36572,53.41671
1800SJ18561,Davenport Lane,Atlantic Street,E08000009,Trafford,-2.36572,53.41671
1800SJ02931,Davyhulme Circle,Davyhulme Circl,E08000009,Trafford,-2.36572,53.41671
1800SJ01181,Davyhulme Circle,Crofts Bank Rd,E08000009,Trafford,-2.36572,53.41671
1800SJ02921,Davyhulme Circle,Davyhulme Road,E08000009,Trafford,-2.36572,53.41671
1800SJ16421,Davyhulme Library,Hayeswater Road,E08000009,Trafford,-2.36572,53.41671
1800SJ16431,Davyhulme Library,Hayeswater Road,E08000009,Trafford,-2.36572,53.41671
1800SJ03921,Davyhulme Park,Canterbury Road,E08000009,Trafford,-2.36572,53.41671
1800SJ03071,Davyhulme Road,Woodhouse Road,E08000009,Trafford,-2.36572,53.41671
1800SJ01341,Davyhulme Road,Park Road,E08000009,Trafford,-2.36572,53.41671
1800SJ02531,Davyhulme Road,Woodhouse Road,E08000009,Trafford,-2.36572,53.41671
1800SJ05851,Davyhulme Road,Park Road,E08000009,Trafford,-2.36572,53.41671
1800SJ00111,Davyhulme Road East,Chester Road,E08000009,Trafford,-2.36572,53.41671
1800SJ00881,Davyhulme Road East,Moss Road,E08000009,Trafford,-2.36572,53.41671
1800SJ00421,Davyhulme Road East,Chester Road,E08000009,Trafford,-2.36572,53.41671
1800SJ12391,Dawlish Road,Firs Road,E08000009,Trafford,-2.36572,53.41671
1800SJ48471,De Quincey Road,Manchester Road,E08000009,Trafford,-2.36572,53.41671
1800SJ49361,Deansgate Lane,Brook Lane,E08000009,Trafford,-2.36572,53.41671
1800SJ49431,Deansgate Lane,Brook Lane,E08000009,Trafford,-2.36572,53.41671
1800SJ49041,Dee Avenue,Greystoke Ave,E08000009,Trafford,-2.36572,53.41671
1800SJ41121,Delahays Road,Grove Lane,E08000009,Trafford,-2.36572,53.41671
1800SJ41321,Delahays Road,Hale Road,E08000009,Trafford,-2.36572,53.41671
1800SJ08611,Delahays Road,Grove Lane,E08000009,Trafford,-2.36572,53.41671
1800SJ41491,Delahays Road,Hale Road,E08000009,Trafford,-2.36572,53.41671
1800SJ01441,Derbyshire Lane,Park Road,E08000009,Trafford,-2.36572,53.41671
1800SJ00101,Derbyshire Lane,Chester Road,E08000009,Trafford,-2.36572,53.41671
1800SJ01331,Derbyshire Lane,Park Road,E08000009,Trafford,-2.36572,53.41671
1800SJH1051,Derbyshire Rd South,Derbyshire Rd S,E08000009,Trafford,-2.36572,53.41671
1800SJH2911,Derbyshire Rd South,Derbyshire Rd South,E08000009,Trafford,-2.36572,53.41671
1800SJH1001,Derbyshire Rd Sth,Norris Road,E08000009,Trafford,-2.36572,53.41671
1800SJ47271,Derbyshire Road,Northenden Road,E08000009,Trafford,-2.36572,53.41671
1800SJ47951,Drake Road,Barlow Road,E08000009,Trafford,-2.36572,53.41671
1800SJ48371,Drake Road,Barlow Road,E08000009,Trafford,-2.36572,53.41671
1800SJ10691,Dunham House,Charcoal Road,E08000009,Trafford,-2.36572,53.41671
1800SJ10681,Dunham House,Charcoal Road,E08000009,Trafford,-2.36572,53.41671
1800SJ10911,Dunham Massey,Woodhouse Lane,E08000009,Trafford,-2.36572,53.41671
1800SJ10901,Dunham Massey,Woodhouse Lane,E08000009,Trafford,-2.36572,53.41671
1800SJ10721,Dunham Road,Park Road,E08000009,Trafford,-2.36572,53.41671
1800SJ16881,Dunham Town,Woodhouse Lane,E08000009,Trafford,-2.36572,53.41671
1800SJ00541,Dunham Town,Woodhouse Lane,E08000009,Trafford,-2.36572,53.41671
1800SJ48491,Eastway,Washway Road,E08000009,Trafford,-2.36572,53.41671
1800SJ48621,Egerton Avenue,Paddock Lane,E08000009,Trafford,-2.36572,53.41671
1800SJ48671,Egerton Avenue,Paddock Lane,E08000009,Trafford,-2.36572,53.41671
1800SJ04051,Egerton High School,Kingsway Park,E08000009,Trafford,-2.36572,53.41671
1800SJ04041,Egerton High School,Kingsway Park,E08000009,Trafford,-2.36572,53.41671
1800SJ02061,Eleventh Street,Second Avenue,E08000009,Trafford,-2.36572,53.41671
1800SJ09111,Eleventh Street,Second Avenue,E08000009,Trafford,-2.36572,53.41671
1800SJ15691,Eleventh Street,Fifth Avenue,E08000009,Trafford,-2.36572,53.41671
1800SJ15701,Eleventh Street,Fifth Avenue,E08000009,Trafford,-2.36572,53.41671
1800SJ03181,Ellesmere Circle,Redclyffe Road,E08000009,Trafford,-2.36572,53.41671
1800SJ03171,Ellesmere Circle,Trafford Blvd,E08000009,Trafford,-2.36572,53.41671
1800SJ03201,Ellesmere Circle,Redclyffe Road,E08000009,Trafford,-2.36572,53.41671
1800SJ11211,Ellesmere Road,Barrington Road,E08000009,Trafford,-2.36572,53.41671
1800SJ09501,Elmsway,Hawley Lane,E08000009,Trafford,-2.36572,53.41671
1800SJ04511,Elton Road,Woodhouse Lane,E08000009,Trafford,-2.36572,53.41671
1800SJ04541,Elton Road,Woodhouse Lane,E08000009,Trafford,-2.36572,53.41671
1800SJ04251,Ennerdale Dr,Carrington Lane,E08000009,Trafford,-2.36572,53.41671
1800SJH2991,Epping Drive,Epping Drive,E08000009,Trafford,-2.36572,53.41671
1800SJH2981,Epping Drive,Epping Drive,E08000009,Trafford,-2.36572,53.41671
1800SJ03841,Epsom Avenue,Firsway,E08000009,Trafford,-2.36572,53.41671
1800SJ03731,Epsom Avenue,Firsway,E08000009,Trafford,-2.36572,53.41671
1800SJ00631,Erskine St,Stretford Rd,E08000009,Trafford,-2.36572,53.41671
1800SJ04071,Event City,Barton Dock Road,E08000009,Trafford,-2.36572,53.41671
1800SJ04091,Event City,Barton Dock Road,E08000009,Trafford,-2.36572,53.41671
1800SJ02461,Exeter Road,Lostock Road,E08000009,Trafford,-2.36572,53.41671
1800SJ02451,Exeter Road,Lostock Road,E08000009,Trafford,-2.36572,53.41671
1800SJ04211,Fairbairn House,Ashton Lane,E08000009,Trafford,-2.36572,53.41671
1800SJ10611,Fairbank House,Ashley Road,E08000009,Trafford,-2.36572,53.41671
1800SJ01991,Fifth Avenue,Village Way,E08000009,Trafford,-2.36572,53.41671
1800SJ01981,Fifth Avenue,Village Way,E08000009,Trafford,-2.36572,53.41671
1800SJ03801,Fir Tree Avenue,Firsway,E08000009,Trafford,-2.36572,53.41671
1800SJ03771,Fir Tree Avenue,Firsway,E08000009,Trafford,-2.36572,53.41671
1800SJ03651,Firs Road,Manor Avenue,E08000009,Trafford,-2.36572,53.41671
1800SJ03711,Firsway,Cherry Lane,E08000009,Trafford,-2.36572,53.41671
1800SJ03911,Firsway,Manor Avenue,E08000009,Trafford,-2.36572,53.41671
1800SJ03861,Firsway,Cherry Lane,E08000009,Trafford,-2.36572,53.41671
1800SJ01081,Firwood Avenue,Urmston Lane,E08000009,Trafford,-2.36572,53.41671
1800SJ01281,Firwood Avenue,Urmston Lane,E08000009,Trafford,-2.36572,53.41671
1800SJH0061,Flixton Rd,Flixton Rd,E08000009,Trafford,-2.36572,53.41671
1800SJH0151,Flixton Rd,Flixton Road,E08000009,Trafford,-2.36572,53.41671
1800SJH1261,Flixton Rd,Flixton Road,E08000009,Trafford,-2.36572,53.41671
1800SJH1251,Flixton Rd,Flixton Road,E08000009,Trafford,-2.36572,53.41671
1800SJ02681,Flixton Road,Irlam Road,E08000009,Trafford,-2.36572,53.41671
1800SJ08521,Flixton Road,Irlam Road,E08000009,Trafford,-2.36572,53.41671
1800SJ03511,Flixton Terminus,Carrington Road,E08000009,Trafford,-2.36572,53.41671
1800SJ02271,Flixton Village,Flixton Road,E08000009,Trafford,-2.36572,53.41671
1800SJ02281,Flixton Village,Flixton Road,E08000009,Trafford,-2.36572,53.41671
1800SJ10931,Football Ground,Stamford Pk Rd,E08000009,Trafford,-2.36572,53.41671
1800SJ40991,Football Ground,Moss Lane,E08000009,Trafford,-2.36572,53.41671
1800SJ11881,Football Ground,Moss Lane,E08000009,Trafford,-2.36572,53.41671
1800SJ04651,Fountains Road,Winchester Road,E08000009,Trafford,-2.36572,53.41671
1800SJ49471,Framingham Road,Brooklands Road,E08000009,Trafford,-2.36572,53.41671
1800SJ17781,Friars Court,Sibson Road,E08000009,Trafford,-2.36572,53.41671
1800SJ17761,Furness Road,Winchester Road,E08000009,Trafford,-2.36572,53.41671
1800SJH1481,Gaddum Rd,Bow Lane,E08000009,Trafford,-2.36572,53.41671
1800SJ11201,Garrick Playhouse,Barrington Road,E08000009,Trafford,-2.36572,53.41671
1800SJ48541,George Richards Way,Manchester Road,E08000009,Trafford,-2.36572,53.41671
1800SJ02331,Girls High School,Flixton Road,E08000009,Trafford,-2.36572,53.41671
1800SJ02341,Girls High School,Flixton Road,E08000009,Trafford,-2.36572,53.41671
1800SJ04401,Glen Avenue,Glebelands Road,E08000009,Trafford,-2.36572,53.41671
1800SJ04441,Glen Avenue,Glebelands Road,E08000009,Trafford,-2.36572,53.41671
1800SJ02261,Golf Club,Church Road,E08000009,Trafford,-2.36572,53.41671
1800SJ02251,Golf Club,Church Road,E08000009,Trafford,-2.36572,53.41671
1800SJ32161,Gorse Ave,Greatstone Rd,E08000009,Trafford,-2.36572,53.41671
1800SJ32151,Gorse Ave,Greatstone Road,E08000009,Trafford,-2.36572,53.41671
1800SJ16921,Gorse Hill Park,Talbot Road,E08000009,Trafford,-2.36572,53.41671
1800SJ16931,Gorse Hill Park,Talbot Road,E08000009,Trafford,-2.36572,53.41671
1800SJ48721,Gorsey Lane,Dunham Road,E08000009,Trafford,-2.36572,53.41671
1800SJ11111,Gorsey Lane,Oldfield Road,E08000009,Trafford,-2.36572,53.41671
1800SJ11171,Gorsey Lane,Oldfield Road,E08000009,Trafford,-2.36572,53.41671
1800SJ48571,Gorsey Lane,Dunham Road,E08000009,Trafford,-2.36572,53.41671
1800SJ41481,Grange Avenue,Hale Road,E08000009,Trafford,-2.36572,53.41671
1800SJ47551,Gratrix Lane,Northenden Road,E08000009,Trafford,-2.36572,53.41671
1800SJ41351,Graysands Road,Hale Road,E08000009,Trafford,-2.36572,53.41671
1800SJ41461,Graysands Road,Hale Road,E08000009,Trafford,-2.36572,53.41671
1800SJ32181,Greatstone Road,The Quadrant,E08000009,Trafford,-2.36572,53.41671
1800SJ00391,Greatstone Road,Chester Road,E08000009,Trafford,-2.36572,53.41671
1800SJ32171,Greatstone Road,The Quadrant,E08000009,Trafford,-2.36572,53.41671
1800SJ00151,Greatstone Road,Chester Road,E08000009,Trafford,-2.36572,53.41671
1800SJ11651,Green Lane,Wood Lane,E08000009,Trafford,-2.36572,53.41671
1800SJ17491,Green Lane,Wood Lane,E08000009,Trafford,-2.36572,53.41671
1800SJ11371,Greengate,Chapel Lane,E08000009,Trafford,-2.36572,53.41671
1800SJ04391,Grosvenor Road,Glebelands Road,E08000009,Trafford,-2.36572,53.41671
1800SJ41311,Grove Lane,Ash Lane,E08000009,Trafford,-2.36572,53.41671
1800SJ01581,Guiness Circle,Centenary Way,E08000009,Trafford,-2.36572,53.41671
1800SJ01641,Guinness Circle,Centenary Way,E08000009,Trafford,-2.36572,53.41671
1800SJ01631,Guinness Circle,Guiness Road,E08000009,Trafford,-2.36572,53.41671
1800SJ11401,Hale Road,High Elm Road,E08000009,Trafford,-2.36572,53.41671
1800SJ11411,Hale Road,High Elm Road,E08000009,Trafford,-2.36572,53.41671
1800SJ11261,Hale Station,Ashley Road,E08000009,Trafford,-2.36572,53.41671
1800SJ11871,Hale Station,Ashley Road,E08000009,Trafford,-2.36572,53.41671
1800SJ11271,Hale Village,Ashley Road,E08000009,Trafford,-2.36572,53.41671
1800SJ11861,Hale Village,Ashley Road,E08000009,Trafford,-2.36572,53.41671
1800SJ02891,Hall Farm Ave,Cornhill Road,E08000009,Trafford,-2.36572,53.41671
1800SJ09031,Hall Farm Ave,Cornhill Rd,E08000009,Trafford,-2.36572,53.41671
1800SJ05861,Harboro Road,Firs Road,E08000009,Trafford,-2.36572,53.41671
1800SJ09681,Harcourt Road,Manchester Road,E08000009,Trafford,-2.36572,53.41671
1800SJ48271,Hardwick Road,Moss Lane,E08000009,Trafford,-2.36572,53.41671
1800SJ40751,Hare and Hounds,Stockport Road,E08000009,Trafford,-2.36572,53.41671
1800SJ40891,Hare and Hounds,Stockport Road,E08000009,Trafford,-2.36572,53.41671
1800SJ12061,Harewood Avenue,Manor Avenue,E08000009,Trafford,-2.36572,53.41671
1800SJ02441,Hartford Road,Lostock Road,E08000009,Trafford,-2.36572,53.41671
1800SJ02431,Hartford Road,Lostock Road,E08000009,Trafford,-2.36572,53.41671
1800SJ11181,Hartley Road,Oldfield Road,E08000009,Trafford,-2.36572,53.41671
1800SJ11101,Hartley Road,Oldfield Road,E08000009,Trafford,-2.36572,53.41671
1800SJ01501,Hattons Road,Westinghouse Rd,E08000009,Trafford,-2.36572,53.41671
1800SJ01511,Hattons Road,Westinghouse Rd,E08000009,Trafford,-2.36572,53.41671
1800SJH1511,Hayeswater Road,Hayeswater Road,E08000009,Trafford,-2.36572,53.41671
1800SJH0141,Hayeswater Road,Hayeswater Road,E08000009,Trafford,-2.36572,53.41671
1800SJ02471,Hayeswater Road,Davyhulme Road,E08000009,Trafford,-2.36572,53.41671
1800SJ18971,Hayfield Street,NA,E08000009,Trafford,-2.36572,53.41671
1800SJ12451,Hayfield Street,NA,E08000009,Trafford,-2.36572,53.41671
1800SJ11231,Hazel Road,Barrington Road,E08000009,Trafford,-2.36572,53.41671
1800SJ11221,Hazel Road,Barrington Road,E08000009,Trafford,-2.36572,53.41671
1800SJ10791,Heald Road,Langham Road,E08000009,Trafford,-2.36572,53.41671
1800SJ10631,Heald Road,Langham Road,E08000009,Trafford,-2.36572,53.41671
1800SJ03671,Health Centre,Central Road,E08000009,Trafford,-2.36572,53.41671
1800SJ41181,Health Centre,Shay Lane,E08000009,Trafford,-2.36572,53.41671
1800SJ41051,Health Centre,Shay Lane,E08000009,Trafford,-2.36572,53.41671
1800SJ47701,Helsby Road,Norris Road,E08000009,Trafford,-2.36572,53.41671
1800SJ47681,Helsby Road,Norris Road,E08000009,Trafford,-2.36572,53.41671
1800SJ30491,Henrietta Street,Stretford Road,E08000009,Trafford,-2.36572,53.41671
1800SJ30481,Henrietta Street,Stretford Road,E08000009,Trafford,-2.36572,53.41671
1800SJ30471,Henry Street,Stretford Road,E08000009,Trafford,-2.36572,53.41671
1800SJ30461,Henry Street,Stretford Road,E08000009,Trafford,-2.36572,53.41671
1800SJ49151,Heyes Lane,Park Road,E08000009,Trafford,-2.36572,53.41671
1800SJ49301,Heyes Lane,Park Road,E08000009,Trafford,-2.36572,53.41671
1800SJ11391,High Elm Road,Greengate,E08000009,Trafford,-2.36572,53.41671
1800SJ00171,High Elm Road,Hale Road,E08000009,Trafford,-2.36572,53.41671
1800SJ11351,High Elm Road,Chapel Lane,E08000009,Trafford,-2.36572,53.41671
1800SJ11461,High Elm Road,Chapel Lane,E08000009,Trafford,-2.36572,53.41671
1800SJ10971,High School,Green Lane,E08000009,Trafford,-2.36572,53.41671
1800SJ11041,High School,Green Lane,E08000009,Trafford,-2.36572,53.41671
1800SJ09221,Higher Rd,Higher Road,E08000009,Trafford,-2.36572,53.41671
1800SJ09231,Higher Rd,Higher Road,E08000009,Trafford,-2.36572,53.41671
1800SJ32251,Hillingdon Road,Kings Road,E08000009,Trafford,-2.36572,53.41671
1800SJ32261,Hillingdon Road,Kings Road,E08000009,Trafford,-2.36572,53.41671
1800SJ04231,Hillington Road,Ashton Lane,E08000009,Trafford,-2.36572,53.41671
1800SJ04361,Hillington Road,Ashton Lane,E08000009,Trafford,-2.36572,53.41671
1800SJ00641,Hilrose Avenue,Bradfield Road,E08000009,Trafford,-2.36572,53.41671
1800SJ17791,Hilrose Avenue,Bradfield Road,E08000009,Trafford,-2.36572,53.41671
1800SJ49101,Hollinscroft Avenue,Mainwood Road,E08000009,Trafford,-2.36572,53.41671
1800SJ49031,Hollinscroft Avenue,Mainwood Road,E08000009,Trafford,-2.36572,53.41671
1800SJ08581,Holt Street,Sinderland Road,E08000009,Trafford,-2.36572,53.41671
1800SJ48421,Holt Street,Sinderland Road,E08000009,Trafford,-2.36572,53.41671
1800SJ03361,Homelands Road,Washway Road,E08000009,Trafford,-2.36572,53.41671
1800SJ03381,Homelands Road,Washway Road,E08000009,Trafford,-2.36572,53.41671
1800SJH1331,Humphrey Lane,Bradfield Road,E08000009,Trafford,-2.36572,53.41671
1800SJH0751,Humphrey Park Rail Stn,Derbyshire Ln W,E08000009,Trafford,-2.36572,53.41671
1800SJ16981,Humphrey Park Station,Chatsworth Road,E08000009,Trafford,-2.36572,53.41671
1800SJ04671,Humphrey Park Station,Chatsworth Road,E08000009,Trafford,-2.36572,53.41671
1800SJ00671,Humphrey Pk Station,Derbyshire Ln W,E08000009,Trafford,-2.36572,53.41671
1800SJ03871,Hurst Avenue,Cherry Lane,E08000009,Trafford,-2.36572,53.41671
1800SJ03701,Hurst Avenue,Cherry Lane,E08000009,Trafford,-2.36572,53.41671
1800SJ01361,Icopal,Barton Dock Rd,E08000009,Trafford,-2.36572,53.41671
1800SJ17681,Imperial War Museum,Trafford  Wharf Road,E08000009,Trafford,-2.36572,53.41671
1800SJ17691,Imperial War Museum,Trafford  Wharf Road,E08000009,Trafford,-2.36572,53.41671
1800SJ15681,Imperial War Museum Metrolink Stop,Trafford  Wharf Road,E08000009,Trafford,-2.36572,53.41671
1800SJ04101,intu Trafford Centre Metrolink Stop,Barton Dock Road,E08000009,Trafford,-2.36572,53.41671
1800SJ04081,intu Trafford Centre Metrolink Stop,Barton Dock Road,E08000009,Trafford,-2.36572,53.41671
1800SJ02651,Irlam Rd,Woodsend Rd,E08000009,Trafford,-2.36572,53.41671
1800SJ02661,Irlam Rd,Woodsend Rd,E08000009,Trafford,-2.36572,53.41671
1800SJ15021,Irlam Road,Lytham Road,E08000009,Trafford,-2.36572,53.41671
1800SJ02301,Irlam Road,Flixton Road,E08000009,Trafford,-2.36572,53.41671
1800SJ16481,Irlam Road,Lytham Road,E08000009,Trafford,-2.36572,53.41671
1800SJH2191,Irlam Road,Irlam Road,E08000009,Trafford,-2.36572,53.41671
1800SJ02291,Irlam Road,Flixton Road,E08000009,Trafford,-2.36572,53.41671
1800SJ09101,John Gilbert Way,Wharfside Way,E08000009,Trafford,-2.36572,53.41671
1800SJ02081,John Gilbert Way,Wharfside Way,E08000009,Trafford,-2.36572,53.41671
1800SJ11191,John Leigh Park,Oldfield Road,E08000009,Trafford,-2.36572,53.41671
1800SJ11091,John Leigh Park,Oldfield Road,E08000009,Trafford,-2.36572,53.41671
1800SJ01551,Kellogg's,Park Road,E08000009,Trafford,-2.36572,53.41671
1800SJ01461,Kellogg's,Park Road,E08000009,Trafford,-2.36572,53.41671
1800SJ01421,Kellogg's,Barton Dock Rd,E08000009,Trafford,-2.36572,53.41671
1800SJ01351,Kellogg's,Barton Dock Rd,E08000009,Trafford,-2.36572,53.41671
1800SJ49051,Keswick Road,Greystoke Ave,E08000009,Trafford,-2.36572,53.41671
1800SJ49081,Keswick Road,Greystoke Ave,E08000009,Trafford,-2.36572,53.41671
1800SJ30171,Kings Road,Seymour Grove,E08000009,Trafford,-2.36572,53.41671
1800SJ30041,Kings Road,Upp Chorlton Rd,E08000009,Trafford,-2.36572,53.41671
1800SJ30181,Kings Road,Seymour Grove,E08000009,Trafford,-2.36572,53.41671
1800SJ32201,Kings Terrace,Kings Road,E08000009,Trafford,-2.36572,53.41671
1800SJ32211,Kings Terrace,Kings Road,E08000009,Trafford,-2.36572,53.41671
1800SJ03141,Kingsway Park,Barton Road,E08000009,Trafford,-2.36572,53.41671
1800SJ09701,Ladybrook Avenue,Langham Grove,E08000009,Trafford,-2.36572,53.41671
1800SJ00721,Ladybrook Avenue,Langham Grove,E08000009,Trafford,-2.36572,53.41671
1800SJ15941,Lake Road,Trafford Pk Rd,E08000009,Trafford,-2.36572,53.41671
1800SJ01701,Lake Road,Trafford Pk Rd,E08000009,Trafford,-2.36572,53.41671
1800SJ49021,Lakes Medical Centre,Mainwood Road,E08000009,Trafford,-2.36572,53.41671
1800SJ49111,Lakes Medical Centre,Mainwood Road,E08000009,Trafford,-2.36572,53.41671
1800SJ16951,Lancashire Cricket Ground,Talbot Road,E08000009,Trafford,-2.36572,53.41671
1800SJ47991,Langdale Rd,Wood Lane,E08000009,Trafford,-2.36572,53.41671
1800SJ48071,Langdale Rd,Wood Lane,E08000009,Trafford,-2.36572,53.41671
1800SJ49131,Larkhill Close,Thorley Lane,E08000009,Trafford,-2.36572,53.41671
1800SJ49321,Larkhill Close,Thorley Lane,E08000009,Trafford,-2.36572,53.41671
1800SJH0411,Laurel Walk,Laurel Walk,E08000009,Trafford,-2.36572,53.41671
1800SJ02811,Lawrence Road,Moorside Road,E08000009,Trafford,-2.36572,53.41671
1800SJ02801,Lawrence Road,Moorside Road,E08000009,Trafford,-2.36572,53.41671
1800SJ48391,Lee Avenue,Craven Road,E08000009,Trafford,-2.36572,53.41671
1800SJ47441,Legh Arms,Old Hall Road,E08000009,Trafford,-2.36572,53.41671
1800SJ49201,Leys Road,Park Road,E08000009,Trafford,-2.36572,53.41671
1800SJ49181,Leys Road,Park Road,E08000009,Trafford,-2.36572,53.41671
1800SJ08661,Link Walk,Oak Road,E08000009,Trafford,-2.36572,53.41671
1800SJ48051,Link Walk,Oak Road,E08000009,Trafford,-2.36572,53.41671
1800SJ03931,Lismore Way,Iona Way,E08000009,Trafford,-2.36572,53.41671
1800SJ03941,Lismore Way,Iona Way,E08000009,Trafford,-2.36572,53.41671
1800SJ09631,Lloyd Street,The Downs,E08000009,Trafford,-2.36572,53.41671
1800SJH0221,Lock Lane,Lock Ln,E08000009,Trafford,-2.36572,53.41671
1800SJH0161,Lock Ln,Lock Ln,E08000009,Trafford,-2.36572,53.41671
1800SJ01241,Lodge Avenue,Stretford Road,E08000009,Trafford,-2.36572,53.41671
1800SJ48011,Long Walk,Wood Lane,E08000009,Trafford,-2.36572,53.41671
1800SJ32341,Longford Park,Edge Lane,E08000009,Trafford,-2.36572,53.41671
1800SJ32331,Longford Park,Edge Lane,E08000009,Trafford,-2.36572,53.41671
1800SJH1861,Loreto Grammar School,Hartley Rd,E08000009,Trafford,-2.36572,53.41671
1800SJ00971,Lostock Circle,Barton Road,E08000009,Trafford,-2.36572,53.41671
1800SJ00961,Lostock Circle,Barton Road,E08000009,Trafford,-2.36572,53.41671
1800SJ00941,Lostock Clinic,Barton Road,E08000009,Trafford,-2.36572,53.41671
1800SJ00991,Lostock Shops,Barton Road,E08000009,Trafford,-2.36572,53.41671
1800SJ47831,Lynwood Grove,Broad Road,E08000009,Trafford,-2.36572,53.41671
1800SJ04141,Lyons Rd,Ashburton Rd W,E08000009,Trafford,-2.36572,53.41671
1800SJ03251,Lyons Road,Ashburton Rd W,E08000009,Trafford,-2.36572,53.41671
1800SJ02761,Lytham Road,Woodsend Cres R,E08000009,Trafford,-2.36572,53.41671
1800SJ04491,Magistrates Court,Ashton Lane,E08000009,Trafford,-2.36572,53.41671
1800SJ11001,Mainwood Road,Thorley Lane,E08000009,Trafford,-2.36572,53.41671
1800SJ11011,Mainwood Road,Thorley Lane,E08000009,Trafford,-2.36572,53.41671
1800SJ49191,Malpas Drive,Park Road,E08000009,Trafford,-2.36572,53.41671
1800SJH0381,Manchester Rd,Broadway,E08000009,Trafford,-2.36572,53.41671
1800SJ00561,Manchester Road,Sinderland Road,E08000009,Trafford,-2.36572,53.41671
1800SJ03591,Manor Ave,Carrington Lane,E08000009,Trafford,-2.36572,53.41671
1800SJ04531,Manor Avenue,Woodhouse Lane,E08000009,Trafford,-2.36572,53.41671
1800SJ03791,Manor Avenue,Firs Road,E08000009,Trafford,-2.36572,53.41671
1800SJ03781,Manor Avenue,Firs Road,E08000009,Trafford,-2.36572,53.41671
1800SJ03601,Manor Avenue,Carrington Lane,E08000009,Trafford,-2.36572,53.41671
1800SJ04521,Manor Avenue,Woodhouse Lane,E08000009,Trafford,-2.36572,53.41671
1800SJ03641,Manor High School,Manor Avenue,E08000009,Trafford,-2.36572,53.41671
1800SB15551,Maple Rd,Brooklands Rd,E08000009,Trafford,-2.36572,53.41671
1800SJ02821,Mardale Avenue,Moorside Road,E08000009,Trafford,-2.36572,53.41671
1800SJ02831,Mardale Avenue,Moorside Road,E08000009,Trafford,-2.36572,53.41671
1800SJ05921,Market,Springfield Rd,E08000009,Trafford,-2.36572,53.41671
1800SJ47341,Market,Springfield Rd,E08000009,Trafford,-2.36572,53.41671
1800SJ03441,Marks and Spencer,Washway Road,E08000009,Trafford,-2.36572,53.41671
1800SJ03311,Marks and Spencer,Washway Road,E08000009,Trafford,-2.36572,53.41671
1800SJ49011,Marshfield Road,Mainwood Road,E08000009,Trafford,-2.36572,53.41671
1800SJ49121,Marshfield Road,Mainwood Road,E08000009,Trafford,-2.36572,53.41671
1800SJ47191,Marsland Rd,Marsland Road,E08000009,Trafford,-2.36572,53.41671
1800SJ47621,Marsland Road,Derbyshire Rd S,E08000009,Trafford,-2.36572,53.41671
1800SJ47781,Marsland Road,Derbyshire Rd S,E08000009,Trafford,-2.36572,53.41671
1800SJ47241,Marsland Road,Link Road,E08000009,Trafford,-2.36572,53.41671
1800SJ32231,Marston Road,Kings Road,E08000009,Trafford,-2.36572,53.41671
1800SJ32241,Marston Road,Kings Road,E08000009,Trafford,-2.36572,53.41671
1800SJ01781,Matt Busby Way,Wharfside Way,E08000009,Trafford,-2.36572,53.41671
1800SJ41291,Meadow Way,Grove Lane,E08000009,Trafford,-2.36572,53.41671
1800SJ41111,Meadow Way,Grove Lane,E08000009,Trafford,-2.36572,53.41671
1800SJ03021,Medical Ctr,Broadway,E08000009,Trafford,-2.36572,53.41671
1800SJ03111,Medical Ctr,Broadway,E08000009,Trafford,-2.36572,53.41671
1800SJ01691,Mellors Road,Trafford Pk Rd,E08000009,Trafford,-2.36572,53.41671
1800SJ01941,Mellors Road,Trafford Pk Rd,E08000009,Trafford,-2.36572,53.41671
1800SJ30151,Memorial Hospital,Seymour Grove,E08000009,Trafford,-2.36572,53.41671
1800SJ30161,Memorial Hospital,Seymour Grove,E08000009,Trafford,-2.36572,53.41671
1800SJ03581,Mersey Farm,Carrington Lane,E08000009,Trafford,-2.36572,53.41671
1800SJ03461,Mersey Road,Cross Street,E08000009,Trafford,-2.36572,53.41671
1800SJ40901,Merton Grove,Stockport Road,E08000009,Trafford,-2.36572,53.41671
1800SJ40971,Merton Grove,Stockport Road,E08000009,Trafford,-2.36572,53.41671
1800SJ14831,Methodist Church,Stockport Road,E08000009,Trafford,-2.36572,53.41671
1800SJ48081,Methodist Church,Warburton Lane,E08000009,Trafford,-2.36572,53.41671
1800SJ48301,Methodist Church,Warburton Lane,E08000009,Trafford,-2.36572,53.41671
1800SJ48161,Millhouse Cafe,Manchester Road,E08000009,Trafford,-2.36572,53.41671
1800SJ48191,Millhouse Cafe,Manchester Road,E08000009,Trafford,-2.36572,53.41671
1800SJ47941,Milner Avenue,Barlow Road,E08000009,Trafford,-2.36572,53.41671
1800SJ48381,Milner Avenue,Barlow Road,E08000009,Trafford,-2.36572,53.41671
1800SJ04431,Milton Grove,Glebelands Road,E08000009,Trafford,-2.36572,53.41671
1800SJ04411,Milton Grove,Glebelands Road,E08000009,Trafford,-2.36572,53.41671
1800SJ00701,Milton Road,Renton Road,E08000009,Trafford,-2.36572,53.41671
1800SJ00651,Montrose Ave,Derbyshire Ln W,E08000009,Trafford,-2.36572,53.41671
1800SJ00661,Montrose Avenue,Derbyshire Lane West,E08000009,Trafford,-2.36572,53.41671
1800SJ01661,Moorings Road,Trafford Pk Rd,E08000009,Trafford,-2.36572,53.41671
1800SJH0911,Moorings Road,Moorings Road,E08000009,Trafford,-2.36572,53.41671
1800SJ47331,Moorside Court,Sibson Road,E08000009,Trafford,-2.36572,53.41671
1800SJ01201,Moorside Road,Crofts Bank Rd,E08000009,Trafford,-2.36572,53.41671
1800SJ01161,Moorside Road East,Crofts Bank Rd,E08000009,Trafford,-2.36572,53.41671
1800SJ03521,Morris Grove,Carrington Road,E08000009,Trafford,-2.36572,53.41671
1800SJ03531,Morris Grove,Carrington Road,E08000009,Trafford,-2.36572,53.41671
1800SJ01911,Mosley Road,Village Way,E08000009,Trafford,-2.36572,53.41671
1800SJ01571,Mosley Road,Village Way,E08000009,Trafford,-2.36572,53.41671
1800SJ48591,Moss Brow,Dunham Road,E08000009,Trafford,-2.36572,53.41671
1800SJ48701,Moss Brow,Dunham Road,E08000009,Trafford,-2.36572,53.41671
1800SJ49441,Moss Lane,Brookway,E08000009,Trafford,-2.36572,53.41671
1800SJH1241,Moss Lane,NA,E08000009,Trafford,-2.36572,53.41671
1800SJH0291,Moss Lane,Moss Lane,E08000009,Trafford,-2.36572,53.41671
1800SJH1081,Moss Lane,Moss Lane,E08000009,Trafford,-2.36572,53.41671
1800SJH1101,Moss Lane,Moss Lane,E08000009,Trafford,-2.36572,53.41671
1800SJ48351,Moss Lane,Warburton Lane,E08000009,Trafford,-2.36572,53.41671
1800SJH1091,Moss Lane,Moss Lane,E08000009,Trafford,-2.36572,53.41671
1800SJH0491,Moss Lane,Moss Lane,E08000009,Trafford,-2.36572,53.41671
1800SJ49351,Moss Lane,Brookway,E08000009,Trafford,-2.36572,53.41671
1800SJH0721,Moss Lane,NA,E08000009,Trafford,-2.36572,53.41671
1800SJH0521,Moss Ln,Moss Lane,E08000009,Trafford,-2.36572,53.41671
1800SJ01431,Moss Park Road,Barton Road,E08000009,Trafford,-2.36572,53.41671
1800SJ01051,Moss Park Road,Barton Road,E08000009,Trafford,-2.36572,53.41671
1800SJ12341,Moss Road,Davyhulme Rd E,E08000009,Trafford,-2.36572,53.41671
1800SJ00901,Moss Road,Derbyshire Lane,E08000009,Trafford,-2.36572,53.41671
1800SJ49451,Moss Trooper,Moss Lane,E08000009,Trafford,-2.36572,53.41671
1800SJ49341,Moss Trooper,Moss Lane,E08000009,Trafford,-2.36572,53.41671
1800SJ02421,Moss Vale Hotel,Lostock Road,E08000009,Trafford,-2.36572,53.41671
1800SJ02411,Moss Vale Hotel,Lostock Road,E08000009,Trafford,-2.36572,53.41671
1800SJ15861,Moss Vale Road,Winchester Road,E08000009,Trafford,-2.36572,53.41671
1800SJ11641,Moss Vale Road,Winchester Road,E08000009,Trafford,-2.36572,53.41671
1800SJ49091,Mossfield Road,Greystoke Ave,E08000009,Trafford,-2.36572,53.41671
1800SJ11281,Murieston Road,Ashley Road,E08000009,Trafford,-2.36572,53.41671
1800SJ11851,Murieston Road,Ashley Road,E08000009,Trafford,-2.36572,53.41671
1800SJ03221,Nash Rd,Ashburton Rd W,E08000009,Trafford,-2.36572,53.41671
1800SJ04171,Nash Road,Ashburton Rd W,E08000009,Trafford,-2.36572,53.41671
1800SJ49371,Navigation Road Tram Stop,Wellington Road,E08000009,Trafford,-2.36572,53.41671
1800SJ49421,Navigation Road Tram Stop,Wellington Road,E08000009,Trafford,-2.36572,53.41671
1800SJH2811,New Wellington High School,Mossgrove Road,E08000009,Trafford,-2.36572,53.41671
1800SJH1701,New Wellington HS,Moss Lane,E08000009,Trafford,-2.36572,53.41671
1800SJ47751,Newby Drive,Conway Road,E08000009,Trafford,-2.36572,53.41671
1800SJ47731,Newby Drive,Conway Road,E08000009,Trafford,-2.36572,53.41671
1800SJ14921,Newton Road,Flixton Road,E08000009,Trafford,-2.36572,53.41671
1800SJ03621,Nisa,Manor Avenue,E08000009,Trafford,-2.36572,53.41671
1800SJ03631,Nisa,Manor Avenue,E08000009,Trafford,-2.36572,53.41671
1800SJ47451,Norley Drive,Northenden Road,E08000009,Trafford,-2.36572,53.41671
1800SJH0791,Norris Road,Norris Road,E08000009,Trafford,-2.36572,53.41671
1800SJ47081,Norris Road,Brooklands Road,E08000009,Trafford,-2.36572,53.41671
1800SJ47761,Norris Road,Conway Road,E08000009,Trafford,-2.36572,53.41671
1800SJ47471,Norris Road,Northenden Road,E08000009,Trafford,-2.36572,53.41671
1800SJH0771,Norris Road,Norris Road,E08000009,Trafford,-2.36572,53.41671
1800SJ08941,Norris Road,Brooklands Road,E08000009,Trafford,-2.36572,53.41671
1800SJ47541,Norris Road,Northenden Road,E08000009,Trafford,-2.36572,53.41671
1800SJ47721,Norris Road,Conway Road,E08000009,Trafford,-2.36572,53.41671
1800SJ47641,Norris Road,Derbyshire Rd S,E08000009,Trafford,-2.36572,53.41671
1800SJ47691,Northenden Road,Norris Road,E08000009,Trafford,-2.36572,53.41671
1800SJ47741,Northenden Road,Conway Road,E08000009,Trafford,-2.36572,53.41671
1800SJ32311,Norwood Road,Edge Lane,E08000009,Trafford,-2.36572,53.41671
1800SJ32321,Norwood Road,Edge Lane,E08000009,Trafford,-2.36572,53.41671
1800SJ30261,Nuttall Street,Chester Road,E08000009,Trafford,-2.36572,53.41671
1800SJ30251,Nuttall Street,Chester Road,E08000009,Trafford,-2.36572,53.41671
1800SJ48341,Oak Road,Warburton Lane,E08000009,Trafford,-2.36572,53.41671
1800SJ47971,Oak Road,Warburton Lane,E08000009,Trafford,-2.36572,53.41671
1800SJ48031,Oak Road,Wood Lane,E08000009,Trafford,-2.36572,53.41671
1800SJ04201,Oaklands Drive,Oaklands Drive,E08000009,Trafford,-2.36572,53.41671
1800SJ32101,Oaklands House,Talbot Road,E08000009,Trafford,-2.36572,53.41671
1800SJ32091,Oaklands House,Talbot Road,E08000009,Trafford,-2.36572,53.41671
1800SJ18521,Ocean Street,Atlantic St,E08000009,Trafford,-2.36572,53.41671
1800SJ04271,Okehampton Crescent,Firs Road,E08000009,Trafford,-2.36572,53.41671
1800SJ04301,Okehampton Crescent,Firs Road,E08000009,Trafford,-2.36572,53.41671
1800SJ00951,Old Hall Road,Barton Road,E08000009,Trafford,-2.36572,53.41671
1800SJ00981,Old Hall Road,Barton Road,E08000009,Trafford,-2.36572,53.41671
1800SJ11051,Old Meadow Lane,Thorley Lane,E08000009,Trafford,-2.36572,53.41671
1800SJH2311,Old Meadow Lane,Old Meadow Lane,E08000009,Trafford,-2.36572,53.41671
1800SJ10961,Old Meadow Lane,Thorley Lane,E08000009,Trafford,-2.36572,53.41671
1800SJ03161,Old Park Lane,Trafford Boulevard,E08000009,Trafford,-2.36572,53.41671
1800SJ03981,Old Park Lane,Trafford Boulevard,E08000009,Trafford,-2.36572,53.41671
1800SJ11141,Oldfield Road,Greenway,E08000009,Trafford,-2.36572,53.41671
1800SJ47841,Oldfield Road,Broad Road,E08000009,Trafford,-2.36572,53.41671
1800SJ15831,Oldfield Shops,Seamons Road,E08000009,Trafford,-2.36572,53.41671
1800SJ48631,Paddock Lane,Townfield Road,E08000009,Trafford,-2.36572,53.41671
1800SJ48661,Paddock Lane,Townfield Road,E08000009,Trafford,-2.36572,53.41671
1800SJ30221,Paragon House,Seymour Grove,E08000009,Trafford,-2.36572,53.41671
1800SJ47421,Park House,Northenden Road,E08000009,Trafford,-2.36572,53.41671
1800SJ01011,Park Road,Derbyshire Lane,E08000009,Trafford,-2.36572,53.41671
1800SJ11841,Park Road,Ashley Road,E08000009,Trafford,-2.36572,53.41671
1800SJ11291,Park Road,Ashley Road,E08000009,Trafford,-2.36572,53.41671
1800SJ09351,Park Road,Riddings Road,E08000009,Trafford,-2.36572,53.41671
1800SJ00841,Park Road,Davyhulme Road,E08000009,Trafford,-2.36572,53.41671
1800SJ00911,Park Road,Derbyshire Lane,E08000009,Trafford,-2.36572,53.41671
1800SJ49331,Park Road,Moss Lane,E08000009,Trafford,-2.36572,53.41671
1800SJ49461,Park Road,Moss Lane,E08000009,Trafford,-2.36572,53.41671
1800SJ49281,Park Road,Riddings Road,E08000009,Trafford,-2.36572,53.41671
1800SJ04111,Park Way,Barton Dock Road,E08000009,Trafford,-2.36572,53.41671
1800SJ03261,Park Way,Ashburton Rd W,E08000009,Trafford,-2.36572,53.41671
1800SJ04131,Park Way,Ashburton Rd W,E08000009,Trafford,-2.36572,53.41671
1800SJ17351,Park Way,Barton Dock Road,E08000009,Trafford,-2.36572,53.41671
1800SJ48061,Partington Terminus,Oak Road,E08000009,Trafford,-2.36572,53.41671
1800SJ10811,Peter Street,Ashley Road,E08000009,Trafford,-2.36572,53.41671
1800SJ00051,Poplar Road,Chester Road,E08000009,Trafford,-2.36572,53.41671
1800SJ00041,Poplar Road,Chester Road,E08000009,Trafford,-2.36572,53.41671
1800SJ01881,Praed Road,Westinghouse Rd,E08000009,Trafford,-2.36572,53.41671
1800SJ02161,Praed Road,Westinghouse Rd,E08000009,Trafford,-2.36572,53.41671
1800SJ02361,Princess Road,Flixton Road,E08000009,Trafford,-2.36572,53.41671
1800SJ02351,Princess Road,Flixton Road,E08000009,Trafford,-2.36572,53.41671
1800SJ48401,Princess Street,Craven Road,E08000009,Trafford,-2.36572,53.41671
1800SJ47931,Princess Street,Craven Road,E08000009,Trafford,-2.36572,53.41671
1800SJH2631,Priory Road,Priory Road,E08000009,Trafford,-2.36572,53.41671
1800SJ01671,Proctor & Gamble,Trafford Pk Rd,E08000009,Trafford,-2.36572,53.41671
1800SJ41451,Queens Road,Hale Road,E08000009,Trafford,-2.36572,53.41671
1800SJ02181,Queens Road,Church Road,E08000009,Trafford,-2.36572,53.41671
1800SJ15881,Queens Road,Church Road,E08000009,Trafford,-2.36572,53.41671
1800SJ01131,Queens Road,Stretford Road,E08000009,Trafford,-2.36572,53.41671
1800SJ01221,Queens Road,Stretford Road,E08000009,Trafford,-2.36572,53.41671
1800SJ00431,Radnor Street,Chester Road,E08000009,Trafford,-2.36572,53.41671
1800SJ03351,Raglan Road,Washway Road,E08000009,Trafford,-2.36572,53.41671
1800SJ03391,Raglan Road,Washway Road,E08000009,Trafford,-2.36572,53.41671
1800SJ48521,Railway Bridge,Manchester Road,E08000009,Trafford,-2.36572,53.41671
1800SJ48461,Railway Bridge,Manchester Road,E08000009,Trafford,-2.36572,53.41671
1800SJ11901,Railway Bridge,Hale Road,E08000009,Trafford,-2.36572,53.41671
1800SJ11421,Ravenwood Drive,High Elm Road,E08000009,Trafford,-2.36572,53.41671
1800SJ03061,Redbourne Drive,Woodhouse Road,E08000009,Trafford,-2.36572,53.41671
1800SJ03081,Redbourne Drive,Woodhouse Road,E08000009,Trafford,-2.36572,53.41671
1800SJH0421,Redbrook Rd,Redbrook Road,E08000009,Trafford,-2.36572,53.41671
1800SJ48311,Redbrook Road,Warburton Lane,E08000009,Trafford,-2.36572,53.41671
1800SJ47981,Redbrook Road,Warburton Lane,E08000009,Trafford,-2.36572,53.41671
1800SJ01901,Redwing Centre,Mosley Road,E08000009,Trafford,-2.36572,53.41671
1800SJ00711,Renton Road,Wardle Close,E08000009,Trafford,-2.36572,53.41671
1800SJ14991,Repton Avenue,Lytham Road,E08000009,Trafford,-2.36572,53.41671
1800SJ03241,Richmond Rd,Ashburton Rd W,E08000009,Trafford,-2.36572,53.41671
1800SJ04151,Richmond Road,Ashburton Rd W,E08000009,Trafford,-2.36572,53.41671
1800SJ04001,Rivers Lane,Barton Road,E08000009,Trafford,-2.36572,53.41671
1800SJ01021,Robin Hood,Barton Road,E08000009,Trafford,-2.36572,53.41671
1800SJ01041,Robin Hood,Barton Road,E08000009,Trafford,-2.36572,53.41671
1800SJ01311,Robin Hood,Urmston Lane,E08000009,Trafford,-2.36572,53.41671
1800SJ01321,Robin Hood,Urmston Lane,E08000009,Trafford,-2.36572,53.41671
1800SJ02211,Roebuck Hotel,Church Road,E08000009,Trafford,-2.36572,53.41671
1800SJ02201,Roebuck Hotel,Church Road,E08000009,Trafford,-2.36572,53.41671
1800SJ15011,Roedean Gardens,Lytham Road,E08000009,Trafford,-2.36572,53.41671
1800SJ02741,Roedean Gardens,Woodsend Cres R,E08000009,Trafford,-2.36572,53.41671
1800SJ02751,Roedean Gardens,Woodsend Cres R,E08000009,Trafford,-2.36572,53.41671
1800SJ15001,Roedean Gardens,Lytham Road,E08000009,Trafford,-2.36572,53.41671
1800SJ48731,Rope and Anchor,Dunham Road,E08000009,Trafford,-2.36572,53.41671
1800SJ48561,Rope and Anchor,Paddock Lane,E08000009,Trafford,-2.36572,53.41671
1800SJ02971,Roseneath Road,Moorside Road,E08000009,Trafford,-2.36572,53.41671
1800SJ02381,Roseneath Road,Flixton Road,E08000009,Trafford,-2.36572,53.41671
1800SJ02981,Roseneath Road,Moorside Road,E08000009,Trafford,-2.36572,53.41671
1800SJ02371,Roseneath Road,Flixton Road,E08000009,Trafford,-2.36572,53.41671
1800SJ41401,Rydal Drive,Hale Road,E08000009,Trafford,-2.36572,53.41671
1800SJ41381,Rydal Drive,Hale Road,E08000009,Trafford,-2.36572,53.41671
1800SJ47351,Sainsbury's,Ashfield Road,E08000009,Trafford,-2.36572,53.41671
1800SJ10841,Sainsbury's,Lloyd Street,E08000009,Trafford,-2.36572,53.41671
1800SJ10831,Sainsbury's,Lloyd Street,E08000009,Trafford,-2.36572,53.41671
1800SJ47051,Sale Cemetery,Marsland Road,E08000009,Trafford,-2.36572,53.41671
1800SJ47021,Sale Cemetery,Marsland Road,E08000009,Trafford,-2.36572,53.41671
1800SJ47591,Sale Grammar School,Marsland Road,E08000009,Trafford,-2.36572,53.41671
1800SJ47211,Sale Grammar School,Marsland Road,E08000009,Trafford,-2.36572,53.41671
1800SJ47661,Sale High School,Norris Road,E08000009,Trafford,-2.36572,53.41671
1800SJ00511,Sale High School,Norris Road,E08000009,Trafford,-2.36572,53.41671
1800SJ47561,Sale Moor Village,Marsland Road,E08000009,Trafford,-2.36572,53.41671
1800SJ47301,Sale Tram Stop,School Road,E08000009,Trafford,-2.36572,53.41671
1800SJ47391,Sale Tram Stop,Broad Road,E08000009,Trafford,-2.36572,53.41671
1800SJ01301,Sandy Lane,Urmston Lane,E08000009,Trafford,-2.36572,53.41671
1800SJ01291,Sandy Lane,Urmston Lane,E08000009,Trafford,-2.36572,53.41671
1800SJ48691,Saracens Head,Paddock Lane,E08000009,Trafford,-2.36572,53.41671
1800SJ01801,Scania,John Gilbert Wy,E08000009,Trafford,-2.36572,53.41671
1800SJ09421,School Road,Springfield Rd,E08000009,Trafford,-2.36572,53.41671
1800SJ01831,Second Avenue,Westinghouse Rd,E08000009,Trafford,-2.36572,53.41671
1800SJ03091,Selby Drive,Woodhouse Road,E08000009,Trafford,-2.36572,53.41671
1800SJ03051,Selby Drive,Woodhouse Road,E08000009,Trafford,-2.36572,53.41671
1800SJ01061,Sevenways,Barton Road,E08000009,Trafford,-2.36572,53.41671
1800SJ08901,Sevenways,Barton Road,E08000009,Trafford,-2.36572,53.41671
1800SJ32041,Seymour Grove,Kings Road,E08000009,Trafford,-2.36572,53.41671
1800SJ32551,Seymour Grove,Kings Road,E08000009,Trafford,-2.36572,53.41671
1800SJH0071,Shaftesbury Ave,Shaftesbury Ave,E08000009,Trafford,-2.36572,53.41671
1800SJH1071,Shaftesbury Ave,Shaftesbury Ave,E08000009,Trafford,-2.36572,53.41671
1800SJ08101,Shaftesbury Ave,Aimson Rd East,E08000009,Trafford,-2.36572,53.41671
1800SJ47501,Shaftesbury Avenue,Stockport Road,E08000009,Trafford,-2.36572,53.41671
1800SJ48231,Shell Road,Manchester Road,E08000009,Trafford,-2.36572,53.41671
1800SJ48121,Shell Road,Manchester Road,E08000009,Trafford,-2.36572,53.41671
1800SJ47711,Shops,Norris Road,E08000009,Trafford,-2.36572,53.41671
1800SJ49271,Shops,Riddings Road,E08000009,Trafford,-2.36572,53.41671
1800SJ04021,Shops,Canterbury Road,E08000009,Trafford,-2.36572,53.41671
1800SJ49241,Shops,Woodhouse La Ea,E08000009,Trafford,-2.36572,53.41671
1800SJ09391,Shops,Woodhouse Lane East,E08000009,Trafford,-2.36572,53.41671
1800SJ47651,Shops,North Parade,E08000009,Trafford,-2.36572,53.41671
1800SJ47671,Shops,Norris Road,E08000009,Trafford,-2.36572,53.41671
1800SJ04291,Sidmouth Road,Firs Road,E08000009,Trafford,-2.36572,53.41671
1800SJ04281,Sidmouth Road,Firs Road,E08000009,Trafford,-2.36572,53.41671
1800SJH1181,Sinderland Lane,Sinderland Lane,E08000009,Trafford,-2.36572,53.41671
1800SJH1161,Sinderland Lane,Sinderland Lane,E08000009,Trafford,-2.36572,53.41671
1800SJH1171,Sinderland Lane,Sinderland Lane,E08000009,Trafford,-2.36572,53.41671
1800SJH1201,Sinderland Lane,NA,E08000009,Trafford,-2.36572,53.41671
1800SJ48531,Sinderland Road,Manchester Road,E08000009,Trafford,-2.36572,53.41671
1800SJ47961,Sinderland Road,Barlow Road,E08000009,Trafford,-2.36572,53.41671
1800SJ48361,Sinderland Road,Barlow Road,E08000009,Trafford,-2.36572,53.41671
1800SJ17661,Sir Alex Ferguson Way,Sir A Ferguson,E08000009,Trafford,-2.36572,53.41671
1800SJ13981,Sir Alex Ferguson Way,Trafford  Wharf Road,E08000009,Trafford,-2.36572,53.41671
1800SJ15591,Sir Alex Ferguson Way,Trafford  Wharf Road,E08000009,Trafford,-2.36572,53.41671
1800SJ17671,Sir Alex Ferguson Way,Sir A Ferguson,E08000009,Trafford,-2.36572,53.41671
1800SJ01751,Sir Matt Busby Way,Wharfside Way,E08000009,Trafford,-2.36572,53.41671
1800SJ15101,Skerton Road,Kings Road,E08000009,Trafford,-2.36572,53.41671
1800SJ02231,Snowden Ave,Church Road,E08000009,Trafford,-2.36572,53.41671
1800SJ02221,Snowden Avenue,Church Road,E08000009,Trafford,-2.36572,53.41671
1800SJ00891,Social Club,Moss Road,E08000009,Trafford,-2.36572,53.41671
1800SJ41421,St Ambrose,Hale Road,E08000009,Trafford,-2.36572,53.41671
1800SJ41411,St Ambrose,Hale Road,E08000009,Trafford,-2.36572,53.41671
1800SJH2831,St Ambrose College,School Grounds,E08000009,Trafford,-2.36572,53.41671
1800SJH1321,St Antony's College,Bradfield Road,E08000009,Trafford,-2.36572,53.41671
1800SJ11061,St David's,Grove Lane,E08000009,Trafford,-2.36572,53.41671
1800SJ10951,St David's,Grove Lane,E08000009,Trafford,-2.36572,53.41671
1800SJ02701,St John's,Irlam Rd,E08000009,Trafford,-2.36572,53.41671
1800SJ49481,St John's Church,Brooklands Road,E08000009,Trafford,-2.36572,53.41671
1800SJ09831,St John's Road,Delamere Road,E08000009,Trafford,-2.36572,53.41671
1800SJ32011,St John's Road,Kings Road,E08000009,Trafford,-2.36572,53.41671
1800SJ32001,St John's Road,Kings Road,E08000009,Trafford,-2.36572,53.41671
1800SJ09841,St John's Road,Delamere Road,E08000009,Trafford,-2.36572,53.41671
1800SJ10751,St Luke's Church,Vicarage Lane,E08000009,Trafford,-2.36572,53.41671
1800SJ10771,St Luke's Church,Vicarage Lane,E08000009,Trafford,-2.36572,53.41671
1800SJ09611,St Margaret's Road,Cavendish Road,E08000009,Trafford,-2.36572,53.41671
1800SJ09601,St Margaret's Road,Cavendish Road,E08000009,Trafford,-2.36572,53.41671
1800SJH1591,St Margarets Road,St Margarets Rd,E08000009,Trafford,-2.36572,53.41671
1800SJ01561,St Michael's,Church Road,E08000009,Trafford,-2.36572,53.41671
1800SJ01841,St Michael's,Church Road,E08000009,Trafford,-2.36572,53.41671
1800SJ01391,St Modwen Road,Barton Dock Rd,E08000009,Trafford,-2.36572,53.41671
1800SJ01381,St Modwen Road,Barton Dock Rd,E08000009,Trafford,-2.36572,53.41671
1800SJH1731,St Vincents School,Orchard Road,E08000009,Trafford,-2.36572,53.41671
1800SJ18571,St Werburg's Church,Bent Lane,E08000009,Trafford,-2.36572,53.41671
1800SJH1981,St. Hughs School,Park Road,E08000009,Trafford,-2.36572,53.41671
1800SJ18661,Stamford Brook Rd,Manchester Rd,E08000009,Trafford,-2.36572,53.41671
1800SJH2961,Stamford Brook Road,Stamford Brook Road,E08000009,Trafford,-2.36572,53.41671
1800SJH2951,Stamford Brook Road,Stamford Brook Road,E08000009,Trafford,-2.36572,53.41671
1800SJ10801,Stamford Road,Ashley Road,E08000009,Trafford,-2.36572,53.41671
1800SJ10621,Stamford Road,Ashley Road,E08000009,Trafford,-2.36572,53.41671
1800SJ11251,Stamford Street,Barrington Road,E08000009,Trafford,-2.36572,53.41671
1800SJ17921,Stamford Way,Stamford New Rd,E08000009,Trafford,-2.36572,53.41671
1800SJ00231,Stanley Drive,Wood Lane,E08000009,Trafford,-2.36572,53.41671
1800SJ03401,Stanley Mount,Washway Road,E08000009,Trafford,-2.36572,53.41671
1800SJ11241,Station House,Stamford New Rd,E08000009,Trafford,-2.36572,53.41671
1800SJ09911,Stelfox Avenue,Stockport Road,E08000009,Trafford,-2.36572,53.41671
1800SJ09901,Stelfox Avenue,Stockport Road,E08000009,Trafford,-2.36572,53.41671
1800SJH1671,Stokoe Avenue,Stokoe Avenue,E08000009,Trafford,-2.36572,53.41671
1800SJ40921,Stonemasons Arms,Stockport Road,E08000009,Trafford,-2.36572,53.41671
1800SJ40951,Stonemasons Arms,Stockport Road,E08000009,Trafford,-2.36572,53.41671
1800SJ15671,stops,Trafford Wharf Road,E08000009,Trafford,-2.36572,53.41671
1800SJ00801,Stretford Arndale,Kingsway,E08000009,Trafford,-2.36572,53.41671
1800SJ00011,Stretford Arndale,Chester Road,E08000009,Trafford,-2.36572,53.41671
1800SJ00791,Stretford Arndale,Kingsway,E08000009,Trafford,-2.36572,53.41671
1800SJ00071,Stretford Arndale,Chester Road,E08000009,Trafford,-2.36572,53.41671
1800SJ00821,Stretford Arndale,Kingsway,E08000009,Trafford,-2.36572,53.41671
1800SJ00811,Stretford Arndale,Kingsway,E08000009,Trafford,-2.36572,53.41671
1800SJ00021,Stretford Arndale,Chester Road,E08000009,Trafford,-2.36572,53.41671
1800SJ11731,Stretford Metrolink Stop,Station Appr'Ch,E08000009,Trafford,-2.36572,53.41671
1800SJ32301,Stretford Metrolink Stop,Edge Lane,E08000009,Trafford,-2.36572,53.41671
1800SJ00081,Stretford Public Hall,Chester Road,E08000009,Trafford,-2.36572,53.41671
1800SJ00091,Stretford Public Hall,Chester Road,E08000009,Trafford,-2.36572,53.41671
1800SJ02171,Stretford Road,Queens Road,E08000009,Trafford,-2.36572,53.41671
1800SJ32291,Stretford Tram Stop,Edge Lane,E08000009,Trafford,-2.36572,53.41671
1800SJ08621,Sunningdale Avenue,Northenden Road,E08000009,Trafford,-2.36572,53.41671
1800SJ30081,Sylvan Avenue,Upp Chorlton Rd,E08000009,Trafford,-2.36572,53.41671
1800SJ09361,Tabley Grove,Riddings Road,E08000009,Trafford,-2.36572,53.41671
1800SJ15321,Talbot Road,Warwick Road,E08000009,Trafford,-2.36572,53.41671
1800SJ03661,Taunton Road,Manor Avenue,E08000009,Trafford,-2.36572,53.41671
1800SJ03211,Taylor Rd,Ashburton Rd W,E08000009,Trafford,-2.36572,53.41671
1800SJ04181,Taylor Road,Ashburton Rd W,E08000009,Trafford,-2.36572,53.41671
1800SJ11121,Taylor Road,Walton Road,E08000009,Trafford,-2.36572,53.41671
1800SJ00131,Taylors Road,Chester Road,E08000009,Trafford,-2.36572,53.41671
1800SJ00141,Taylors Road,Chester Road,E08000009,Trafford,-2.36572,53.41671
1800SJ00411,Taylors Road,Chester Road,E08000009,Trafford,-2.36572,53.41671
1800SJH1301,Temple Rd,Temple Road,E08000009,Trafford,-2.36572,53.41671
1800SJH2901,Temple Rd,Temple Road,E08000009,Trafford,-2.36572,53.41671
1800SJ47881,Temple Road,Dane Road,E08000009,Trafford,-2.36572,53.41671
1800SJ47431,Temple Road,Northenden Road,E08000009,Trafford,-2.36572,53.41671
1800SJ47801,Temple Road,Dane Road,E08000009,Trafford,-2.36572,53.41671
1800SJ01931,Tenax Circle,Moorings Road,E08000009,Trafford,-2.36572,53.41671
1800SJ47871,Tennis Club,Dane Road,E08000009,Trafford,-2.36572,53.41671
1800SJ47901,Tennis Club,Dane Road,E08000009,Trafford,-2.36572,53.41671
1800SJ17771,Tesco,Chester Road,E08000009,Trafford,-2.36572,53.41671
1800SJ00381,Tesco,Chester Road,E08000009,Trafford,-2.36572,53.41671
1800SJ01491,Textilose Road,Westinghouse Rd,E08000009,Trafford,-2.36572,53.41671
1800SJ01521,Textilose Road,Westinghouse Rd,E08000009,Trafford,-2.36572,53.41671
1800SJ15261,The Bent Brook,Broadway,E08000009,Trafford,-2.36572,53.41671
1800SJ03761,The Brigadier,Firsway,E08000009,Trafford,-2.36572,53.41671
1800SJ03811,The Brigadier,Firsway,E08000009,Trafford,-2.36572,53.41671
1800SJ03881,The Carters Arms,Northenden Road,E08000009,Trafford,-2.36572,53.41671
1800SJ10821,The Downs,Railway Street,E08000009,Trafford,-2.36572,53.41671
1800SJ48481,The Drive,Washway Road,E08000009,Trafford,-2.36572,53.41671
1800SJ48501,The Drive,Washway Road,E08000009,Trafford,-2.36572,53.41671
1800SJ01371,The Furrows,Barton Dock Rd,E08000009,Trafford,-2.36572,53.41671
1800SJ01411,The Furrows,Barton Dock Rd,E08000009,Trafford,-2.36572,53.41671
1800SJ09411,The Green,Grange Avenue,E08000009,Trafford,-2.36572,53.41671
1800SJ09691,The Green,Grange Avenue,E08000009,Trafford,-2.36572,53.41671
1800SJ47611,The Little B,Marsland Road,E08000009,Trafford,-2.36572,53.41671
1800SJ47201,The Little B,Marsland Road,E08000009,Trafford,-2.36572,53.41671
1800SJ01001,The Melville,Barton Road,E08000009,Trafford,-2.36572,53.41671
1800SJ00921,The Melville,Barton Road,E08000009,Trafford,-2.36572,53.41671
1800SJ47221,The Moorfield,Marsland Road,E08000009,Trafford,-2.36572,53.41671
1800SJ47581,The Moorfield,Marsland Road,E08000009,Trafford,-2.36572,53.41671
1800SJ48441,The Navigation,Manchester Road,E08000009,Trafford,-2.36572,53.41671
1800SJ40761,The Old Hall,Stockport Road,E08000009,Trafford,-2.36572,53.41671
1800SJ41021,The Old Hall,Stockport Road,E08000009,Trafford,-2.36572,53.41671
1800SJ32191,The Quadrant,Kings Road,E08000009,Trafford,-2.36572,53.41671
1800SJ10661,The Springs,Park Road,E08000009,Trafford,-2.36572,53.41671
1800SJ48001,The Squire,Wood Lane,E08000009,Trafford,-2.36572,53.41671
1800SJ11081,The Wheatsheaf,Church Street,E08000009,Trafford,-2.36572,53.41671
1800SJ01861,Third Avenue,Westinghouse Rd,E08000009,Trafford,-2.36572,53.41671
1800SJ02151,Third Avenue,Westinghouse Rd,E08000009,Trafford,-2.36572,53.41671
1800SJ01721,Third Avenue,Trafford Pk Rd,E08000009,Trafford,-2.36572,53.41671
1800SJ03751,Thirsk Avenue,Firsway,E08000009,Trafford,-2.36572,53.41671
1800SJ03821,Thirsk Avenue,Firsway,E08000009,Trafford,-2.36572,53.41671
1800SJ00121,Thomas Street,Chester Road,E08000009,Trafford,-2.36572,53.41671
1800SJ11021,Timperley Church,Thorley Lane,E08000009,Trafford,-2.36572,53.41671
1800SJ10991,Timperley Church,Thorley Lane,E08000009,Trafford,-2.36572,53.41671
1800SJ49211,Timperley Tram Stop,Park Road,E08000009,Trafford,-2.36572,53.41671
1800SJ49171,Timperley Tram Stop,Park Road,E08000009,Trafford,-2.36572,53.41671
1800SJ16991,Timperley Village,Park Road,E08000009,Trafford,-2.36572,53.41671
1800SJ14821,Timperley Village,Park Road,E08000009,Trafford,-2.36572,53.41671
1800SJ49141,Timperley Village,Thorly Lane,E08000009,Trafford,-2.36572,53.41671
1800SJ41081,Tintern Drive,Ash Lane,E08000009,Trafford,-2.36572,53.41671
1800SJ41151,Tintern Drive,Ash Lane,E08000009,Trafford,-2.36572,53.41671
1800SJ01111,Torbay Road,Stretford Road,E08000009,Trafford,-2.36572,53.41671
1800SJ16691,Towns Gate,Irlam Road,E08000009,Trafford,-2.36572,53.41671
1800SJ02731,Towns Gate,Irlam Road,E08000009,Trafford,-2.36572,53.41671
1800SJ15921,Trading Estate,Guinness Road,E08000009,Trafford,-2.36572,53.41671
1800SJ01621,Trading Estate,Guinness Road,E08000009,Trafford,-2.36572,53.41671
1800SJ30241,Trafford Bar,Seymour Grove,E08000009,Trafford,-2.36572,53.41671
1800SJ32051,Trafford Bar,Talbot Road,E08000009,Trafford,-2.36572,53.41671
1800SJ30211,Trafford Bar,Seymour Grove,E08000009,Trafford,-2.36572,53.41671
1800SJ00211,Trafford Bar,Chester Road,E08000009,Trafford,-2.36572,53.41671
1800SJ00311,Trafford Bar,Chester Road,E08000009,Trafford,-2.36572,53.41671
1800SJ32061,Trafford Bar,Talbot Road,E08000009,Trafford,-2.36572,53.41671
1800SJ00301,Trafford Bar,Chester Road,E08000009,Trafford,-2.36572,53.41671
1800SJ00221,Trafford Bar,Chester Road,E08000009,Trafford,-2.36572,53.41671
1800SJ32141,Trafford College,Talbot Road,E08000009,Trafford,-2.36572,53.41671
1800SJ48511,Trafford College,Manchester Road,E08000009,Trafford,-2.36572,53.41671
1800SJ14851,Trafford College,Manchester Road,E08000009,Trafford,-2.36572,53.41671
1800SJ32131,Trafford College,Talbot Road,E08000009,Trafford,-2.36572,53.41671
1800SJ00621,Trafford Depot,Higher Road,E08000009,Trafford,-2.36572,53.41671
1800SJ02881,Trafford Gen Hosp,Moorside Rd,E08000009,Trafford,-2.36572,53.41671
1800SJ02871,Trafford Gen Hosp,Moorside Rd,E08000009,Trafford,-2.36572,53.41671
1800SJ30231,Trafford Plaza,Seymour Grove,E08000009,Trafford,-2.36572,53.41671
1800SJ03151,Trafford Retail Park,Neary Way,E08000009,Trafford,-2.36572,53.41671
1800SJ01771,Trafford Road,Traff Wharf Rd,E08000009,Trafford,-2.36572,53.41671
1800SJ15771,Trafford Road,Wharf Road,E08000009,Trafford,-2.36572,53.41671
1800SJ15631,Trafford Wharf Road,Warren Bruce Road,E08000009,Trafford,-2.36572,53.41671
1800SJ03551,Training Centre,Carrington Lane,E08000009,Trafford,-2.36572,53.41671
1800SJ03541,Training Centre,Carrington Lane,E08000009,Trafford,-2.36572,53.41671
1800SJ47061,Tram Stop,Brooklands Road,E08000009,Trafford,-2.36572,53.41671
1800SJ47011,Tram Stop,Brooklands Road,E08000009,Trafford,-2.36572,53.41671
1800SJ32271,Tresco Avenue,Kings Road,E08000009,Trafford,-2.36572,53.41671
1800SJ32281,Tresco Avenue,Kings Road,E08000009,Trafford,-2.36572,53.41671
1800SJ02311,Trevor Road,Flixton Road,E08000009,Trafford,-2.36572,53.41671
1800SJ02321,Trevor Road,Flixton Road,E08000009,Trafford,-2.36572,53.41671
1800SJ47261,Trinity Road,Northenden Road,E08000009,Trafford,-2.36572,53.41671
1800SJH0451,Tulip Rd,Tulip Road,E08000009,Trafford,-2.36572,53.41671
1800SJH1121,Tulip Road,Laurel Walk,E08000009,Trafford,-2.36572,53.41671
1800SJH2941,Turning Circle,Dunham Road,E08000009,Trafford,-2.36572,53.41671
1800SJ30051,Upper Chorlton Road,Kings Road,E08000009,Trafford,-2.36572,53.41671
1800SJ30061,Upper Chorlton Road,Kings Road,E08000009,Trafford,-2.36572,53.41671
1800SJ41011,Urban Avenue,Moss Lane,E08000009,Trafford,-2.36572,53.41671
1800SJ41001,Urban Avenue,Moss Lane,E08000009,Trafford,-2.36572,53.41671
1800SJ01261,Urmston Hotel,Stretford Road,E08000009,Trafford,-2.36572,53.41671
1800SJ01091,Urmston Hotel,Stretford Road,E08000009,Trafford,-2.36572,53.41671
1800SJ01271,Urmston Hotel,Stretford Road,E08000009,Trafford,-2.36572,53.41671
1800SJ16441,Urmston Leisure Centre,Bowfell Road,E08000009,Trafford,-2.36572,53.41671
1800SJ02861,Urmston Leisure Centre,Bowfell Road,E08000009,Trafford,-2.36572,53.41671
1800SJ01141,Urmston Library,Crofts Bank Rd,E08000009,Trafford,-2.36572,53.41671
1800SJ01211,Urmston Library,Crofts Bank Rd,E08000009,Trafford,-2.36572,53.41671
1800SJ01151,Urmston Library,Crofts Bank Rd,E08000009,Trafford,-2.36572,53.41671
1800SJ18651,Urmston Mens Club,Higher Rd,E08000009,Trafford,-2.36572,53.41671
1800SJ02401,Urmston Station,Flixton Road,E08000009,Trafford,-2.36572,53.41671
1800SJ02391,Urmston Station,Flixton Road,E08000009,Trafford,-2.36572,53.41671
1800SJ01871,Vale Road,Stockport Road,E08000009,Trafford,-2.36572,53.41671
1800SJ02631,Valley Road,Woodsend Road,E08000009,Trafford,-2.36572,53.41671
1800SJ02621,Valley Road,Woodsend Road,E08000009,Trafford,-2.36572,53.41671
1800SJ48221,Vicarage Gardens,Manchester Road,E08000009,Trafford,-2.36572,53.41671
1800SJ48131,Vicarage Gardens,Manchester Road,E08000009,Trafford,-2.36572,53.41671
1800SJ10641,Vicarage Lane,Langham Road,E08000009,Trafford,-2.36572,53.41671
1800SJ10781,Vicarage Lane,Langham Road,E08000009,Trafford,-2.36572,53.41671
1800SJ01731,Village Circle,Wharfside Way,E08000009,Trafford,-2.36572,53.41671
1800SJ15651,Village Circle,Trafford Pk Rd,E08000009,Trafford,-2.36572,53.41671
1800SJ02071,Village Circle,Wharfside Way,E08000009,Trafford,-2.36572,53.41671
1800SJ15641,Village Circle,Trafford Pk Rd,E08000009,Trafford,-2.36572,53.41671
1800SJ15621,Village Circle,Warren Bruce Rd,E08000009,Trafford,-2.36572,53.41671
1800SJ01791,Village Metrolink Stop,Village Way,E08000009,Trafford,-2.36572,53.41671
1800SJ02051,Village Metrolink Stop,Village Way,E08000009,Trafford,-2.36572,53.41671
1800SJ10871,Vine Inn,Station Road,E08000009,Trafford,-2.36572,53.41671
1800SJ10881,Vine Inn,Station Road,E08000009,Trafford,-2.36572,53.41671
1800SJ03341,Vine Inn,Washway Road,E08000009,Trafford,-2.36572,53.41671
1800SJ00751,Wallingford Road,Winchester Road,E08000009,Trafford,-2.36572,53.41671
1800SJ48021,Walnut Road,Wood Lane,E08000009,Trafford,-2.36572,53.41671
1800SJH1801,War Memorial,St Margarets Rd,E08000009,Trafford,-2.36572,53.41671
1800SJ17381,Warburton Close,Greengate,E08000009,Trafford,-2.36572,53.41671
1800SJ11431,Warburton Close,Greengate,E08000009,Trafford,-2.36572,53.41671
1800SJH0561,Warburton Lane,Warburton Lane,E08000009,Trafford,-2.36572,53.41671
1800SJ47281,Wardle Road,Northenden Road,E08000009,Trafford,-2.36572,53.41671
1800SJ00161,Warwick Road,Chester Road,E08000009,Trafford,-2.36572,53.41671
1800SJ17171,Warwick Road,Talbot Road,E08000009,Trafford,-2.36572,53.41671
1800SJ00191,Warwick Road,Chester Road,E08000009,Trafford,-2.36572,53.41671
1800SJ00371,Warwick Road,Chester Road,E08000009,Trafford,-2.36572,53.41671
1800SJ32111,Warwick Road,Talbot Road,E08000009,Trafford,-2.36572,53.41671
1800SJ32581,Warwick Road South,Kings Road,E08000009,Trafford,-2.36572,53.41671
1800SJ32591,Warwick Road South,Kings Road,E08000009,Trafford,-2.36572,53.41671
1800SJ47031,Washway Road,Marsland Road,E08000009,Trafford,-2.36572,53.41671
1800SJ09281,Washway Road,The Drive,E08000009,Trafford,-2.36572,53.41671
1800SJ04501,Washway Road,Woodhouse Lane,E08000009,Trafford,-2.36572,53.41671
1800SJ47041,Washway Road,Marsland Road,E08000009,Trafford,-2.36572,53.41671
1800SJ41101,Well Green Shops,Grove Lane,E08000009,Trafford,-2.36572,53.41671
1800SJ41301,Well Green Shops,Grove Lane,E08000009,Trafford,-2.36572,53.41671
1800SJH2971,Wellington HS,Wellington Road,E08000009,Trafford,-2.36572,53.41671
1800SJ03011,Welwyn Close,Broadway,E08000009,Trafford,-2.36572,53.41671
1800SJ03121,Welwyn Close,Broadway,E08000009,Trafford,-2.36572,53.41671
1800SJ01971,Westbrook Road,Trafford Pk Rd,E08000009,Trafford,-2.36572,53.41671
1800SJ01481,Westinghouse Road,Mosley Road,E08000009,Trafford,-2.36572,53.41671
1800SJ01891,Westinghouse Road,Mosley Road,E08000009,Trafford,-2.36572,53.41671
1800SJ01531,Westinghouse Road,Mosley Road,E08000009,Trafford,-2.36572,53.41671
1800SJ02111,Westinghouse Road,Second Avenue,E08000009,Trafford,-2.36572,53.41671
1800SJ02121,Westinghouse Road,Second Avenue,E08000009,Trafford,-2.36572,53.41671
1800SJ15601,Westinghouse Road,Fifth Avenue,E08000009,Trafford,-2.36572,53.41671
1800SJ15611,Westinghouse Road,Fifth Avenue,E08000009,Trafford,-2.36572,53.41671
1800SJ41331,Westminster Road,Hale Road,E08000009,Trafford,-2.36572,53.41671
1800SJ01101,Westwood Avenue,Stretford Road,E08000009,Trafford,-2.36572,53.41671
1800SJ01251,Westwood Avenue,Stretford Road,E08000009,Trafford,-2.36572,53.41671
1800SJ00341,White City,Chester Road,E08000009,Trafford,-2.36572,53.41671
1800SJ17221,White City,Chester Road,E08000009,Trafford,-2.36572,53.41671
1800SJ00351,White City,Chester Road,E08000009,Trafford,-2.36572,53.41671
1800SJ17211,White City,Chester Road,E08000009,Trafford,-2.36572,53.41671
1800SJH2551,White City Way,White City Way,E08000009,Trafford,-2.36572,53.41671
1800SJ11471,Whitehouse Drive,Broad Lane,E08000009,Trafford,-2.36572,53.41671
1800SJ11331,Whitehouse Drive,Broad Lane,E08000009,Trafford,-2.36572,53.41671
1800SJ16971,Whitehouse Lane,Sinderland Lane,E08000009,Trafford,-2.36572,53.41671
1800SJ11941,Whitehouse Lane,Sinderland Lane,E08000009,Trafford,-2.36572,53.41671
1800SJ02671,Wibbersley Park,Irlam Road,E08000009,Trafford,-2.36572,53.41671
1800SJ02691,Wibbersley Park,Irlam Road,E08000009,Trafford,-2.36572,53.41671
1800SJ12181,Wilton Drive,Elmridge Drive,E08000009,Trafford,-2.36572,53.41671
1800SJ12211,Wilton Drive,Elmridge Drive,E08000009,Trafford,-2.36572,53.41671
1800SJ41171,Winchester Road,Shay Lane,E08000009,Trafford,-2.36572,53.41671
1800SJ41061,Winchester Road,Shay Lane,E08000009,Trafford,-2.36572,53.41671
1800SJ04421,Windsor Avenue,Glebelands Road,E08000009,Trafford,-2.36572,53.41671
1800SJ41161,Woburn Drive,Ash Lane,E08000009,Trafford,-2.36572,53.41671
1800SJ41071,Woburn Drive,Ash Lane,E08000009,Trafford,-2.36572,53.41671
1800SJ10981,Wood Lane,Green Lane,E08000009,Trafford,-2.36572,53.41671
1800SJH4991,Wood Lane,Wood Lane,E08000009,Trafford,-2.36572,53.41671
1800SJH4981,Wood Lane,Wood Lane,E08000009,Trafford,-2.36572,53.41671
1800SJ11031,Wood Lane,Green Lane,E08000009,Trafford,-2.36572,53.41671
1800SJ30091,Wood Road,Upp Chorlton Rd,E08000009,Trafford,-2.36572,53.41671
1800SJ32021,Wood Road North,Kings Road,E08000009,Trafford,-2.36572,53.41671
1800SJ32031,Wood Road North,Kings Road,E08000009,Trafford,-2.36572,53.41671
1800SJ49501,Woodbourne Road,Brooklands Road,E08000009,Trafford,-2.36572,53.41671
1800SJ47071,Woodbourne Road,Brooklands Road,E08000009,Trafford,-2.36572,53.41671
1800SJ16351,Woodbridge Road,Woodsend Circle,E08000009,Trafford,-2.36572,53.41671
1800SJ10891,Woodhouse Lane,Woodhouse Lane,E08000009,Trafford,-2.36572,53.41671
1800SJH2321,Woodhouse Lane,Woodhouse Lane,E08000009,Trafford,-2.36572,53.41671
1800SJ10861,Woodhouse Lane,Woodhouse Lane,E08000009,Trafford,-2.36572,53.41671
1800SJ17721,Woodhouse Lane,Smithy Lane,E08000009,Trafford,-2.36572,53.41671
1800SJ03371,Woodhouse Lane,Washway Road,E08000009,Trafford,-2.36572,53.41671
1800SJ17731,Woodhouse Lane,Smithy Lane,E08000009,Trafford,-2.36572,53.41671
1800SJ09381,Woodhouse Lane East,Riddings Road,E08000009,Trafford,-2.36572,53.41671
1800SJ49251,Woodhouse Lane East,Riddings Road,E08000009,Trafford,-2.36572,53.41671
1800SJ03101,Woodhouse Road,Broadway,E08000009,Trafford,-2.36572,53.41671
1800SJ02521,Woodhouse Road,Davyhulme Road,E08000009,Trafford,-2.36572,53.41671
1800SJ47411,Woodlands Road,Northenden Road,E08000009,Trafford,-2.36572,53.41671
1800SJH2091,Woodlands Road,Woodlands Road,E08000009,Trafford,-2.36572,53.41671
1800SJ02791,Woodsend Circle,Moorside Road,E08000009,Trafford,-2.36572,53.41671
1800SJ02781,Woodsend Circle,Woodsend Cres R,E08000009,Trafford,-2.36572,53.41671
1800SJ02641,Woodsend Circle,Woodsend Road,E08000009,Trafford,-2.36572,53.41671
1800SJ02771,Woodsend Clinic,Woodsend Cres R,E08000009,Trafford,-2.36572,53.41671
1800SJ02721,Woodsend Crescent Road,Irlam Road,E08000009,Trafford,-2.36572,53.41671
1800SJ02711,Woodsend Crescent Road,Irlam Road,E08000009,Trafford,-2.36572,53.41671
1800SJ11741,Woodsend Rd,Irlam Road,E08000009,Trafford,-2.36572,53.41671
1800SJ32561,Woodstock Road,Kings Road,E08000009,Trafford,-2.36572,53.41671
1800SJ17111,Worthington Park,Broad Road,E08000009,Trafford,-2.36572,53.41671
1800SJ17101,Worthington Park,Broad Road,E08000009,Trafford,-2.36572,53.41671
1800SJH2021,Worthington Primary School,Wythenshawe Rd,E08000009,Trafford,-2.36572,53.41671
1800SJ47461,Worthington Road,Northenden Road,E08000009,Trafford,-2.36572,53.41671
1800SJ11491,Wyngate Road,Arthog Road,E08000009,Trafford,-2.36572,53.41671
1800SJ11311,Wyngate Road,Arthog Road,E08000009,Trafford,-2.36572,53.41671
1800SJ47791,Wythenshawe Road,Old Hall Road,E08000009,Trafford,-2.36572,53.41671
1800SJ47891,Wythenshawe Road,Old Hall Road,E08000009,Trafford,-2.36572,53.41671
