{
"type": "FeatureCollection",
"crs": { "type": "name", "properties": { "name": "urn:ogc:def:crs:OGC:1.3:CRS84" } },
"features": [
{ "type": "Feature", "properties": { "camera_id": 1, "location": "Trafford Wharf Road (Trafford Park)", "area_name": "Trafford", "area_code": "E0800009" }, "geometry": { "type": "Point", "coordinates": [ -2.284777, 53.464515 ] } },
{ "type": "Feature", "properties": { "camera_id": 3, "location": "Wharfside Way\/John Gilbert Way (Trafford Park)", "area_name": "Trafford", "area_code": "E0800009" }, "geometry": { "type": "Point", "coordinates": [ -2.296845, 53.466056 ] } },
{ "type": "Feature", "properties": { "camera_id": 5, "location": "Chester Rd White City (Old Trafford)", "area_name": "Trafford", "area_code": "E0800009" }, "geometry": { "type": "Point", "coordinates": [ -2.284086, 53.462683 ] } },
{ "type": "Feature", "properties": { "camera_id": 6, "location": "Chester Rd\/Sir Matt Busby Way (Old Trafford)", "area_name": "Trafford", "area_code": "E0800009" }, "geometry": { "type": "Point", "coordinates": [ -2.288022, 53.461151 ] } },
{ "type": "Feature", "properties": { "camera_id": 7, "location": "Seymour Grove\/Kings Rd (Old Trafford)", "area_name": "Trafford", "area_code": "E0800009" }, "geometry": { "type": "Point", "coordinates": [ -2.273636, 53.454314 ] } },
{ "type": "Feature", "properties": { "camera_id": 9, "location": "The Quadrant (Old Trafford)", "area_name": "Trafford", "area_code": "E0800009" }, "geometry": { "type": "Point", "coordinates": [ -2.286269, 53.452648 ] } },
{ "type": "Feature", "properties": { "camera_id": 10, "location": "Warwick Road\/Talbot Road (Old Trafford)", "area_name": "Trafford", "area_code": "E0800009" }, "geometry": { "type": "Point", "coordinates": [ -2.286228, 53.458356 ] } },
{ "type": "Feature", "properties": { "camera_id": 11, "location": "Talbot Road (Gorse Hill)", "area_name": "Trafford", "area_code": "E0800009" }, "geometry": { "type": "Point", "coordinates": [ -2.294119, 53.455013 ] } },
{ "type": "Feature", "properties": { "camera_id": 13, "location": "Norris Road (Sale Moor)", "area_name": "Trafford", "area_code": "E0800009" }, "geometry": { "type": "Point", "coordinates": [ -2.298845, 53.414913 ] } },
{ "type": "Feature", "properties": { "camera_id": 15, "location": "Brooklands Metro Station (Sale)", "area_name": "Trafford", "area_code": "E0800009" }, "geometry": { "type": "Point", "coordinates": [ -2.325582, 53.417326 ] } },
{ "type": "Feature", "properties": { "camera_id": 16, "location": "Goose Green (Altrincham)", "area_name": "Trafford", "area_code": "E0800009" }, "geometry": { "type": "Point", "coordinates": [ -2.350552, 53.385287 ] } },
{ "type": "Feature", "properties": { "camera_id": 24, "location": "Edge Lane (Stretford)", "area_name": "Trafford", "area_code": "E0800009" }, "geometry": { "type": "Point", "coordinates": [ -2.304892, 53.445577 ] } },
{ "type": "Feature", "properties": { "camera_id": 25, "location": "Subway 1 Chester Rd (Stretford)", "area_name": "Trafford", "area_code": "E0800009" }, "geometry": { "type": "Point", "coordinates": [ -2.307037, 53.446325 ] } },
{ "type": "Feature", "properties": { "camera_id": 26, "location": "Subway 2 Chester Rd (Stretford)", "area_name": "Trafford", "area_code": "E0800009" }, "geometry": { "type": "Point", "coordinates": [ -2.306366, 53.446066 ] } },
{ "type": "Feature", "properties": { "camera_id": 30, "location": "Seymour Grove (Old Trafford)", "area_name": "Trafford", "area_code": "E0800009" }, "geometry": { "type": "Point", "coordinates": [ -2.276369, 53.461582 ] } },
{ "type": "Feature", "properties": { "camera_id": 31, "location": "Northumberland Rd (Old Trafford)", "area_name": "Trafford", "area_code": "E0800009" }, "geometry": { "type": "Point", "coordinates": [ -2.268775, 53.462879 ] } },
{ "type": "Feature", "properties": { "camera_id": 32, "location": "Henrietta Street (Old Trafford)", "area_name": "Trafford", "area_code": "E0800009" }, "geometry": { "type": "Point", "coordinates": [ -2.266267, 53.463376 ] } },
{ "type": "Feature", "properties": { "camera_id": 33, "location": "Cornbrook Street (Old Trafford)", "area_name": "Trafford", "area_code": "E0800009" }, "geometry": { "type": "Point", "coordinates": [ -2.262538, 53.464121 ] } },
{ "type": "Feature", "properties": { "camera_id": 35, "location": "Clifton Street (Old Trafford)", "area_name": "Trafford", "area_code": "E0800009" }, "geometry": { "type": "Point", "coordinates": [ -2.262504, 53.462363 ] } },
{ "type": "Feature", "properties": { "camera_id": 36, "location": "Shrewsbury Street (Old Trafford)", "area_name": "Trafford", "area_code": "E0800009" }, "geometry": { "type": "Point", "coordinates": [ -2.260186, 53.459859 ] } },
{ "type": "Feature", "properties": { "camera_id": 37, "location": "Albion St\/Prestege St (Old Trafford)", "area_name": "Trafford", "area_code": "E0800009" }, "geometry": { "type": "Point", "coordinates": [ -2.26277, 53.459408 ] } },
{ "type": "Feature", "properties": { "camera_id": 38, "location": "Powell Street (Old Trafford)", "area_name": "Trafford", "area_code": "E0800009" }, "geometry": { "type": "Point", "coordinates": [ -2.265667, 53.458895 ] } },
{ "type": "Feature", "properties": { "camera_id": 39, "location": "St Johns Road (Old Trafford)", "area_name": "Trafford", "area_code": "E0800009" }, "geometry": { "type": "Point", "coordinates": [ -2.268526, 53.458392 ] } },
{ "type": "Feature", "properties": { "camera_id": 40, "location": "Ayres Rd (Old Trafford)", "area_name": "Trafford", "area_code": "E0800009" }, "geometry": { "type": "Point", "coordinates": [ -2.272214, 53.457764 ] } },
{ "type": "Feature", "properties": { "camera_id": 60, "location": "Bodmin Road Health Centre (Sale West)", "area_name": "Trafford", "area_code": "E0800009" }, "geometry": { "type": "Point", "coordinates": [ -2.352147, 53.427291 ] } },
{ "type": "Feature", "properties": { "camera_id": 61, "location": "Magnolia Court (Sale West)", "area_name": "Trafford", "area_code": "E0800009" }, "geometry": { "type": "Point", "coordinates": [ -2.356303, 53.428986 ] } },
{ "type": "Feature", "properties": { "camera_id": 62, "location": "Magnolia Court (Sale West)", "area_name": "Trafford", "area_code": "E0800009" }, "geometry": { "type": "Point", "coordinates": [ -2.355984, 53.428826 ] } },
{ "type": "Feature", "properties": { "camera_id": 63, "location": "Epping Drive (Sale West)", "area_name": "Trafford", "area_code": "E0800009" }, "geometry": { "type": "Point", "coordinates": [ -2.357242, 53.426419 ] } },
{ "type": "Feature", "properties": { "camera_id": 64, "location": "Firsway\/Goodwood Ave (Sale West)", "area_name": "Trafford", "area_code": "E0800009" }, "geometry": { "type": "Point", "coordinates": [ -2.355949, 53.421475 ] } },
{ "type": "Feature", "properties": { "camera_id": 65, "location": "Newbury Ave (Sale West)", "area_name": "Trafford", "area_code": "E0800009" }, "geometry": { "type": "Point", "coordinates": [ -2.356537, 53.418649 ] } },
{ "type": "Feature", "properties": { "camera_id": 66, "location": "Thirsk Ave (Sale West)", "area_name": "Trafford", "area_code": "E0800009" }, "geometry": { "type": "Point", "coordinates": [ -2.358473, 53.418574 ] } },
{ "type": "Feature", "properties": { "camera_id": 68, "location": "Chepstow Ave (Sale West)", "area_name": "Trafford", "area_code": "E0800009" }, "geometry": { "type": "Point", "coordinates": [ -2.358317, 53.417099 ] } },
{ "type": "Feature", "properties": { "camera_id": 69, "location": "Chepstow\/Epsom Ave (Sale West)", "area_name": "Trafford", "area_code": "E0800009" }, "geometry": { "type": "Point", "coordinates": [ -2.358595, 53.415842 ] } },
{ "type": "Feature", "properties": { "camera_id": 70, "location": "Hurst Ave (Sale West)", "area_name": "Trafford", "area_code": "E0800009" }, "geometry": { "type": "Point", "coordinates": [ -2.356562, 53.414996 ] } },
{ "type": "Feature", "properties": { "camera_id": 71, "location": "Ascot Ave (Sale West)", "area_name": "Trafford", "area_code": "E0800009" }, "geometry": { "type": "Point", "coordinates": [ -2.354571, 53.417121 ] } },
{ "type": "Feature", "properties": { "camera_id": 72, "location": "Manor Ave (Sale West)", "area_name": "Trafford", "area_code": "E0800009" }, "geometry": { "type": "Point", "coordinates": [ -2.352037, 53.414247 ] } },
{ "type": "Feature", "properties": { "camera_id": 73, "location": "Lingfield Ave (Sale West)", "area_name": "Trafford", "area_code": "E0800009" }, "geometry": { "type": "Point", "coordinates": [ -2.362707, 53.412257 ] } },
{ "type": "Feature", "properties": { "camera_id": 79, "location": "Briarfield Rd (Altrincham)", "area_name": "Trafford", "area_code": "E0800009" }, "geometry": { "type": "Point", "coordinates": [ -2.31191, 53.392836 ] } },
{ "type": "Feature", "properties": { "camera_id": 80, "location": "George Street (Altrincham)", "area_name": "Trafford", "area_code": "E0800009" }, "geometry": { "type": "Point", "coordinates": [ -2.349734, 53.387686 ] } },
{ "type": "Feature", "properties": { "camera_id": 81, "location": "Regent\/George St (Altrincham)", "area_name": "Trafford", "area_code": "E0800009" }, "geometry": { "type": "Point", "coordinates": [ -2.35191, 53.38566 ] } },
{ "type": "Feature", "properties": { "camera_id": 84, "location": "Regend Rd\/Stamford New Rd (Altrincham)", "area_name": "Trafford", "area_code": "E0800009" }, "geometry": { "type": "Point", "coordinates": [ -2.351305, 53.385521 ] } },
{ "type": "Feature", "properties": { "camera_id": 87, "location": "Green Lane (Ashton upon Mersey)", "area_name": "Trafford", "area_code": "E0800009" }, "geometry": { "type": "Point", "coordinates": [ -2.341979, 53.429465 ] } },
{ "type": "Feature", "properties": { "camera_id": 89, "location": "Northenden Road (Sale Moor)", "area_name": "Trafford", "area_code": "E0800009" }, "geometry": { "type": "Point", "coordinates": [ -2.303596, 53.419821 ] } },
{ "type": "Feature", "properties": { "camera_id": 90, "location": "Manchester Road (Broadheath)", "area_name": "Trafford", "area_code": "E0800009" }, "geometry": { "type": "Point", "coordinates": [ -2.352036, 53.397246 ] } },
{ "type": "Feature", "properties": { "camera_id": 91, "location": "Sale Station\/Taxi Rank (Sale)", "area_name": "Trafford", "area_code": "E0800009" }, "geometry": { "type": "Point", "coordinates": [ -2.318057, 53.424316 ] } },
{ "type": "Feature", "properties": { "camera_id": 92, "location": "Sale Town Hall (Sale)", "area_name": "Trafford", "area_code": "E0800009" }, "geometry": { "type": "Point", "coordinates": [ -2.320279, 53.424828 ] } },
{ "type": "Feature", "properties": { "camera_id": 93, "location": "School Rd\/Claremont Rd (Sale)", "area_name": "Trafford", "area_code": "E0800009" }, "geometry": { "type": "Point", "coordinates": [ -2.321467, 53.424992 ] } },
{ "type": "Feature", "properties": { "camera_id": 94, "location": "School Rd\/Hereford St (Sale)", "area_name": "Trafford", "area_code": "E0800009" }, "geometry": { "type": "Point", "coordinates": [ -2.322866, 53.425237 ] } },
{ "type": "Feature", "properties": { "camera_id": 95, "location": "School Rd\/Hayfield St (Sale)", "area_name": "Trafford", "area_code": "E0800009" }, "geometry": { "type": "Point", "coordinates": [ -2.324203, 53.425492 ] } },
{ "type": "Feature", "properties": { "camera_id": 151, "location": "Moorside Car Park (Urmston)", "area_name": "Trafford", "area_code": "E0800009" }, "geometry": { "type": "Point", "coordinates": [ -2.356897, 53.450961 ] } },
{ "type": "Feature", "properties": { "camera_id": 152, "location": "Croftsbank Road (Urmston)", "area_name": "Trafford", "area_code": "E0800009" }, "geometry": { "type": "Point", "coordinates": [ -2.353107, 53.449237 ] } },
{ "type": "Feature", "properties": { "camera_id": 153, "location": "Flixton Rd\/Roseneath Rd (Urmston)", "area_name": "Trafford", "area_code": "E0800009" }, "geometry": { "type": "Point", "coordinates": [ -2.357465, 53.448352 ] } },
{ "type": "Feature", "properties": { "camera_id": 154, "location": "Flixton Rd - Railway Station (Urmston)", "area_name": "Trafford", "area_code": "E0800009" }, "geometry": { "type": "Point", "coordinates": [ -2.353634, 53.448477 ] } },
{ "type": "Feature", "properties": { "camera_id": 161, "location": "Station Rd\/Higher Rd (Urmston)", "area_name": "Trafford", "area_code": "E0800009" }, "geometry": { "type": "Point", "coordinates": [ -2.352996, 53.448046 ] } },
{ "type": "Feature", "properties": { "camera_id": 165, "location": "Woodsend Circle (Flixton)", "area_name": "Trafford", "area_code": "E0800009" }, "geometry": { "type": "Point", "coordinates": [ -2.392811, 53.452665 ] } },
{ "type": "Feature", "properties": { "camera_id": 170, "location": "Bucklow Ave (Partington)", "area_name": "Trafford", "area_code": "E0800009" }, "geometry": { "type": "Point", "coordinates": [ -2.420971, 53.420234 ] } },
{ "type": "Feature", "properties": { "camera_id": 171, "location": "Moss Lane (Partington)", "area_name": "Trafford", "area_code": "E0800009" }, "geometry": { "type": "Point", "coordinates": [ -2.420165, 53.414908 ] } },
{ "type": "Feature", "properties": { "camera_id": 173, "location": "Manchester Rd\/Redbrook Rd (Partington)", "area_name": "Trafford", "area_code": "E0800009" }, "geometry": { "type": "Point", "coordinates": [ -2.430853, 53.414459 ] } },
{ "type": "Feature", "properties": { "camera_id": 175, "location": "Tulip Road (Partington)", "area_name": "Trafford", "area_code": "E0800009" }, "geometry": { "type": "Point", "coordinates": [ -2.433712, 53.412226 ] } },
{ "type": "Feature", "properties": { "camera_id": 176, "location": "Laurel Walk (Partington)", "area_name": "Trafford", "area_code": "E0800009" }, "geometry": { "type": "Point", "coordinates": [ -2.435616, 53.412934 ] } },
{ "type": "Feature", "properties": { "camera_id": 177, "location": "Oak Road - Bus Stop (Partington)", "area_name": "Trafford", "area_code": "E0800009" }, "geometry": { "type": "Point", "coordinates": [ -2.437791, 53.41147 ] } },
{ "type": "Feature", "properties": { "camera_id": 178, "location": "Oak Road - Park (Partington)", "area_name": "Trafford", "area_code": "E0800009" }, "geometry": { "type": "Point", "coordinates": [ -2.439616, 53.414088 ] } },
{ "type": "Feature", "properties": { "camera_id": 179, "location": "Wood Lane\/Myrtle Rd (Partington)", "area_name": "Trafford", "area_code": "E0800009" }, "geometry": { "type": "Point", "coordinates": [ -2.440728, 53.415398 ] } },
{ "type": "Feature", "properties": { "camera_id": 180, "location": "Lock Lane\/Birch Rd (Partington)", "area_name": "Trafford", "area_code": "E0800009" }, "geometry": { "type": "Point", "coordinates": [ -2.439043, 53.418434 ] } },
{ "type": "Feature", "properties": { "camera_id": 181, "location": "Millbank House (Partington)", "area_name": "Trafford", "area_code": "E0800009" }, "geometry": { "type": "Point", "coordinates": [ -2.436823, 53.4165 ] } },
{ "type": "Feature", "properties": { "camera_id": 182, "location": "Wood Lane Shops (Partington)", "area_name": "Trafford", "area_code": "E0800009" }, "geometry": { "type": "Point", "coordinates": [ -2.434972, 53.416547 ] } },
{ "type": "Feature", "properties": { "camera_id": 184, "location": "Lock Lane\/Conniston (Partington)", "area_name": "Trafford", "area_code": "E0800009" }, "geometry": { "type": "Point", "coordinates": [ -2.431558, 53.419452 ] } },
{ "type": "Feature", "properties": { "camera_id": 185, "location": "Millenium Clock - Manchester Road\/Moss Lane (Partington)", "area_name": "Trafford", "area_code": "E0800009" }, "geometry": { "type": "Point", "coordinates": [ -2.425567, 53.419938 ] } },
{ "type": "Feature", "properties": { "camera_id": 186, "location": "Central Road Shops (Partington)", "area_name": "Trafford", "area_code": "E0800009" }, "geometry": { "type": "Point", "coordinates": [ -2.426262, 53.418467 ] } },
{ "type": "Feature", "properties": { "camera_id": 187, "location": "Oak Road Shops (Partington)", "area_name": "Trafford", "area_code": "E0800009" }, "geometry": { "type": "Point", "coordinates": [ -2.435432, 53.411727 ] } },
{ "type": "Feature", "properties": { "camera_id": 188, "location": "Car Park Rear of Co-op - Central Road Service Road (Partington)", "area_name": "Trafford", "area_code": "E0800009" }, "geometry": { "type": "Point", "coordinates": [ -2.425075, 53.418235 ] } },
{ "type": "Feature", "properties": { "camera_id": 201, "location": "Sale Water Park (Sale)", "area_name": "Trafford", "area_code": "E0800009" }, "geometry": { "type": "Point", "coordinates": [ -2.300683, 53.431668 ] } },
{ "type": "Feature", "properties": { "camera_id": 202, "location": "Sale Water Park (Sale)", "area_name": "Trafford", "area_code": "E0800009" }, "geometry": { "type": "Point", "coordinates": [ -2.299811, 53.43147 ] } },
{ "type": "Feature", "properties": { "camera_id": 203, "location": "Sale Water Park (Sale)", "area_name": "Trafford", "area_code": "E0800009" }, "geometry": { "type": "Point", "coordinates": [ -2.299181, 53.431016 ] } },
{ "type": "Feature", "properties": { "camera_id": 204, "location": "Sale Water Park (Sale)", "area_name": "Trafford", "area_code": "E0800009" }, "geometry": { "type": "Point", "coordinates": [ -2.29997, 53.431313 ] } },
{ "type": "Feature", "properties": { "camera_id": 205, "location": "Sale Water Park (Sale)", "area_name": "Trafford", "area_code": "E0800009" }, "geometry": { "type": "Point", "coordinates": [ -2.3, 53.431425 ] } },
{ "type": "Feature", "properties": { "camera_id": 206, "location": "Sale Water Park (Sale)", "area_name": "Trafford", "area_code": "E0800009" }, "geometry": { "type": "Point", "coordinates": [ -2.300072, 53.431336 ] } },
{ "type": "Feature", "properties": { "camera_id": 207, "location": "Sale Water Park (Sale)", "area_name": "Trafford", "area_code": "E0800009" }, "geometry": { "type": "Point", "coordinates": [ -2.300123, 53.431355 ] } },
{ "type": "Feature", "properties": { "camera_id": 208, "location": "Sale Water Park (Sale)", "area_name": "Trafford", "area_code": "E0800009" }, "geometry": { "type": "Point", "coordinates": [ -2.300268, 53.431402 ] } },
{ "type": "Feature", "properties": { "camera_id": 275, "location": "Kings Rd\/Edge Lane (Stretford)", "area_name": "Trafford", "area_code": "E0800009" }, "geometry": { "type": "Point", "coordinates": [ -2.302341, 53.445465 ] } },
{ "type": "Feature", "properties": { "camera_id": 276, "location": "Sale Magistrates - School Road\/Cross Street (Sale)", "area_name": "Trafford", "area_code": "E0800009" }, "geometry": { "type": "Point", "coordinates": [ -2.325966, 53.425703 ] } },
{ "type": "Feature", "properties": { "camera_id": 277, "location": "Kings Ransom - Northenden Road (Sale)", "area_name": "Trafford", "area_code": "E0800009" }, "geometry": { "type": "Point", "coordinates": [ -2.318901, 53.42467 ] } },
{ "type": "Feature", "properties": { "camera_id": 278, "location": "Upper Chorlton Rd (Old Trafford)", "area_name": "Trafford", "area_code": "E0800009" }, "geometry": { "type": "Point", "coordinates": [ -2.261344, 53.457036 ] } },
{ "type": "Feature", "properties": { "camera_id": 279, "location": "Grove Lane, Hale (Altrincham)", "area_name": "Trafford", "area_code": "E0800009" }, "geometry": { "type": "Point", "coordinates": [ -2.32808, 53.380931 ] } },
{ "type": "Feature", "properties": { "camera_id": 280, "location": "Norton Street (Old Trafford)", "area_name": "Trafford", "area_code": "E0800009" }, "geometry": { "type": "Point", "coordinates": [ -2.262833, 53.457699 ] } },
{ "type": "Feature", "properties": { "camera_id": 281, "location": "Chester Rd, Gorse Hill (Gorse Hill)", "area_name": "Trafford", "area_code": "E0800009" }, "geometry": { "type": "Point", "coordinates": [ -2.298618, 53.454109 ] } },
{ "type": "Feature", "properties": { "camera_id": 283, "location": "Milton Road\/Talbot Road (Gorse Hill)", "area_name": "Trafford", "area_code": "E0800009" }, "geometry": { "type": "Point", "coordinates": [ -2.296942, 53.453648 ] } },
{ "type": "Feature", "properties": { "camera_id": 284, "location": "Moss Lane (Altrincham)", "area_name": "Trafford", "area_code": "E0800009" }, "geometry": { "type": "Point", "coordinates": [ -2.347952, 53.386442 ] } },
{ "type": "Feature", "properties": { "camera_id": 286, "location": "Stamford Street (Old Trafford)", "area_name": "Trafford", "area_code": "E0800009" }, "geometry": { "type": "Point", "coordinates": [ -2.260948, 53.459203 ] } },
{ "type": "Feature", "properties": { "camera_id": 288, "location": "The Downs (Altrincham)", "area_name": "Trafford", "area_code": "E0800009" }, "geometry": { "type": "Point", "coordinates": [ -2.352185, 53.384678 ] } },
{ "type": "Feature", "properties": { "camera_id": 289, "location": "Lostock Subway - Circle Court (Lostock)", "area_name": "Trafford", "area_code": "E0800009" }, "geometry": { "type": "Point", "coordinates": [ -2.337634, 53.456447 ] } },
{ "type": "Feature", "properties": { "camera_id": 292, "location": "Rippon Road (Lostock)", "area_name": "Trafford", "area_code": "E0800009" }, "geometry": { "type": "Point", "coordinates": [ -2.333404, 53.453209 ] } },
{ "type": "Feature", "properties": { "camera_id": 293, "location": "Shaws Road, Altrincham Market (Altrincham)", "area_name": "Trafford", "area_code": "E0800009" }, "geometry": { "type": "Point", "coordinates": [ -2.350947, 53.387323 ] } },
{ "type": "Feature", "properties": { "camera_id": 294, "location": "Stamford Park (Altrincham)", "area_name": "Trafford", "area_code": "E0800009" }, "geometry": { "type": "Point", "coordinates": [ -2.343039, 53.383295 ] } },
{ "type": "Feature", "properties": { "camera_id": 295, "location": "Mainswood Road (Timperley)", "area_name": "Trafford", "area_code": "E0800009" }, "geometry": { "type": "Point", "coordinates": [ -2.311396, 53.392165 ] } },
{ "type": "Feature", "properties": { "camera_id": 296, "location": "Goose Green\/Cinema (Altrincham)", "area_name": "Trafford", "area_code": "E0800009" }, "geometry": { "type": "Point", "coordinates": [ -2.349398, 53.385035 ] } },
{ "type": "Feature", "properties": { "camera_id": 297, "location": "Altrincham Taxi Rank (Altrincham)", "area_name": "Trafford", "area_code": "E0800009" }, "geometry": { "type": "Point", "coordinates": [ -2.348568, 53.387282 ] } },
{ "type": "Feature", "properties": { "camera_id": 299, "location": "Craven Road (Broadheath)", "area_name": "Trafford", "area_code": "E0800009" }, "geometry": { "type": "Point", "coordinates": [ -2.359343, 53.401198 ] } }
]
}
