{
"type": "FeatureCollection",
"name": "trafford_greenspace_access_points",
"crs": { "type": "name", "properties": { "name": "urn:ogc:def:crs:OGC:1.3:CRS84" } },
"features": [
{ "type": "Feature", "properties": { "access_type": "Pedestrian", "area_code": "E08000009", "area_name": "Trafford" }, "geometry": { "type": "Point", "coordinates": [ -2.354756947839311, 53.473345248731185 ] } },
{ "type": "Feature", "properties": { "access_type": "Motor Vehicle And Pedestrian", "area_code": "E08000009", "area_name": "Trafford" }, "geometry": { "type": "Point", "coordinates": [ -2.352871978822123, 53.473678913619317 ] } },
{ "type": "Feature", "properties": { "access_type": "Pedestrian", "area_code": "E08000009", "area_name": "Trafford" }, "geometry": { "type": "Point", "coordinates": [ -2.352470529756935, 53.473485857819071 ] } },
{ "type": "Feature", "properties": { "access_type": "Pedestrian", "area_code": "E08000009", "area_name": "Trafford" }, "geometry": { "type": "Point", "coordinates": [ -2.268779900223818, 53.460685909542718 ] } },
{ "type": "Feature", "properties": { "access_type": "Pedestrian", "area_code": "E08000009", "area_name": "Trafford" }, "geometry": { "type": "Point", "coordinates": [ -2.25639533144026, 53.461257495399799 ] } },
{ "type": "Feature", "properties": { "access_type": "Pedestrian", "area_code": "E08000009", "area_name": "Trafford" }, "geometry": { "type": "Point", "coordinates": [ -2.255785078658903, 53.461263568507441 ] } },
{ "type": "Feature", "properties": { "access_type": "Pedestrian", "area_code": "E08000009", "area_name": "Trafford" }, "geometry": { "type": "Point", "coordinates": [ -2.25820817749937, 53.461340416642003 ] } },
{ "type": "Feature", "properties": { "access_type": "Pedestrian", "area_code": "E08000009", "area_name": "Trafford" }, "geometry": { "type": "Point", "coordinates": [ -2.258493121475311, 53.461411617985711 ] } },
{ "type": "Feature", "properties": { "access_type": "Pedestrian", "area_code": "E08000009", "area_name": "Trafford" }, "geometry": { "type": "Point", "coordinates": [ -2.267124086667722, 53.461551892346456 ] } },
{ "type": "Feature", "properties": { "access_type": "Pedestrian", "area_code": "E08000009", "area_name": "Trafford" }, "geometry": { "type": "Point", "coordinates": [ -2.269432623803347, 53.461655554905285 ] } },
{ "type": "Feature", "properties": { "access_type": "Pedestrian", "area_code": "E08000009", "area_name": "Trafford" }, "geometry": { "type": "Point", "coordinates": [ -2.268337715345166, 53.4619527537522 ] } },
{ "type": "Feature", "properties": { "access_type": "Pedestrian", "area_code": "E08000009", "area_name": "Trafford" }, "geometry": { "type": "Point", "coordinates": [ -2.262026477676122, 53.462084612803402 ] } },
{ "type": "Feature", "properties": { "access_type": "Pedestrian", "area_code": "E08000009", "area_name": "Trafford" }, "geometry": { "type": "Point", "coordinates": [ -2.267925868589639, 53.462468989006901 ] } },
{ "type": "Feature", "properties": { "access_type": "Pedestrian", "area_code": "E08000009", "area_name": "Trafford" }, "geometry": { "type": "Point", "coordinates": [ -2.268489491898177, 53.46285189078597 ] } },
{ "type": "Feature", "properties": { "access_type": "Pedestrian", "area_code": "E08000009", "area_name": "Trafford" }, "geometry": { "type": "Point", "coordinates": [ -2.268488890561906, 53.46285207190823 ] } },
{ "type": "Feature", "properties": { "access_type": "Pedestrian", "area_code": "E08000009", "area_name": "Trafford" }, "geometry": { "type": "Point", "coordinates": [ -2.268231043397452, 53.462902088244846 ] } },
{ "type": "Feature", "properties": { "access_type": "Pedestrian", "area_code": "E08000009", "area_name": "Trafford" }, "geometry": { "type": "Point", "coordinates": [ -2.266400562376414, 53.463215570978697 ] } },
{ "type": "Feature", "properties": { "access_type": "Pedestrian", "area_code": "E08000009", "area_name": "Trafford" }, "geometry": { "type": "Point", "coordinates": [ -2.259732479352035, 53.463276735854059 ] } },
{ "type": "Feature", "properties": { "access_type": "Pedestrian", "area_code": "E08000009", "area_name": "Trafford" }, "geometry": { "type": "Point", "coordinates": [ -2.259708584898965, 53.463581497572136 ] } },
{ "type": "Feature", "properties": { "access_type": "Motor Vehicle And Pedestrian", "area_code": "E08000009", "area_name": "Trafford" }, "geometry": { "type": "Point", "coordinates": [ -2.386957381539403, 53.452199168886494 ] } },
{ "type": "Feature", "properties": { "access_type": "Pedestrian", "area_code": "E08000009", "area_name": "Trafford" }, "geometry": { "type": "Point", "coordinates": [ -2.387993220221202, 53.45262617852385 ] } },
{ "type": "Feature", "properties": { "access_type": "Motor Vehicle And Pedestrian", "area_code": "E08000009", "area_name": "Trafford" }, "geometry": { "type": "Point", "coordinates": [ -2.384417177227656, 53.455429584106319 ] } },
{ "type": "Feature", "properties": { "access_type": "Pedestrian", "area_code": "E08000009", "area_name": "Trafford" }, "geometry": { "type": "Point", "coordinates": [ -2.384515608474913, 53.45562314979022 ] } },
{ "type": "Feature", "properties": { "access_type": "Motor Vehicle And Pedestrian", "area_code": "E08000009", "area_name": "Trafford" }, "geometry": { "type": "Point", "coordinates": [ -2.364330754563982, 53.456254161975551 ] } },
{ "type": "Feature", "properties": { "access_type": "Pedestrian", "area_code": "E08000009", "area_name": "Trafford" }, "geometry": { "type": "Point", "coordinates": [ -2.358803318047348, 53.456459839149794 ] } },
{ "type": "Feature", "properties": { "access_type": "Motor Vehicle And Pedestrian", "area_code": "E08000009", "area_name": "Trafford" }, "geometry": { "type": "Point", "coordinates": [ -2.36587077251068, 53.456815819804902 ] } },
{ "type": "Feature", "properties": { "access_type": "Motor Vehicle And Pedestrian", "area_code": "E08000009", "area_name": "Trafford" }, "geometry": { "type": "Point", "coordinates": [ -2.367416802701211, 53.456830937024776 ] } },
{ "type": "Feature", "properties": { "access_type": "Pedestrian", "area_code": "E08000009", "area_name": "Trafford" }, "geometry": { "type": "Point", "coordinates": [ -2.366851421978954, 53.456897123186998 ] } },
{ "type": "Feature", "properties": { "access_type": "Pedestrian", "area_code": "E08000009", "area_name": "Trafford" }, "geometry": { "type": "Point", "coordinates": [ -2.386714434058633, 53.457808441062646 ] } },
{ "type": "Feature", "properties": { "access_type": "Motor Vehicle And Pedestrian", "area_code": "E08000009", "area_name": "Trafford" }, "geometry": { "type": "Point", "coordinates": [ -2.381843941857364, 53.457942494571476 ] } },
{ "type": "Feature", "properties": { "access_type": "Pedestrian", "area_code": "E08000009", "area_name": "Trafford" }, "geometry": { "type": "Point", "coordinates": [ -2.385350549191132, 53.458054821617971 ] } },
{ "type": "Feature", "properties": { "access_type": "Motor Vehicle And Pedestrian", "area_code": "E08000009", "area_name": "Trafford" }, "geometry": { "type": "Point", "coordinates": [ -2.385205958525165, 53.458070209115348 ] } },
{ "type": "Feature", "properties": { "access_type": "Pedestrian", "area_code": "E08000009", "area_name": "Trafford" }, "geometry": { "type": "Point", "coordinates": [ -2.367304688666766, 53.458671592177112 ] } },
{ "type": "Feature", "properties": { "access_type": "Pedestrian", "area_code": "E08000009", "area_name": "Trafford" }, "geometry": { "type": "Point", "coordinates": [ -2.367906924288462, 53.458771847677973 ] } },
{ "type": "Feature", "properties": { "access_type": "Pedestrian", "area_code": "E08000009", "area_name": "Trafford" }, "geometry": { "type": "Point", "coordinates": [ -2.367382338828841, 53.458891032751509 ] } },
{ "type": "Feature", "properties": { "access_type": "Pedestrian", "area_code": "E08000009", "area_name": "Trafford" }, "geometry": { "type": "Point", "coordinates": [ -2.358101761329896, 53.459241645228893 ] } },
{ "type": "Feature", "properties": { "access_type": "Pedestrian", "area_code": "E08000009", "area_name": "Trafford" }, "geometry": { "type": "Point", "coordinates": [ -2.358168097723016, 53.459428677088454 ] } },
{ "type": "Feature", "properties": { "access_type": "Pedestrian", "area_code": "E08000009", "area_name": "Trafford" }, "geometry": { "type": "Point", "coordinates": [ -2.365431601210063, 53.459652593920779 ] } },
{ "type": "Feature", "properties": { "access_type": "Pedestrian", "area_code": "E08000009", "area_name": "Trafford" }, "geometry": { "type": "Point", "coordinates": [ -2.37362146018945, 53.460153795964743 ] } },
{ "type": "Feature", "properties": { "access_type": "Pedestrian", "area_code": "E08000009", "area_name": "Trafford" }, "geometry": { "type": "Point", "coordinates": [ -2.37482533415274, 53.460807802953155 ] } },
{ "type": "Feature", "properties": { "access_type": "Motor Vehicle And Pedestrian", "area_code": "E08000009", "area_name": "Trafford" }, "geometry": { "type": "Point", "coordinates": [ -2.357228604835835, 53.467120624132626 ] } },
{ "type": "Feature", "properties": { "access_type": "Motor Vehicle And Pedestrian", "area_code": "E08000009", "area_name": "Trafford" }, "geometry": { "type": "Point", "coordinates": [ -2.363760916971185, 53.468106897337776 ] } },
{ "type": "Feature", "properties": { "access_type": "Pedestrian", "area_code": "E08000009", "area_name": "Trafford" }, "geometry": { "type": "Point", "coordinates": [ -2.362595983837805, 53.468225672946772 ] } },
{ "type": "Feature", "properties": { "access_type": "Motor Vehicle And Pedestrian", "area_code": "E08000009", "area_name": "Trafford" }, "geometry": { "type": "Point", "coordinates": [ -2.36316456727891, 53.468445511779862 ] } },
{ "type": "Feature", "properties": { "access_type": "Motor Vehicle And Pedestrian", "area_code": "E08000009", "area_name": "Trafford" }, "geometry": { "type": "Point", "coordinates": [ -2.36356779696561, 53.468582438123704 ] } },
{ "type": "Feature", "properties": { "access_type": "Motor Vehicle And Pedestrian", "area_code": "E08000009", "area_name": "Trafford" }, "geometry": { "type": "Point", "coordinates": [ -2.359706071800342, 53.468718893523018 ] } },
{ "type": "Feature", "properties": { "access_type": "Pedestrian", "area_code": "E08000009", "area_name": "Trafford" }, "geometry": { "type": "Point", "coordinates": [ -2.361285776383892, 53.46887025491678 ] } },
{ "type": "Feature", "properties": { "access_type": "Pedestrian", "area_code": "E08000009", "area_name": "Trafford" }, "geometry": { "type": "Point", "coordinates": [ -2.362585779901197, 53.469325447523332 ] } },
{ "type": "Feature", "properties": { "access_type": "Pedestrian", "area_code": "E08000009", "area_name": "Trafford" }, "geometry": { "type": "Point", "coordinates": [ -2.356533758263782, 53.451243405504613 ] } },
{ "type": "Feature", "properties": { "access_type": "Pedestrian", "area_code": "E08000009", "area_name": "Trafford" }, "geometry": { "type": "Point", "coordinates": [ -2.356458645212172, 53.451264483178498 ] } },
{ "type": "Feature", "properties": { "access_type": "Pedestrian", "area_code": "E08000009", "area_name": "Trafford" }, "geometry": { "type": "Point", "coordinates": [ -2.356318868346423, 53.45079237339764 ] } },
{ "type": "Feature", "properties": { "access_type": "Motor Vehicle And Pedestrian", "area_code": "E08000009", "area_name": "Trafford" }, "geometry": { "type": "Point", "coordinates": [ -2.35607266759169, 53.459624512192072 ] } },
{ "type": "Feature", "properties": { "access_type": "Pedestrian", "area_code": "E08000009", "area_name": "Trafford" }, "geometry": { "type": "Point", "coordinates": [ -2.355981458239865, 53.451084428523707 ] } },
{ "type": "Feature", "properties": { "access_type": "Pedestrian", "area_code": "E08000009", "area_name": "Trafford" }, "geometry": { "type": "Point", "coordinates": [ -2.355598582972129, 53.454710822227881 ] } },
{ "type": "Feature", "properties": { "access_type": "Pedestrian", "area_code": "E08000009", "area_name": "Trafford" }, "geometry": { "type": "Point", "coordinates": [ -2.355527529495332, 53.454515713193004 ] } },
{ "type": "Feature", "properties": { "access_type": "Pedestrian", "area_code": "E08000009", "area_name": "Trafford" }, "geometry": { "type": "Point", "coordinates": [ -2.355355176636234, 53.450901220413066 ] } },
{ "type": "Feature", "properties": { "access_type": "Pedestrian", "area_code": "E08000009", "area_name": "Trafford" }, "geometry": { "type": "Point", "coordinates": [ -2.355346604978281, 53.452074338854032 ] } },
{ "type": "Feature", "properties": { "access_type": "Pedestrian", "area_code": "E08000009", "area_name": "Trafford" }, "geometry": { "type": "Point", "coordinates": [ -2.355325289992468, 53.451181032410005 ] } },
{ "type": "Feature", "properties": { "access_type": "Pedestrian", "area_code": "E08000009", "area_name": "Trafford" }, "geometry": { "type": "Point", "coordinates": [ -2.355265226091436, 53.454735184776098 ] } },
{ "type": "Feature", "properties": { "access_type": "Pedestrian", "area_code": "E08000009", "area_name": "Trafford" }, "geometry": { "type": "Point", "coordinates": [ -2.355146264499342, 53.453761901682014 ] } },
{ "type": "Feature", "properties": { "access_type": "Motor Vehicle And Pedestrian", "area_code": "E08000009", "area_name": "Trafford" }, "geometry": { "type": "Point", "coordinates": [ -2.355145189396013, 53.453759388092827 ] } },
{ "type": "Feature", "properties": { "access_type": "Pedestrian", "area_code": "E08000009", "area_name": "Trafford" }, "geometry": { "type": "Point", "coordinates": [ -2.355038528043995, 53.450524374552231 ] } },
{ "type": "Feature", "properties": { "access_type": "Pedestrian", "area_code": "E08000009", "area_name": "Trafford" }, "geometry": { "type": "Point", "coordinates": [ -2.355163508407328, 53.473157259318533 ] } },
{ "type": "Feature", "properties": { "access_type": "Pedestrian", "area_code": "E08000009", "area_name": "Trafford" }, "geometry": { "type": "Point", "coordinates": [ -2.354878376157213, 53.454539037135433 ] } },
{ "type": "Feature", "properties": { "access_type": "Pedestrian", "area_code": "E08000009", "area_name": "Trafford" }, "geometry": { "type": "Point", "coordinates": [ -2.35457265908236, 53.452061898669093 ] } },
{ "type": "Feature", "properties": { "access_type": "Pedestrian", "area_code": "E08000009", "area_name": "Trafford" }, "geometry": { "type": "Point", "coordinates": [ -2.354502177676475, 53.453958147753106 ] } },
{ "type": "Feature", "properties": { "access_type": "Pedestrian", "area_code": "E08000009", "area_name": "Trafford" }, "geometry": { "type": "Point", "coordinates": [ -2.354042970461947, 53.454547809273564 ] } },
{ "type": "Feature", "properties": { "access_type": "Pedestrian", "area_code": "E08000009", "area_name": "Trafford" }, "geometry": { "type": "Point", "coordinates": [ -2.353870002548399, 53.450753725540856 ] } },
{ "type": "Feature", "properties": { "access_type": "Pedestrian", "area_code": "E08000009", "area_name": "Trafford" }, "geometry": { "type": "Point", "coordinates": [ -2.353755351660789, 53.452557164100874 ] } },
{ "type": "Feature", "properties": { "access_type": "Pedestrian", "area_code": "E08000009", "area_name": "Trafford" }, "geometry": { "type": "Point", "coordinates": [ -2.353237153686109, 53.452715727950633 ] } },
{ "type": "Feature", "properties": { "access_type": "Pedestrian", "area_code": "E08000009", "area_name": "Trafford" }, "geometry": { "type": "Point", "coordinates": [ -2.353154906050442, 53.454761939335832 ] } },
{ "type": "Feature", "properties": { "access_type": "Pedestrian", "area_code": "E08000009", "area_name": "Trafford" }, "geometry": { "type": "Point", "coordinates": [ -2.353185626199781, 53.459187076719552 ] } },
{ "type": "Feature", "properties": { "access_type": "Pedestrian", "area_code": "E08000009", "area_name": "Trafford" }, "geometry": { "type": "Point", "coordinates": [ -2.352536705475844, 53.458229739892467 ] } },
{ "type": "Feature", "properties": { "access_type": "Motor Vehicle And Pedestrian", "area_code": "E08000009", "area_name": "Trafford" }, "geometry": { "type": "Point", "coordinates": [ -2.352123742095521, 53.473052646674624 ] } },
{ "type": "Feature", "properties": { "access_type": "Pedestrian", "area_code": "E08000009", "area_name": "Trafford" }, "geometry": { "type": "Point", "coordinates": [ -2.351844213883562, 53.453749476628019 ] } },
{ "type": "Feature", "properties": { "access_type": "Pedestrian", "area_code": "E08000009", "area_name": "Trafford" }, "geometry": { "type": "Point", "coordinates": [ -2.351004485195307, 53.454783740944599 ] } },
{ "type": "Feature", "properties": { "access_type": "Pedestrian", "area_code": "E08000009", "area_name": "Trafford" }, "geometry": { "type": "Point", "coordinates": [ -2.350892307527794, 53.453781310989044 ] } },
{ "type": "Feature", "properties": { "access_type": "Pedestrian", "area_code": "E08000009", "area_name": "Trafford" }, "geometry": { "type": "Point", "coordinates": [ -2.349490375656431, 53.458368759503216 ] } },
{ "type": "Feature", "properties": { "access_type": "Pedestrian", "area_code": "E08000009", "area_name": "Trafford" }, "geometry": { "type": "Point", "coordinates": [ -2.34872795314752, 53.44794609782047 ] } },
{ "type": "Feature", "properties": { "access_type": "Pedestrian", "area_code": "E08000009", "area_name": "Trafford" }, "geometry": { "type": "Point", "coordinates": [ -2.401488091344742, 53.448950641844156 ] } },
{ "type": "Feature", "properties": { "access_type": "Pedestrian", "area_code": "E08000009", "area_name": "Trafford" }, "geometry": { "type": "Point", "coordinates": [ -2.393735852078493, 53.451562731502626 ] } },
{ "type": "Feature", "properties": { "access_type": "Pedestrian", "area_code": "E08000009", "area_name": "Trafford" }, "geometry": { "type": "Point", "coordinates": [ -2.393744058806706, 53.451701038074269 ] } },
{ "type": "Feature", "properties": { "access_type": "Motor Vehicle And Pedestrian", "area_code": "E08000009", "area_name": "Trafford" }, "geometry": { "type": "Point", "coordinates": [ -2.394661092316163, 53.451700437349274 ] } },
{ "type": "Feature", "properties": { "access_type": "Pedestrian", "area_code": "E08000009", "area_name": "Trafford" }, "geometry": { "type": "Point", "coordinates": [ -2.39442942323664, 53.451806009260487 ] } },
{ "type": "Feature", "properties": { "access_type": "Pedestrian", "area_code": "E08000009", "area_name": "Trafford" }, "geometry": { "type": "Point", "coordinates": [ -2.397399799665356, 53.454563191737485 ] } },
{ "type": "Feature", "properties": { "access_type": "Pedestrian", "area_code": "E08000009", "area_name": "Trafford" }, "geometry": { "type": "Point", "coordinates": [ -2.398305949025571, 53.455066227076635 ] } },
{ "type": "Feature", "properties": { "access_type": "Motor Vehicle And Pedestrian", "area_code": "E08000009", "area_name": "Trafford" }, "geometry": { "type": "Point", "coordinates": [ -2.393882081057682, 53.458769256556756 ] } },
{ "type": "Feature", "properties": { "access_type": "Pedestrian", "area_code": "E08000009", "area_name": "Trafford" }, "geometry": { "type": "Point", "coordinates": [ -2.411316391585664, 53.430293153675684 ] } },
{ "type": "Feature", "properties": { "access_type": "Motor Vehicle And Pedestrian", "area_code": "E08000009", "area_name": "Trafford" }, "geometry": { "type": "Point", "coordinates": [ -2.396950212763137, 53.430779982498414 ] } },
{ "type": "Feature", "properties": { "access_type": "Pedestrian", "area_code": "E08000009", "area_name": "Trafford" }, "geometry": { "type": "Point", "coordinates": [ -2.398926956522907, 53.432657487455664 ] } },
{ "type": "Feature", "properties": { "access_type": "Pedestrian", "area_code": "E08000009", "area_name": "Trafford" }, "geometry": { "type": "Point", "coordinates": [ -2.426406765653606, 53.413917994655741 ] } },
{ "type": "Feature", "properties": { "access_type": "Pedestrian", "area_code": "E08000009", "area_name": "Trafford" }, "geometry": { "type": "Point", "coordinates": [ -2.426406763854442, 53.413917814889999 ] } },
{ "type": "Feature", "properties": { "access_type": "Pedestrian", "area_code": "E08000009", "area_name": "Trafford" }, "geometry": { "type": "Point", "coordinates": [ -2.426406609813678, 53.413917455895998 ] } },
{ "type": "Feature", "properties": { "access_type": "Pedestrian", "area_code": "E08000009", "area_name": "Trafford" }, "geometry": { "type": "Point", "coordinates": [ -2.42622160026362, 53.414237392042594 ] } },
{ "type": "Feature", "properties": { "access_type": "Motor Vehicle And Pedestrian", "area_code": "E08000009", "area_name": "Trafford" }, "geometry": { "type": "Point", "coordinates": [ -2.426203336200688, 53.414096066469028 ] } },
{ "type": "Feature", "properties": { "access_type": "Pedestrian", "area_code": "E08000009", "area_name": "Trafford" }, "geometry": { "type": "Point", "coordinates": [ -2.42587284323289, 53.414882940257215 ] } },
{ "type": "Feature", "properties": { "access_type": "Pedestrian", "area_code": "E08000009", "area_name": "Trafford" }, "geometry": { "type": "Point", "coordinates": [ -2.425863612931098, 53.414847558082727 ] } },
{ "type": "Feature", "properties": { "access_type": "Pedestrian", "area_code": "E08000009", "area_name": "Trafford" }, "geometry": { "type": "Point", "coordinates": [ -2.42583696462899, 53.420670649149514 ] } },
{ "type": "Feature", "properties": { "access_type": "Pedestrian", "area_code": "E08000009", "area_name": "Trafford" }, "geometry": { "type": "Point", "coordinates": [ -2.425460794637338, 53.414931869588642 ] } },
{ "type": "Feature", "properties": { "access_type": "Pedestrian", "area_code": "E08000009", "area_name": "Trafford" }, "geometry": { "type": "Point", "coordinates": [ -2.425509716107211, 53.420688445069139 ] } },
{ "type": "Feature", "properties": { "access_type": "Pedestrian", "area_code": "E08000009", "area_name": "Trafford" }, "geometry": { "type": "Point", "coordinates": [ -2.425485443438368, 53.42068376763666 ] } },
{ "type": "Feature", "properties": { "access_type": "Pedestrian", "area_code": "E08000009", "area_name": "Trafford" }, "geometry": { "type": "Point", "coordinates": [ -2.425441881492304, 53.420073597126091 ] } },
{ "type": "Feature", "properties": { "access_type": "Motor Vehicle And Pedestrian", "area_code": "E08000009", "area_name": "Trafford" }, "geometry": { "type": "Point", "coordinates": [ -2.42485187509486, 53.420750922023963 ] } },
{ "type": "Feature", "properties": { "access_type": "Pedestrian", "area_code": "E08000009", "area_name": "Trafford" }, "geometry": { "type": "Point", "coordinates": [ -2.424722717921421, 53.412837905608505 ] } },
{ "type": "Feature", "properties": { "access_type": "Pedestrian", "area_code": "E08000009", "area_name": "Trafford" }, "geometry": { "type": "Point", "coordinates": [ -2.424206668389689, 53.415071522062711 ] } },
{ "type": "Feature", "properties": { "access_type": "Pedestrian", "area_code": "E08000009", "area_name": "Trafford" }, "geometry": { "type": "Point", "coordinates": [ -2.422493476355102, 53.415223573524749 ] } },
{ "type": "Feature", "properties": { "access_type": "Pedestrian", "area_code": "E08000009", "area_name": "Trafford" }, "geometry": { "type": "Point", "coordinates": [ -2.422263416405764, 53.415039581942914 ] } },
{ "type": "Feature", "properties": { "access_type": "Pedestrian", "area_code": "E08000009", "area_name": "Trafford" }, "geometry": { "type": "Point", "coordinates": [ -2.421701002695672, 53.414930650948115 ] } },
{ "type": "Feature", "properties": { "access_type": "Pedestrian", "area_code": "E08000009", "area_name": "Trafford" }, "geometry": { "type": "Point", "coordinates": [ -2.421700683119916, 53.414928764470233 ] } },
{ "type": "Feature", "properties": { "access_type": "Pedestrian", "area_code": "E08000009", "area_name": "Trafford" }, "geometry": { "type": "Point", "coordinates": [ -2.42112607407151, 53.419491159956344 ] } },
{ "type": "Feature", "properties": { "access_type": "Pedestrian", "area_code": "E08000009", "area_name": "Trafford" }, "geometry": { "type": "Point", "coordinates": [ -2.42039016702064, 53.414386520755514 ] } },
{ "type": "Feature", "properties": { "access_type": "Pedestrian", "area_code": "E08000009", "area_name": "Trafford" }, "geometry": { "type": "Point", "coordinates": [ -2.420144880728146, 53.413923392632469 ] } },
{ "type": "Feature", "properties": { "access_type": "Pedestrian", "area_code": "E08000009", "area_name": "Trafford" }, "geometry": { "type": "Point", "coordinates": [ -2.419756950240446, 53.414297425131693 ] } },
{ "type": "Feature", "properties": { "access_type": "Motor Vehicle And Pedestrian", "area_code": "E08000009", "area_name": "Trafford" }, "geometry": { "type": "Point", "coordinates": [ -2.419029197627994, 53.417246536084143 ] } },
{ "type": "Feature", "properties": { "access_type": "Motor Vehicle And Pedestrian", "area_code": "E08000009", "area_name": "Trafford" }, "geometry": { "type": "Point", "coordinates": [ -2.418942590686797, 53.41740539900443 ] } },
{ "type": "Feature", "properties": { "access_type": "Pedestrian", "area_code": "E08000009", "area_name": "Trafford" }, "geometry": { "type": "Point", "coordinates": [ -2.416620172947823, 53.417506290242443 ] } },
{ "type": "Feature", "properties": { "access_type": "Pedestrian", "area_code": "E08000009", "area_name": "Trafford" }, "geometry": { "type": "Point", "coordinates": [ -2.395487670962295, 53.403239203723494 ] } },
{ "type": "Feature", "properties": { "access_type": "Pedestrian", "area_code": "E08000009", "area_name": "Trafford" }, "geometry": { "type": "Point", "coordinates": [ -2.395451807285817, 53.404301956397518 ] } },
{ "type": "Feature", "properties": { "access_type": "Motor Vehicle And Pedestrian", "area_code": "E08000009", "area_name": "Trafford" }, "geometry": { "type": "Point", "coordinates": [ -2.395378351583325, 53.403485494427521 ] } },
{ "type": "Feature", "properties": { "access_type": "Pedestrian", "area_code": "E08000009", "area_name": "Trafford" }, "geometry": { "type": "Point", "coordinates": [ -2.394563836619392, 53.404163504682757 ] } },
{ "type": "Feature", "properties": { "access_type": "Motor Vehicle And Pedestrian", "area_code": "E08000009", "area_name": "Trafford" }, "geometry": { "type": "Point", "coordinates": [ -2.394390903921462, 53.404980781552005 ] } },
{ "type": "Feature", "properties": { "access_type": "Motor Vehicle And Pedestrian", "area_code": "E08000009", "area_name": "Trafford" }, "geometry": { "type": "Point", "coordinates": [ -2.42850271896782, 53.417529390938192 ] } },
{ "type": "Feature", "properties": { "access_type": "Pedestrian", "area_code": "E08000009", "area_name": "Trafford" }, "geometry": { "type": "Point", "coordinates": [ -2.428508845632944, 53.417614940443599 ] } },
{ "type": "Feature", "properties": { "access_type": "Pedestrian", "area_code": "E08000009", "area_name": "Trafford" }, "geometry": { "type": "Point", "coordinates": [ -2.428515707423409, 53.417698779473852 ] } },
{ "type": "Feature", "properties": { "access_type": "Motor Vehicle And Pedestrian", "area_code": "E08000009", "area_name": "Trafford" }, "geometry": { "type": "Point", "coordinates": [ -2.428524371816635, 53.417827195499875 ] } },
{ "type": "Feature", "properties": { "access_type": "Pedestrian", "area_code": "E08000009", "area_name": "Trafford" }, "geometry": { "type": "Point", "coordinates": [ -2.428276402540334, 53.420011326738525 ] } },
{ "type": "Feature", "properties": { "access_type": "Pedestrian", "area_code": "E08000009", "area_name": "Trafford" }, "geometry": { "type": "Point", "coordinates": [ -2.427844360564751, 53.420291522671057 ] } },
{ "type": "Feature", "properties": { "access_type": "Motor Vehicle And Pedestrian", "area_code": "E08000009", "area_name": "Trafford" }, "geometry": { "type": "Point", "coordinates": [ -2.445811314670949, 53.398223334064127 ] } },
{ "type": "Feature", "properties": { "access_type": "Pedestrian", "area_code": "E08000009", "area_name": "Trafford" }, "geometry": { "type": "Point", "coordinates": [ -2.456721962925586, 53.402122606711806 ] } },
{ "type": "Feature", "properties": { "access_type": "Pedestrian", "area_code": "E08000009", "area_name": "Trafford" }, "geometry": { "type": "Point", "coordinates": [ -2.437602809186814, 53.411575847183812 ] } },
{ "type": "Feature", "properties": { "access_type": "Pedestrian", "area_code": "E08000009", "area_name": "Trafford" }, "geometry": { "type": "Point", "coordinates": [ -2.438141693733975, 53.411679216782026 ] } },
{ "type": "Feature", "properties": { "access_type": "Pedestrian", "area_code": "E08000009", "area_name": "Trafford" }, "geometry": { "type": "Point", "coordinates": [ -2.438189317936808, 53.41198007066275 ] } },
{ "type": "Feature", "properties": { "access_type": "Pedestrian", "area_code": "E08000009", "area_name": "Trafford" }, "geometry": { "type": "Point", "coordinates": [ -2.437196112601449, 53.412054003827592 ] } },
{ "type": "Feature", "properties": { "access_type": "Pedestrian", "area_code": "E08000009", "area_name": "Trafford" }, "geometry": { "type": "Point", "coordinates": [ -2.437579707937994, 53.412138978701783 ] } },
{ "type": "Feature", "properties": { "access_type": "Pedestrian", "area_code": "E08000009", "area_name": "Trafford" }, "geometry": { "type": "Point", "coordinates": [ -2.430011364589435, 53.412682701621002 ] } },
{ "type": "Feature", "properties": { "access_type": "Pedestrian", "area_code": "E08000009", "area_name": "Trafford" }, "geometry": { "type": "Point", "coordinates": [ -2.428917093525973, 53.412762862431322 ] } },
{ "type": "Feature", "properties": { "access_type": "Motor Vehicle And Pedestrian", "area_code": "E08000009", "area_name": "Trafford" }, "geometry": { "type": "Point", "coordinates": [ -2.426438377406061, 53.413453799881225 ] } },
{ "type": "Feature", "properties": { "access_type": "Pedestrian", "area_code": "E08000009", "area_name": "Trafford" }, "geometry": { "type": "Point", "coordinates": [ -2.440177865954823, 53.413467200604103 ] } },
{ "type": "Feature", "properties": { "access_type": "Pedestrian", "area_code": "E08000009", "area_name": "Trafford" }, "geometry": { "type": "Point", "coordinates": [ -2.427586344445137, 53.41393975181478 ] } },
{ "type": "Feature", "properties": { "access_type": "Pedestrian", "area_code": "E08000009", "area_name": "Trafford" }, "geometry": { "type": "Point", "coordinates": [ -2.427585743577252, 53.413939843853399 ] } },
{ "type": "Feature", "properties": { "access_type": "Pedestrian", "area_code": "E08000009", "area_name": "Trafford" }, "geometry": { "type": "Point", "coordinates": [ -2.427585442692277, 53.413939844931299 ] } },
{ "type": "Feature", "properties": { "access_type": "Pedestrian", "area_code": "E08000009", "area_name": "Trafford" }, "geometry": { "type": "Point", "coordinates": [ -2.440949868654054, 53.413952972068728 ] } },
{ "type": "Feature", "properties": { "access_type": "Pedestrian", "area_code": "E08000009", "area_name": "Trafford" }, "geometry": { "type": "Point", "coordinates": [ -2.440213889398204, 53.414332761018407 ] } },
{ "type": "Feature", "properties": { "access_type": "Pedestrian", "area_code": "E08000009", "area_name": "Trafford" }, "geometry": { "type": "Point", "coordinates": [ -2.427835322708508, 53.415856129429713 ] } },
{ "type": "Feature", "properties": { "access_type": "Pedestrian", "area_code": "E08000009", "area_name": "Trafford" }, "geometry": { "type": "Point", "coordinates": [ -2.435790549714394, 53.415893955118342 ] } },
{ "type": "Feature", "properties": { "access_type": "Motor Vehicle And Pedestrian", "area_code": "E08000009", "area_name": "Trafford" }, "geometry": { "type": "Point", "coordinates": [ -2.427974192947177, 53.416020932028587 ] } },
{ "type": "Feature", "properties": { "access_type": "Pedestrian", "area_code": "E08000009", "area_name": "Trafford" }, "geometry": { "type": "Point", "coordinates": [ -2.436102343029153, 53.416413346612764 ] } },
{ "type": "Feature", "properties": { "access_type": "Pedestrian", "area_code": "E08000009", "area_name": "Trafford" }, "geometry": { "type": "Point", "coordinates": [ -2.436022464560817, 53.416414717065138 ] } },
{ "type": "Feature", "properties": { "access_type": "Pedestrian", "area_code": "E08000009", "area_name": "Trafford" }, "geometry": { "type": "Point", "coordinates": [ -2.295958454198786, 53.454228819934151 ] } },
{ "type": "Feature", "properties": { "access_type": "Pedestrian", "area_code": "E08000009", "area_name": "Trafford" }, "geometry": { "type": "Point", "coordinates": [ -2.296244397958286, 53.454246716897117 ] } },
{ "type": "Feature", "properties": { "access_type": "Pedestrian", "area_code": "E08000009", "area_name": "Trafford" }, "geometry": { "type": "Point", "coordinates": [ -2.297078864108113, 53.454922017243611 ] } },
{ "type": "Feature", "properties": { "access_type": "Pedestrian", "area_code": "E08000009", "area_name": "Trafford" }, "geometry": { "type": "Point", "coordinates": [ -2.294013123750248, 53.455141735951791 ] } },
{ "type": "Feature", "properties": { "access_type": "Pedestrian", "area_code": "E08000009", "area_name": "Trafford" }, "geometry": { "type": "Point", "coordinates": [ -2.293832267941863, 53.455273413453092 ] } },
{ "type": "Feature", "properties": { "access_type": "Pedestrian", "area_code": "E08000009", "area_name": "Trafford" }, "geometry": { "type": "Point", "coordinates": [ -2.294477598801008, 53.455648711425361 ] } },
{ "type": "Feature", "properties": { "access_type": "Pedestrian", "area_code": "E08000009", "area_name": "Trafford" }, "geometry": { "type": "Point", "coordinates": [ -2.282295489402431, 53.455912021627505 ] } },
{ "type": "Feature", "properties": { "access_type": "Pedestrian", "area_code": "E08000009", "area_name": "Trafford" }, "geometry": { "type": "Point", "coordinates": [ -2.295392025726807, 53.455932915973392 ] } },
{ "type": "Feature", "properties": { "access_type": "Pedestrian", "area_code": "E08000009", "area_name": "Trafford" }, "geometry": { "type": "Point", "coordinates": [ -2.295214794253642, 53.456326242004373 ] } },
{ "type": "Feature", "properties": { "access_type": "Pedestrian", "area_code": "E08000009", "area_name": "Trafford" }, "geometry": { "type": "Point", "coordinates": [ -2.296076115659019, 53.456442577440114 ] } },
{ "type": "Feature", "properties": { "access_type": "Motor Vehicle And Pedestrian", "area_code": "E08000009", "area_name": "Trafford" }, "geometry": { "type": "Point", "coordinates": [ -2.297140945801956, 53.457233706745669 ] } },
{ "type": "Feature", "properties": { "access_type": "Motor Vehicle And Pedestrian", "area_code": "E08000009", "area_name": "Trafford" }, "geometry": { "type": "Point", "coordinates": [ -2.292082366371694, 53.457355400840342 ] } },
{ "type": "Feature", "properties": { "access_type": "Motor Vehicle And Pedestrian", "area_code": "E08000009", "area_name": "Trafford" }, "geometry": { "type": "Point", "coordinates": [ -2.292279328002286, 53.457395726585816 ] } },
{ "type": "Feature", "properties": { "access_type": "Pedestrian", "area_code": "E08000009", "area_name": "Trafford" }, "geometry": { "type": "Point", "coordinates": [ -2.273522894282323, 53.457604755536209 ] } },
{ "type": "Feature", "properties": { "access_type": "Motor Vehicle And Pedestrian", "area_code": "E08000009", "area_name": "Trafford" }, "geometry": { "type": "Point", "coordinates": [ -2.296576668855327, 53.457776757200477 ] } },
{ "type": "Feature", "properties": { "access_type": "Motor Vehicle And Pedestrian", "area_code": "E08000009", "area_name": "Trafford" }, "geometry": { "type": "Point", "coordinates": [ -2.296230433324152, 53.458079271037654 ] } },
{ "type": "Feature", "properties": { "access_type": "Pedestrian", "area_code": "E08000009", "area_name": "Trafford" }, "geometry": { "type": "Point", "coordinates": [ -2.274094313859, 53.458451689493877 ] } },
{ "type": "Feature", "properties": { "access_type": "Pedestrian", "area_code": "E08000009", "area_name": "Trafford" }, "geometry": { "type": "Point", "coordinates": [ -2.29352574074998, 53.458427065445321 ] } },
{ "type": "Feature", "properties": { "access_type": "Pedestrian", "area_code": "E08000009", "area_name": "Trafford" }, "geometry": { "type": "Point", "coordinates": [ -2.295496184847825, 53.458526111519582 ] } },
{ "type": "Feature", "properties": { "access_type": "Pedestrian", "area_code": "E08000009", "area_name": "Trafford" }, "geometry": { "type": "Point", "coordinates": [ -2.275342368203458, 53.459241692722344 ] } },
{ "type": "Feature", "properties": { "access_type": "Motor Vehicle And Pedestrian", "area_code": "E08000009", "area_name": "Trafford" }, "geometry": { "type": "Point", "coordinates": [ -2.29616658958738, 53.459227081493637 ] } },
{ "type": "Feature", "properties": { "access_type": "Pedestrian", "area_code": "E08000009", "area_name": "Trafford" }, "geometry": { "type": "Point", "coordinates": [ -2.272214617198088, 53.459580541528105 ] } },
{ "type": "Feature", "properties": { "access_type": "Pedestrian", "area_code": "E08000009", "area_name": "Trafford" }, "geometry": { "type": "Point", "coordinates": [ -2.272204168553484, 53.459595216602715 ] } },
{ "type": "Feature", "properties": { "access_type": "Pedestrian", "area_code": "E08000009", "area_name": "Trafford" }, "geometry": { "type": "Point", "coordinates": [ -2.27419896804135, 53.459850508739422 ] } },
{ "type": "Feature", "properties": { "access_type": "Pedestrian", "area_code": "E08000009", "area_name": "Trafford" }, "geometry": { "type": "Point", "coordinates": [ -2.270823543113562, 53.459973986024032 ] } },
{ "type": "Feature", "properties": { "access_type": "Pedestrian", "area_code": "E08000009", "area_name": "Trafford" }, "geometry": { "type": "Point", "coordinates": [ -2.274133392286784, 53.459981262191995 ] } },
{ "type": "Feature", "properties": { "access_type": "Pedestrian", "area_code": "E08000009", "area_name": "Trafford" }, "geometry": { "type": "Point", "coordinates": [ -2.273836494163756, 53.46067567568538 ] } },
{ "type": "Feature", "properties": { "access_type": "Pedestrian", "area_code": "E08000009", "area_name": "Trafford" }, "geometry": { "type": "Point", "coordinates": [ -2.272955235039016, 53.460718501707284 ] } },
{ "type": "Feature", "properties": { "access_type": "Motor Vehicle And Pedestrian", "area_code": "E08000009", "area_name": "Trafford" }, "geometry": { "type": "Point", "coordinates": [ -2.281064137589613, 53.460843860969682 ] } },
{ "type": "Feature", "properties": { "access_type": "Motor Vehicle And Pedestrian", "area_code": "E08000009", "area_name": "Trafford" }, "geometry": { "type": "Point", "coordinates": [ -2.273128152539606, 53.460908302747384 ] } },
{ "type": "Feature", "properties": { "access_type": "Pedestrian", "area_code": "E08000009", "area_name": "Trafford" }, "geometry": { "type": "Point", "coordinates": [ -2.274709015834632, 53.461005795917146 ] } },
{ "type": "Feature", "properties": { "access_type": "Motor Vehicle And Pedestrian", "area_code": "E08000009", "area_name": "Trafford" }, "geometry": { "type": "Point", "coordinates": [ -2.265769822870197, 53.458695854949418 ] } },
{ "type": "Feature", "properties": { "access_type": "Motor Vehicle And Pedestrian", "area_code": "E08000009", "area_name": "Trafford" }, "geometry": { "type": "Point", "coordinates": [ -2.348734425533114, 53.451729890379248 ] } },
{ "type": "Feature", "properties": { "access_type": "Pedestrian", "area_code": "E08000009", "area_name": "Trafford" }, "geometry": { "type": "Point", "coordinates": [ -2.348502956239694, 53.451138491984352 ] } },
{ "type": "Feature", "properties": { "access_type": "Pedestrian", "area_code": "E08000009", "area_name": "Trafford" }, "geometry": { "type": "Point", "coordinates": [ -2.348119433316004, 53.447992007480508 ] } },
{ "type": "Feature", "properties": { "access_type": "Motor Vehicle And Pedestrian", "area_code": "E08000009", "area_name": "Trafford" }, "geometry": { "type": "Point", "coordinates": [ -2.347186104526511, 53.451410456466931 ] } },
{ "type": "Feature", "properties": { "access_type": "Pedestrian", "area_code": "E08000009", "area_name": "Trafford" }, "geometry": { "type": "Point", "coordinates": [ -2.347038535833565, 53.45912564323627 ] } },
{ "type": "Feature", "properties": { "access_type": "Pedestrian", "area_code": "E08000009", "area_name": "Trafford" }, "geometry": { "type": "Point", "coordinates": [ -2.346659988729851, 53.457915899911946 ] } },
{ "type": "Feature", "properties": { "access_type": "Pedestrian", "area_code": "E08000009", "area_name": "Trafford" }, "geometry": { "type": "Point", "coordinates": [ -2.34644845013896, 53.459919784332847 ] } },
{ "type": "Feature", "properties": { "access_type": "Pedestrian", "area_code": "E08000009", "area_name": "Trafford" }, "geometry": { "type": "Point", "coordinates": [ -2.346209592420982, 53.459661967500374 ] } },
{ "type": "Feature", "properties": { "access_type": "Pedestrian", "area_code": "E08000009", "area_name": "Trafford" }, "geometry": { "type": "Point", "coordinates": [ -2.345689381643695, 53.459864907369891 ] } },
{ "type": "Feature", "properties": { "access_type": "Pedestrian", "area_code": "E08000009", "area_name": "Trafford" }, "geometry": { "type": "Point", "coordinates": [ -2.345541233474089, 53.459852752284107 ] } },
{ "type": "Feature", "properties": { "access_type": "Motor Vehicle And Pedestrian", "area_code": "E08000009", "area_name": "Trafford" }, "geometry": { "type": "Point", "coordinates": [ -2.345431273275003, 53.457254940012724 ] } },
{ "type": "Feature", "properties": { "access_type": "Pedestrian", "area_code": "E08000009", "area_name": "Trafford" }, "geometry": { "type": "Point", "coordinates": [ -2.345322763265658, 53.459526831628452 ] } },
{ "type": "Feature", "properties": { "access_type": "Motor Vehicle And Pedestrian", "area_code": "E08000009", "area_name": "Trafford" }, "geometry": { "type": "Point", "coordinates": [ -2.345149605482868, 53.457267978976162 ] } },
{ "type": "Feature", "properties": { "access_type": "Pedestrian", "area_code": "E08000009", "area_name": "Trafford" }, "geometry": { "type": "Point", "coordinates": [ -2.344982320818358, 53.457327696776666 ] } },
{ "type": "Feature", "properties": { "access_type": "Pedestrian", "area_code": "E08000009", "area_name": "Trafford" }, "geometry": { "type": "Point", "coordinates": [ -2.344541323566611, 53.448491902896414 ] } },
{ "type": "Feature", "properties": { "access_type": "Pedestrian", "area_code": "E08000009", "area_name": "Trafford" }, "geometry": { "type": "Point", "coordinates": [ -2.344403976656802, 53.448711709225663 ] } },
{ "type": "Feature", "properties": { "access_type": "Pedestrian", "area_code": "E08000009", "area_name": "Trafford" }, "geometry": { "type": "Point", "coordinates": [ -2.344298266436388, 53.4489337611707 ] } },
{ "type": "Feature", "properties": { "access_type": "Pedestrian", "area_code": "E08000009", "area_name": "Trafford" }, "geometry": { "type": "Point", "coordinates": [ -2.343704836056087, 53.4573912446427 ] } },
{ "type": "Feature", "properties": { "access_type": "Pedestrian", "area_code": "E08000009", "area_name": "Trafford" }, "geometry": { "type": "Point", "coordinates": [ -2.34278441748754, 53.44885811951756 ] } },
{ "type": "Feature", "properties": { "access_type": "Motor Vehicle And Pedestrian", "area_code": "E08000009", "area_name": "Trafford" }, "geometry": { "type": "Point", "coordinates": [ -2.342682849224297, 53.449090764588114 ] } },
{ "type": "Feature", "properties": { "access_type": "Motor Vehicle And Pedestrian", "area_code": "E08000009", "area_name": "Trafford" }, "geometry": { "type": "Point", "coordinates": [ -2.342452872478201, 53.458268166333212 ] } },
{ "type": "Feature", "properties": { "access_type": "Pedestrian", "area_code": "E08000009", "area_name": "Trafford" }, "geometry": { "type": "Point", "coordinates": [ -2.342263657785211, 53.457456506600955 ] } },
{ "type": "Feature", "properties": { "access_type": "Pedestrian", "area_code": "E08000009", "area_name": "Trafford" }, "geometry": { "type": "Point", "coordinates": [ -2.342263090369042, 53.457984853199974 ] } },
{ "type": "Feature", "properties": { "access_type": "Pedestrian", "area_code": "E08000009", "area_name": "Trafford" }, "geometry": { "type": "Point", "coordinates": [ -2.335927937268881, 53.457694539742334 ] } },
{ "type": "Feature", "properties": { "access_type": "Motor Vehicle And Pedestrian", "area_code": "E08000009", "area_name": "Trafford" }, "geometry": { "type": "Point", "coordinates": [ -2.335412741067612, 53.448835104280533 ] } },
{ "type": "Feature", "properties": { "access_type": "Pedestrian", "area_code": "E08000009", "area_name": "Trafford" }, "geometry": { "type": "Point", "coordinates": [ -2.333380155300981, 53.452539395646703 ] } },
{ "type": "Feature", "properties": { "access_type": "Pedestrian", "area_code": "E08000009", "area_name": "Trafford" }, "geometry": { "type": "Point", "coordinates": [ -2.333354507269996, 53.45295590544945 ] } },
{ "type": "Feature", "properties": { "access_type": "Pedestrian", "area_code": "E08000009", "area_name": "Trafford" }, "geometry": { "type": "Point", "coordinates": [ -2.33312825052311, 53.452619107914487 ] } },
{ "type": "Feature", "properties": { "access_type": "Motor Vehicle And Pedestrian", "area_code": "E08000009", "area_name": "Trafford" }, "geometry": { "type": "Point", "coordinates": [ -2.332583253560765, 53.448377594482885 ] } },
{ "type": "Feature", "properties": { "access_type": "Pedestrian", "area_code": "E08000009", "area_name": "Trafford" }, "geometry": { "type": "Point", "coordinates": [ -2.332248716867105, 53.457789327033709 ] } },
{ "type": "Feature", "properties": { "access_type": "Motor Vehicle And Pedestrian", "area_code": "E08000009", "area_name": "Trafford" }, "geometry": { "type": "Point", "coordinates": [ -2.332011276202577, 53.448246965347018 ] } },
{ "type": "Feature", "properties": { "access_type": "Pedestrian", "area_code": "E08000009", "area_name": "Trafford" }, "geometry": { "type": "Point", "coordinates": [ -2.311462681291445, 53.448445713204713 ] } },
{ "type": "Feature", "properties": { "access_type": "Pedestrian", "area_code": "E08000009", "area_name": "Trafford" }, "geometry": { "type": "Point", "coordinates": [ -2.311434639931476, 53.449386974431768 ] } },
{ "type": "Feature", "properties": { "access_type": "Motor Vehicle And Pedestrian", "area_code": "E08000009", "area_name": "Trafford" }, "geometry": { "type": "Point", "coordinates": [ -2.310999663295862, 53.466401286057867 ] } },
{ "type": "Feature", "properties": { "access_type": "Pedestrian", "area_code": "E08000009", "area_name": "Trafford" }, "geometry": { "type": "Point", "coordinates": [ -2.310714328124745, 53.44934948173141 ] } },
{ "type": "Feature", "properties": { "access_type": "Pedestrian", "area_code": "E08000009", "area_name": "Trafford" }, "geometry": { "type": "Point", "coordinates": [ -2.310710712592712, 53.451348897302609 ] } },
{ "type": "Feature", "properties": { "access_type": "Pedestrian", "area_code": "E08000009", "area_name": "Trafford" }, "geometry": { "type": "Point", "coordinates": [ -2.310682970895081, 53.448849442044448 ] } },
{ "type": "Feature", "properties": { "access_type": "Pedestrian", "area_code": "E08000009", "area_name": "Trafford" }, "geometry": { "type": "Point", "coordinates": [ -2.310682007757396, 53.449006204359321 ] } },
{ "type": "Feature", "properties": { "access_type": "Pedestrian", "area_code": "E08000009", "area_name": "Trafford" }, "geometry": { "type": "Point", "coordinates": [ -2.310681055198588, 53.449102563782702 ] } },
{ "type": "Feature", "properties": { "access_type": "Pedestrian", "area_code": "E08000009", "area_name": "Trafford" }, "geometry": { "type": "Point", "coordinates": [ -2.310383648005099, 53.44874784142462 ] } },
{ "type": "Feature", "properties": { "access_type": "Pedestrian", "area_code": "E08000009", "area_name": "Trafford" }, "geometry": { "type": "Point", "coordinates": [ -2.309943924043165, 53.448905114543358 ] } },
{ "type": "Feature", "properties": { "access_type": "Pedestrian", "area_code": "E08000009", "area_name": "Trafford" }, "geometry": { "type": "Point", "coordinates": [ -2.309912960799803, 53.447445099408476 ] } },
{ "type": "Feature", "properties": { "access_type": "Pedestrian", "area_code": "E08000009", "area_name": "Trafford" }, "geometry": { "type": "Point", "coordinates": [ -2.30986851810162, 53.449508709683634 ] } },
{ "type": "Feature", "properties": { "access_type": "Pedestrian", "area_code": "E08000009", "area_name": "Trafford" }, "geometry": { "type": "Point", "coordinates": [ -2.309810063611339, 53.448263771478715 ] } },
{ "type": "Feature", "properties": { "access_type": "Pedestrian", "area_code": "E08000009", "area_name": "Trafford" }, "geometry": { "type": "Point", "coordinates": [ -2.309798130962697, 53.448961581360919 ] } },
{ "type": "Feature", "properties": { "access_type": "Pedestrian", "area_code": "E08000009", "area_name": "Trafford" }, "geometry": { "type": "Point", "coordinates": [ -2.309790977901092, 53.449364645185064 ] } },
{ "type": "Feature", "properties": { "access_type": "Pedestrian", "area_code": "E08000009", "area_name": "Trafford" }, "geometry": { "type": "Point", "coordinates": [ -2.303946758054659, 53.448451334290105 ] } },
{ "type": "Feature", "properties": { "access_type": "Pedestrian", "area_code": "E08000009", "area_name": "Trafford" }, "geometry": { "type": "Point", "coordinates": [ -2.303868587049774, 53.448532070444443 ] } },
{ "type": "Feature", "properties": { "access_type": "Motor Vehicle And Pedestrian", "area_code": "E08000009", "area_name": "Trafford" }, "geometry": { "type": "Point", "coordinates": [ -2.303770367189808, 53.448040288821424 ] } },
{ "type": "Feature", "properties": { "access_type": "Motor Vehicle And Pedestrian", "area_code": "E08000009", "area_name": "Trafford" }, "geometry": { "type": "Point", "coordinates": [ -2.30270572348517, 53.450942150021618 ] } },
{ "type": "Feature", "properties": { "access_type": "Pedestrian", "area_code": "E08000009", "area_name": "Trafford" }, "geometry": { "type": "Point", "coordinates": [ -2.301857416350323, 53.451076429290794 ] } },
{ "type": "Feature", "properties": { "access_type": "Pedestrian", "area_code": "E08000009", "area_name": "Trafford" }, "geometry": { "type": "Point", "coordinates": [ -2.300842908810575, 53.453005318757718 ] } },
{ "type": "Feature", "properties": { "access_type": "Pedestrian", "area_code": "E08000009", "area_name": "Trafford" }, "geometry": { "type": "Point", "coordinates": [ -2.300266988486629, 53.449388711629091 ] } },
{ "type": "Feature", "properties": { "access_type": "Pedestrian", "area_code": "E08000009", "area_name": "Trafford" }, "geometry": { "type": "Point", "coordinates": [ -2.300252221648477, 53.449216528767245 ] } },
{ "type": "Feature", "properties": { "access_type": "Pedestrian", "area_code": "E08000009", "area_name": "Trafford" }, "geometry": { "type": "Point", "coordinates": [ -2.299961005301507, 53.458225726666193 ] } },
{ "type": "Feature", "properties": { "access_type": "Pedestrian", "area_code": "E08000009", "area_name": "Trafford" }, "geometry": { "type": "Point", "coordinates": [ -2.299594018272376, 53.45885054024496 ] } },
{ "type": "Feature", "properties": { "access_type": "Pedestrian", "area_code": "E08000009", "area_name": "Trafford" }, "geometry": { "type": "Point", "coordinates": [ -2.299353847188248, 53.458664451493988 ] } },
{ "type": "Feature", "properties": { "access_type": "Pedestrian", "area_code": "E08000009", "area_name": "Trafford" }, "geometry": { "type": "Point", "coordinates": [ -2.299332649756598, 53.459097750504959 ] } },
{ "type": "Feature", "properties": { "access_type": "Pedestrian", "area_code": "E08000009", "area_name": "Trafford" }, "geometry": { "type": "Point", "coordinates": [ -2.298835278230293, 53.45893810232689 ] } },
{ "type": "Feature", "properties": { "access_type": "Pedestrian", "area_code": "E08000009", "area_name": "Trafford" }, "geometry": { "type": "Point", "coordinates": [ -2.298722055413127, 53.453282637079539 ] } },
{ "type": "Feature", "properties": { "access_type": "Pedestrian", "area_code": "E08000009", "area_name": "Trafford" }, "geometry": { "type": "Point", "coordinates": [ -2.298430931109979, 53.458556203540624 ] } },
{ "type": "Feature", "properties": { "access_type": "Pedestrian", "area_code": "E08000009", "area_name": "Trafford" }, "geometry": { "type": "Point", "coordinates": [ -2.298193950976839, 53.458459090667205 ] } },
{ "type": "Feature", "properties": { "access_type": "Pedestrian", "area_code": "E08000009", "area_name": "Trafford" }, "geometry": { "type": "Point", "coordinates": [ -2.332012991228879, 53.450164572743873 ] } },
{ "type": "Feature", "properties": { "access_type": "Pedestrian", "area_code": "E08000009", "area_name": "Trafford" }, "geometry": { "type": "Point", "coordinates": [ -2.33203748161805, 53.457835576323617 ] } },
{ "type": "Feature", "properties": { "access_type": "Pedestrian", "area_code": "E08000009", "area_name": "Trafford" }, "geometry": { "type": "Point", "coordinates": [ -2.330318794169021, 53.456748239332434 ] } },
{ "type": "Feature", "properties": { "access_type": "Pedestrian", "area_code": "E08000009", "area_name": "Trafford" }, "geometry": { "type": "Point", "coordinates": [ -2.329837888577758, 53.45718919709811 ] } },
{ "type": "Feature", "properties": { "access_type": "Pedestrian", "area_code": "E08000009", "area_name": "Trafford" }, "geometry": { "type": "Point", "coordinates": [ -2.329485871332792, 53.457355827384092 ] } },
{ "type": "Feature", "properties": { "access_type": "Pedestrian", "area_code": "E08000009", "area_name": "Trafford" }, "geometry": { "type": "Point", "coordinates": [ -2.329338067823092, 53.457328101141414 ] } },
{ "type": "Feature", "properties": { "access_type": "Pedestrian", "area_code": "E08000009", "area_name": "Trafford" }, "geometry": { "type": "Point", "coordinates": [ -2.329122570357927, 53.453437387020948 ] } },
{ "type": "Feature", "properties": { "access_type": "Pedestrian", "area_code": "E08000009", "area_name": "Trafford" }, "geometry": { "type": "Point", "coordinates": [ -2.328884827081092, 53.452896394016385 ] } },
{ "type": "Feature", "properties": { "access_type": "Pedestrian", "area_code": "E08000009", "area_name": "Trafford" }, "geometry": { "type": "Point", "coordinates": [ -2.32885147548539, 53.451445648741512 ] } },
{ "type": "Feature", "properties": { "access_type": "Pedestrian", "area_code": "E08000009", "area_name": "Trafford" }, "geometry": { "type": "Point", "coordinates": [ -2.328808329244108, 53.456811822864033 ] } },
{ "type": "Feature", "properties": { "access_type": "Motor Vehicle And Pedestrian", "area_code": "E08000009", "area_name": "Trafford" }, "geometry": { "type": "Point", "coordinates": [ -2.328602958333073, 53.448006964043664 ] } },
{ "type": "Feature", "properties": { "access_type": "Pedestrian", "area_code": "E08000009", "area_name": "Trafford" }, "geometry": { "type": "Point", "coordinates": [ -2.328337132196851, 53.451645620874892 ] } },
{ "type": "Feature", "properties": { "access_type": "Pedestrian", "area_code": "E08000009", "area_name": "Trafford" }, "geometry": { "type": "Point", "coordinates": [ -2.32810321872094, 53.457884654114665 ] } },
{ "type": "Feature", "properties": { "access_type": "Pedestrian", "area_code": "E08000009", "area_name": "Trafford" }, "geometry": { "type": "Point", "coordinates": [ -2.328044202635307, 53.457594397453889 ] } },
{ "type": "Feature", "properties": { "access_type": "Pedestrian", "area_code": "E08000009", "area_name": "Trafford" }, "geometry": { "type": "Point", "coordinates": [ -2.328008067099266, 53.457380749906463 ] } },
{ "type": "Feature", "properties": { "access_type": "Pedestrian", "area_code": "E08000009", "area_name": "Trafford" }, "geometry": { "type": "Point", "coordinates": [ -2.322145292212457, 53.449701553810563 ] } },
{ "type": "Feature", "properties": { "access_type": "Pedestrian", "area_code": "E08000009", "area_name": "Trafford" }, "geometry": { "type": "Point", "coordinates": [ -2.322057116651345, 53.448038824883227 ] } },
{ "type": "Feature", "properties": { "access_type": "Pedestrian", "area_code": "E08000009", "area_name": "Trafford" }, "geometry": { "type": "Point", "coordinates": [ -2.321654219784205, 53.449176959472119 ] } },
{ "type": "Feature", "properties": { "access_type": "Motor Vehicle And Pedestrian", "area_code": "E08000009", "area_name": "Trafford" }, "geometry": { "type": "Point", "coordinates": [ -2.321115748944982, 53.452903701453444 ] } },
{ "type": "Feature", "properties": { "access_type": "Pedestrian", "area_code": "E08000009", "area_name": "Trafford" }, "geometry": { "type": "Point", "coordinates": [ -2.320915031636702, 53.45272572920787 ] } },
{ "type": "Feature", "properties": { "access_type": "Motor Vehicle And Pedestrian", "area_code": "E08000009", "area_name": "Trafford" }, "geometry": { "type": "Point", "coordinates": [ -2.320772045831214, 53.452595150776787 ] } },
{ "type": "Feature", "properties": { "access_type": "Motor Vehicle And Pedestrian", "area_code": "E08000009", "area_name": "Trafford" }, "geometry": { "type": "Point", "coordinates": [ -2.320654672968799, 53.452486255594877 ] } },
{ "type": "Feature", "properties": { "access_type": "Pedestrian", "area_code": "E08000009", "area_name": "Trafford" }, "geometry": { "type": "Point", "coordinates": [ -2.320411261103056, 53.447379271375524 ] } },
{ "type": "Feature", "properties": { "access_type": "Pedestrian", "area_code": "E08000009", "area_name": "Trafford" }, "geometry": { "type": "Point", "coordinates": [ -2.318915091462511, 53.450412140468956 ] } },
{ "type": "Feature", "properties": { "access_type": "Pedestrian", "area_code": "E08000009", "area_name": "Trafford" }, "geometry": { "type": "Point", "coordinates": [ -2.31619334453601, 53.472701790518506 ] } },
{ "type": "Feature", "properties": { "access_type": "Motor Vehicle And Pedestrian", "area_code": "E08000009", "area_name": "Trafford" }, "geometry": { "type": "Point", "coordinates": [ -2.315515425863931, 53.473862559066752 ] } },
{ "type": "Feature", "properties": { "access_type": "Motor Vehicle And Pedestrian", "area_code": "E08000009", "area_name": "Trafford" }, "geometry": { "type": "Point", "coordinates": [ -2.314194177351879, 53.448244492974567 ] } },
{ "type": "Feature", "properties": { "access_type": "Pedestrian", "area_code": "E08000009", "area_name": "Trafford" }, "geometry": { "type": "Point", "coordinates": [ -2.313809279210687, 53.453851554621252 ] } },
{ "type": "Feature", "properties": { "access_type": "Pedestrian", "area_code": "E08000009", "area_name": "Trafford" }, "geometry": { "type": "Point", "coordinates": [ -2.312941138005325, 53.448181988399988 ] } },
{ "type": "Feature", "properties": { "access_type": "Pedestrian", "area_code": "E08000009", "area_name": "Trafford" }, "geometry": { "type": "Point", "coordinates": [ -2.312792175137506, 53.447417365591882 ] } },
{ "type": "Feature", "properties": { "access_type": "Pedestrian", "area_code": "E08000009", "area_name": "Trafford" }, "geometry": { "type": "Point", "coordinates": [ -2.312758120121104, 53.447393185805922 ] } },
{ "type": "Feature", "properties": { "access_type": "Pedestrian", "area_code": "E08000009", "area_name": "Trafford" }, "geometry": { "type": "Point", "coordinates": [ -2.292645697658309, 53.447212642990849 ] } },
{ "type": "Feature", "properties": { "access_type": "Pedestrian", "area_code": "E08000009", "area_name": "Trafford" }, "geometry": { "type": "Point", "coordinates": [ -2.2923918986756, 53.447242297865202 ] } },
{ "type": "Feature", "properties": { "access_type": "Pedestrian", "area_code": "E08000009", "area_name": "Trafford" }, "geometry": { "type": "Point", "coordinates": [ -2.292885808421269, 53.44729429903402 ] } },
{ "type": "Feature", "properties": { "access_type": "Pedestrian", "area_code": "E08000009", "area_name": "Trafford" }, "geometry": { "type": "Point", "coordinates": [ -2.29435169118269, 53.447356848769218 ] } },
{ "type": "Feature", "properties": { "access_type": "Pedestrian", "area_code": "E08000009", "area_name": "Trafford" }, "geometry": { "type": "Point", "coordinates": [ -2.291856804304742, 53.447661213979679 ] } },
{ "type": "Feature", "properties": { "access_type": "Pedestrian", "area_code": "E08000009", "area_name": "Trafford" }, "geometry": { "type": "Point", "coordinates": [ -2.292064207876212, 53.447715806308992 ] } },
{ "type": "Feature", "properties": { "access_type": "Pedestrian", "area_code": "E08000009", "area_name": "Trafford" }, "geometry": { "type": "Point", "coordinates": [ -2.290883985448032, 53.447747900897397 ] } },
{ "type": "Feature", "properties": { "access_type": "Pedestrian", "area_code": "E08000009", "area_name": "Trafford" }, "geometry": { "type": "Point", "coordinates": [ -2.290804062647017, 53.447972269272213 ] } },
{ "type": "Feature", "properties": { "access_type": "Pedestrian", "area_code": "E08000009", "area_name": "Trafford" }, "geometry": { "type": "Point", "coordinates": [ -2.291860126454811, 53.447969871574934 ] } },
{ "type": "Feature", "properties": { "access_type": "Pedestrian", "area_code": "E08000009", "area_name": "Trafford" }, "geometry": { "type": "Point", "coordinates": [ -2.291259128919939, 53.448419596907442 ] } },
{ "type": "Feature", "properties": { "access_type": "Pedestrian", "area_code": "E08000009", "area_name": "Trafford" }, "geometry": { "type": "Point", "coordinates": [ -2.291539263374623, 53.448430688004727 ] } },
{ "type": "Feature", "properties": { "access_type": "Pedestrian", "area_code": "E08000009", "area_name": "Trafford" }, "geometry": { "type": "Point", "coordinates": [ -2.291501539139255, 53.44861648289892 ] } },
{ "type": "Feature", "properties": { "access_type": "Pedestrian", "area_code": "E08000009", "area_name": "Trafford" }, "geometry": { "type": "Point", "coordinates": [ -2.290880219994719, 53.449421212379626 ] } },
{ "type": "Feature", "properties": { "access_type": "Pedestrian", "area_code": "E08000009", "area_name": "Trafford" }, "geometry": { "type": "Point", "coordinates": [ -2.290811540682254, 53.449770943080978 ] } },
{ "type": "Feature", "properties": { "access_type": "Pedestrian", "area_code": "E08000009", "area_name": "Trafford" }, "geometry": { "type": "Point", "coordinates": [ -2.29077511199131, 53.44992662301825 ] } },
{ "type": "Feature", "properties": { "access_type": "Pedestrian", "area_code": "E08000009", "area_name": "Trafford" }, "geometry": { "type": "Point", "coordinates": [ -2.292308454509375, 53.450436931236737 ] } },
{ "type": "Feature", "properties": { "access_type": "Pedestrian", "area_code": "E08000009", "area_name": "Trafford" }, "geometry": { "type": "Point", "coordinates": [ -2.288378882484691, 53.451460752907749 ] } },
{ "type": "Feature", "properties": { "access_type": "Pedestrian", "area_code": "E08000009", "area_name": "Trafford" }, "geometry": { "type": "Point", "coordinates": [ -2.28703064172647, 53.451602155840064 ] } },
{ "type": "Feature", "properties": { "access_type": "Pedestrian", "area_code": "E08000009", "area_name": "Trafford" }, "geometry": { "type": "Point", "coordinates": [ -2.287156693871308, 53.451849935588129 ] } },
{ "type": "Feature", "properties": { "access_type": "Pedestrian", "area_code": "E08000009", "area_name": "Trafford" }, "geometry": { "type": "Point", "coordinates": [ -2.292280780662134, 53.452501480635071 ] } },
{ "type": "Feature", "properties": { "access_type": "Pedestrian", "area_code": "E08000009", "area_name": "Trafford" }, "geometry": { "type": "Point", "coordinates": [ -2.291972762169471, 53.452644073113945 ] } },
{ "type": "Feature", "properties": { "access_type": "Pedestrian", "area_code": "E08000009", "area_name": "Trafford" }, "geometry": { "type": "Point", "coordinates": [ -2.292855802645936, 53.452733862512218 ] } },
{ "type": "Feature", "properties": { "access_type": "Pedestrian", "area_code": "E08000009", "area_name": "Trafford" }, "geometry": { "type": "Point", "coordinates": [ -2.393616486695556, 53.451844286603077 ] } },
{ "type": "Feature", "properties": { "access_type": "Pedestrian", "area_code": "E08000009", "area_name": "Trafford" }, "geometry": { "type": "Point", "coordinates": [ -2.393604173180863, 53.452140949005305 ] } },
{ "type": "Feature", "properties": { "access_type": "Pedestrian", "area_code": "E08000009", "area_name": "Trafford" }, "geometry": { "type": "Point", "coordinates": [ -2.39353295066703, 53.451522682339856 ] } },
{ "type": "Feature", "properties": { "access_type": "Pedestrian", "area_code": "E08000009", "area_name": "Trafford" }, "geometry": { "type": "Point", "coordinates": [ -2.393381299268558, 53.451504575800584 ] } },
{ "type": "Feature", "properties": { "access_type": "Pedestrian", "area_code": "E08000009", "area_name": "Trafford" }, "geometry": { "type": "Point", "coordinates": [ -2.393210876799237, 53.451801579218518 ] } },
{ "type": "Feature", "properties": { "access_type": "Motor Vehicle And Pedestrian", "area_code": "E08000009", "area_name": "Trafford" }, "geometry": { "type": "Point", "coordinates": [ -2.393018894434986, 53.447939295197173 ] } },
{ "type": "Feature", "properties": { "access_type": "Pedestrian", "area_code": "E08000009", "area_name": "Trafford" }, "geometry": { "type": "Point", "coordinates": [ -2.392900770733607, 53.452007179232517 ] } },
{ "type": "Feature", "properties": { "access_type": "Pedestrian", "area_code": "E08000009", "area_name": "Trafford" }, "geometry": { "type": "Point", "coordinates": [ -2.392710242268692, 53.447940580468057 ] } },
{ "type": "Feature", "properties": { "access_type": "Pedestrian", "area_code": "E08000009", "area_name": "Trafford" }, "geometry": { "type": "Point", "coordinates": [ -2.392217317214218, 53.44794426814105 ] } },
{ "type": "Feature", "properties": { "access_type": "Pedestrian", "area_code": "E08000009", "area_name": "Trafford" }, "geometry": { "type": "Point", "coordinates": [ -2.392053383402842, 53.450268434955881 ] } },
{ "type": "Feature", "properties": { "access_type": "Pedestrian", "area_code": "E08000009", "area_name": "Trafford" }, "geometry": { "type": "Point", "coordinates": [ -2.391434302208035, 53.447921130590842 ] } },
{ "type": "Feature", "properties": { "access_type": "Pedestrian", "area_code": "E08000009", "area_name": "Trafford" }, "geometry": { "type": "Point", "coordinates": [ -2.391270451918318, 53.447459117114903 ] } },
{ "type": "Feature", "properties": { "access_type": "Motor Vehicle And Pedestrian", "area_code": "E08000009", "area_name": "Trafford" }, "geometry": { "type": "Point", "coordinates": [ -2.391253999556305, 53.447340072797822 ] } },
{ "type": "Feature", "properties": { "access_type": "Motor Vehicle And Pedestrian", "area_code": "E08000009", "area_name": "Trafford" }, "geometry": { "type": "Point", "coordinates": [ -2.391234664320426, 53.447218611015593 ] } },
{ "type": "Feature", "properties": { "access_type": "Pedestrian", "area_code": "E08000009", "area_name": "Trafford" }, "geometry": { "type": "Point", "coordinates": [ -2.387451256553276, 53.451847913153514 ] } },
{ "type": "Feature", "properties": { "access_type": "Pedestrian", "area_code": "E08000009", "area_name": "Trafford" }, "geometry": { "type": "Point", "coordinates": [ -2.383520499737906, 53.447524352449967 ] } },
{ "type": "Feature", "properties": { "access_type": "Pedestrian", "area_code": "E08000009", "area_name": "Trafford" }, "geometry": { "type": "Point", "coordinates": [ -2.383105738438613, 53.446593302403876 ] } },
{ "type": "Feature", "properties": { "access_type": "Motor Vehicle And Pedestrian", "area_code": "E08000009", "area_name": "Trafford" }, "geometry": { "type": "Point", "coordinates": [ -2.382519537759857, 53.450103859269831 ] } },
{ "type": "Feature", "properties": { "access_type": "Motor Vehicle And Pedestrian", "area_code": "E08000009", "area_name": "Trafford" }, "geometry": { "type": "Point", "coordinates": [ -2.382037451264762, 53.449204571370799 ] } },
{ "type": "Feature", "properties": { "access_type": "Pedestrian", "area_code": "E08000009", "area_name": "Trafford" }, "geometry": { "type": "Point", "coordinates": [ -2.377863657296781, 53.448076309256216 ] } },
{ "type": "Feature", "properties": { "access_type": "Motor Vehicle And Pedestrian", "area_code": "E08000009", "area_name": "Trafford" }, "geometry": { "type": "Point", "coordinates": [ -2.377429158656411, 53.45173026587188 ] } },
{ "type": "Feature", "properties": { "access_type": "Motor Vehicle And Pedestrian", "area_code": "E08000009", "area_name": "Trafford" }, "geometry": { "type": "Point", "coordinates": [ -2.376788468032212, 53.450305718926749 ] } },
{ "type": "Feature", "properties": { "access_type": "Pedestrian", "area_code": "E08000009", "area_name": "Trafford" }, "geometry": { "type": "Point", "coordinates": [ -2.375206447453554, 53.449837005160283 ] } },
{ "type": "Feature", "properties": { "access_type": "Motor Vehicle And Pedestrian", "area_code": "E08000009", "area_name": "Trafford" }, "geometry": { "type": "Point", "coordinates": [ -2.374993228595743, 53.449101783444426 ] } },
{ "type": "Feature", "properties": { "access_type": "Motor Vehicle And Pedestrian", "area_code": "E08000009", "area_name": "Trafford" }, "geometry": { "type": "Point", "coordinates": [ -2.374610276000332, 53.449934245588743 ] } },
{ "type": "Feature", "properties": { "access_type": "Pedestrian", "area_code": "E08000009", "area_name": "Trafford" }, "geometry": { "type": "Point", "coordinates": [ -2.374538862268357, 53.449792720406947 ] } },
{ "type": "Feature", "properties": { "access_type": "Pedestrian", "area_code": "E08000009", "area_name": "Trafford" }, "geometry": { "type": "Point", "coordinates": [ -2.374485662147167, 53.449667587075936 ] } },
{ "type": "Feature", "properties": { "access_type": "Pedestrian", "area_code": "E08000009", "area_name": "Trafford" }, "geometry": { "type": "Point", "coordinates": [ -2.373231480917231, 53.446829518042342 ] } },
{ "type": "Feature", "properties": { "access_type": "Motor Vehicle And Pedestrian", "area_code": "E08000009", "area_name": "Trafford" }, "geometry": { "type": "Point", "coordinates": [ -2.372618205552199, 53.449834953927144 ] } },
{ "type": "Feature", "properties": { "access_type": "Pedestrian", "area_code": "E08000009", "area_name": "Trafford" }, "geometry": { "type": "Point", "coordinates": [ -2.371905730449003, 53.450270512724323 ] } },
{ "type": "Feature", "properties": { "access_type": "Pedestrian", "area_code": "E08000009", "area_name": "Trafford" }, "geometry": { "type": "Point", "coordinates": [ -2.371745918262814, 53.450350828624131 ] } },
{ "type": "Feature", "properties": { "access_type": "Pedestrian", "area_code": "E08000009", "area_name": "Trafford" }, "geometry": { "type": "Point", "coordinates": [ -2.371191202499782, 53.44696890930966 ] } },
{ "type": "Feature", "properties": { "access_type": "Motor Vehicle And Pedestrian", "area_code": "E08000009", "area_name": "Trafford" }, "geometry": { "type": "Point", "coordinates": [ -2.370862824617585, 53.45061406273625 ] } },
{ "type": "Feature", "properties": { "access_type": "Pedestrian", "area_code": "E08000009", "area_name": "Trafford" }, "geometry": { "type": "Point", "coordinates": [ -2.370052686535784, 53.446888221026818 ] } },
{ "type": "Feature", "properties": { "access_type": "Pedestrian", "area_code": "E08000009", "area_name": "Trafford" }, "geometry": { "type": "Point", "coordinates": [ -2.369648462295924, 53.446927494791339 ] } },
{ "type": "Feature", "properties": { "access_type": "Pedestrian", "area_code": "E08000009", "area_name": "Trafford" }, "geometry": { "type": "Point", "coordinates": [ -2.369418760476933, 53.448408348468497 ] } },
{ "type": "Feature", "properties": { "access_type": "Motor Vehicle And Pedestrian", "area_code": "E08000009", "area_name": "Trafford" }, "geometry": { "type": "Point", "coordinates": [ -2.369360485457927, 53.448407809686969 ] } },
{ "type": "Feature", "properties": { "access_type": "Pedestrian", "area_code": "E08000009", "area_name": "Trafford" }, "geometry": { "type": "Point", "coordinates": [ -2.368711874279388, 53.448812231367974 ] } },
{ "type": "Feature", "properties": { "access_type": "Pedestrian", "area_code": "E08000009", "area_name": "Trafford" }, "geometry": { "type": "Point", "coordinates": [ -2.368609107671263, 53.448108117017085 ] } },
{ "type": "Feature", "properties": { "access_type": "Pedestrian", "area_code": "E08000009", "area_name": "Trafford" }, "geometry": { "type": "Point", "coordinates": [ -2.368263349561443, 53.448536858645262 ] } },
{ "type": "Feature", "properties": { "access_type": "Pedestrian", "area_code": "E08000009", "area_name": "Trafford" }, "geometry": { "type": "Point", "coordinates": [ -2.368117122961286, 53.448534163610198 ] } },
{ "type": "Feature", "properties": { "access_type": "Pedestrian", "area_code": "E08000009", "area_name": "Trafford" }, "geometry": { "type": "Point", "coordinates": [ -2.367911115548499, 53.448530933548462 ] } },
{ "type": "Feature", "properties": { "access_type": "Pedestrian", "area_code": "E08000009", "area_name": "Trafford" }, "geometry": { "type": "Point", "coordinates": [ -2.367354413914268, 53.448839606310742 ] } },
{ "type": "Feature", "properties": { "access_type": "Pedestrian", "area_code": "E08000009", "area_name": "Trafford" }, "geometry": { "type": "Point", "coordinates": [ -2.366917090559958, 53.448797087064385 ] } },
{ "type": "Feature", "properties": { "access_type": "Pedestrian", "area_code": "E08000009", "area_name": "Trafford" }, "geometry": { "type": "Point", "coordinates": [ -2.366797080638774, 53.447870827536207 ] } },
{ "type": "Feature", "properties": { "access_type": "Motor Vehicle And Pedestrian", "area_code": "E08000009", "area_name": "Trafford" }, "geometry": { "type": "Point", "coordinates": [ -2.366797255778295, 53.449078796471582 ] } },
{ "type": "Feature", "properties": { "access_type": "Pedestrian", "area_code": "E08000009", "area_name": "Trafford" }, "geometry": { "type": "Point", "coordinates": [ -2.365903864371112, 53.446604386783221 ] } },
{ "type": "Feature", "properties": { "access_type": "Pedestrian", "area_code": "E08000009", "area_name": "Trafford" }, "geometry": { "type": "Point", "coordinates": [ -2.361449164427694, 53.451833553734012 ] } },
{ "type": "Feature", "properties": { "access_type": "Pedestrian", "area_code": "E08000009", "area_name": "Trafford" }, "geometry": { "type": "Point", "coordinates": [ -2.36144916595506, 53.451833733500003 ] } },
{ "type": "Feature", "properties": { "access_type": "Motor Vehicle And Pedestrian", "area_code": "E08000009", "area_name": "Trafford" }, "geometry": { "type": "Point", "coordinates": [ -2.361381215412141, 53.451279706392548 ] } },
{ "type": "Feature", "properties": { "access_type": "Motor Vehicle And Pedestrian", "area_code": "E08000009", "area_name": "Trafford" }, "geometry": { "type": "Point", "coordinates": [ -2.361381222283855, 53.451280515339541 ] } },
{ "type": "Feature", "properties": { "access_type": "Pedestrian", "area_code": "E08000009", "area_name": "Trafford" }, "geometry": { "type": "Point", "coordinates": [ -2.361377240077397, 53.451361244401703 ] } },
{ "type": "Feature", "properties": { "access_type": "Pedestrian", "area_code": "E08000009", "area_name": "Trafford" }, "geometry": { "type": "Point", "coordinates": [ -2.361320677985064, 53.451562848566624 ] } },
{ "type": "Feature", "properties": { "access_type": "Pedestrian", "area_code": "E08000009", "area_name": "Trafford" }, "geometry": { "type": "Point", "coordinates": [ -2.361320526645055, 53.451562759139335 ] } },
{ "type": "Feature", "properties": { "access_type": "Pedestrian", "area_code": "E08000009", "area_name": "Trafford" }, "geometry": { "type": "Point", "coordinates": [ -2.361298603213741, 53.452155079739853 ] } },
{ "type": "Feature", "properties": { "access_type": "Pedestrian", "area_code": "E08000009", "area_name": "Trafford" }, "geometry": { "type": "Point", "coordinates": [ -2.361298603977114, 53.452155169622813 ] } },
{ "type": "Feature", "properties": { "access_type": "Pedestrian", "area_code": "E08000009", "area_name": "Trafford" }, "geometry": { "type": "Point", "coordinates": [ -2.359855629223437, 53.450346271240981 ] } },
{ "type": "Feature", "properties": { "access_type": "Pedestrian", "area_code": "E08000009", "area_name": "Trafford" }, "geometry": { "type": "Point", "coordinates": [ -2.359708960010674, 53.450274085889134 ] } },
{ "type": "Feature", "properties": { "access_type": "Pedestrian", "area_code": "E08000009", "area_name": "Trafford" }, "geometry": { "type": "Point", "coordinates": [ -2.359279080671307, 53.450168866188136 ] } },
{ "type": "Feature", "properties": { "access_type": "Pedestrian", "area_code": "E08000009", "area_name": "Trafford" }, "geometry": { "type": "Point", "coordinates": [ -2.359278479143524, 53.450168957883626 ] } },
{ "type": "Feature", "properties": { "access_type": "Motor Vehicle And Pedestrian", "area_code": "E08000009", "area_name": "Trafford" }, "geometry": { "type": "Point", "coordinates": [ -2.357913970036539, 53.452120601152551 ] } },
{ "type": "Feature", "properties": { "access_type": "Pedestrian", "area_code": "E08000009", "area_name": "Trafford" }, "geometry": { "type": "Point", "coordinates": [ -2.357581394570447, 53.450963425644375 ] } },
{ "type": "Feature", "properties": { "access_type": "Pedestrian", "area_code": "E08000009", "area_name": "Trafford" }, "geometry": { "type": "Point", "coordinates": [ -2.336964431319057, 53.430552265177568 ] } },
{ "type": "Feature", "properties": { "access_type": "Pedestrian", "area_code": "E08000009", "area_name": "Trafford" }, "geometry": { "type": "Point", "coordinates": [ -2.311881536863206, 53.431146722940277 ] } },
{ "type": "Feature", "properties": { "access_type": "Pedestrian", "area_code": "E08000009", "area_name": "Trafford" }, "geometry": { "type": "Point", "coordinates": [ -2.33327005024076, 53.431102310490118 ] } },
{ "type": "Feature", "properties": { "access_type": "Pedestrian", "area_code": "E08000009", "area_name": "Trafford" }, "geometry": { "type": "Point", "coordinates": [ -2.332532469913696, 53.431225533361363 ] } },
{ "type": "Feature", "properties": { "access_type": "Motor Vehicle And Pedestrian", "area_code": "E08000009", "area_name": "Trafford" }, "geometry": { "type": "Point", "coordinates": [ -2.311548459420381, 53.431310824876 ] } },
{ "type": "Feature", "properties": { "access_type": "Motor Vehicle And Pedestrian", "area_code": "E08000009", "area_name": "Trafford" }, "geometry": { "type": "Point", "coordinates": [ -2.31401217511559, 53.43162220346278 ] } },
{ "type": "Feature", "properties": { "access_type": "Pedestrian", "area_code": "E08000009", "area_name": "Trafford" }, "geometry": { "type": "Point", "coordinates": [ -2.331031039634592, 53.432179347442968 ] } },
{ "type": "Feature", "properties": { "access_type": "Pedestrian", "area_code": "E08000009", "area_name": "Trafford" }, "geometry": { "type": "Point", "coordinates": [ -2.315780089425564, 53.432254737289199 ] } },
{ "type": "Feature", "properties": { "access_type": "Pedestrian", "area_code": "E08000009", "area_name": "Trafford" }, "geometry": { "type": "Point", "coordinates": [ -2.330609840678634, 53.432228873256214 ] } },
{ "type": "Feature", "properties": { "access_type": "Pedestrian", "area_code": "E08000009", "area_name": "Trafford" }, "geometry": { "type": "Point", "coordinates": [ -2.315072803903409, 53.432271078031654 ] } },
{ "type": "Feature", "properties": { "access_type": "Motor Vehicle And Pedestrian", "area_code": "E08000009", "area_name": "Trafford" }, "geometry": { "type": "Point", "coordinates": [ -2.316311249222506, 53.432315891103052 ] } },
{ "type": "Feature", "properties": { "access_type": "Motor Vehicle And Pedestrian", "area_code": "E08000009", "area_name": "Trafford" }, "geometry": { "type": "Point", "coordinates": [ -2.314192312615052, 53.432373621400501 ] } },
{ "type": "Feature", "properties": { "access_type": "Pedestrian", "area_code": "E08000009", "area_name": "Trafford" }, "geometry": { "type": "Point", "coordinates": [ -2.316956362552552, 53.432803426343199 ] } },
{ "type": "Feature", "properties": { "access_type": "Motor Vehicle And Pedestrian", "area_code": "E08000009", "area_name": "Trafford" }, "geometry": { "type": "Point", "coordinates": [ -2.329644928581221, 53.432775708894518 ] } },
{ "type": "Feature", "properties": { "access_type": "Motor Vehicle And Pedestrian", "area_code": "E08000009", "area_name": "Trafford" }, "geometry": { "type": "Point", "coordinates": [ -2.310216749654785, 53.43382919883711 ] } },
{ "type": "Feature", "properties": { "access_type": "Pedestrian", "area_code": "E08000009", "area_name": "Trafford" }, "geometry": { "type": "Point", "coordinates": [ -2.333783440477553, 53.434577647565071 ] } },
{ "type": "Feature", "properties": { "access_type": "Motor Vehicle And Pedestrian", "area_code": "E08000009", "area_name": "Trafford" }, "geometry": { "type": "Point", "coordinates": [ -2.334925613704205, 53.435671230824362 ] } },
{ "type": "Feature", "properties": { "access_type": "Motor Vehicle And Pedestrian", "area_code": "E08000009", "area_name": "Trafford" }, "geometry": { "type": "Point", "coordinates": [ -2.336267825951039, 53.435898372970968 ] } },
{ "type": "Feature", "properties": { "access_type": "Motor Vehicle And Pedestrian", "area_code": "E08000009", "area_name": "Trafford" }, "geometry": { "type": "Point", "coordinates": [ -2.33626782737125, 53.43589855273791 ] } },
{ "type": "Feature", "properties": { "access_type": "Pedestrian", "area_code": "E08000009", "area_name": "Trafford" }, "geometry": { "type": "Point", "coordinates": [ -2.334782618431365, 53.435958636276197 ] } },
{ "type": "Feature", "properties": { "access_type": "Motor Vehicle And Pedestrian", "area_code": "E08000009", "area_name": "Trafford" }, "geometry": { "type": "Point", "coordinates": [ -2.311515690847736, 53.44067400376246 ] } },
{ "type": "Feature", "properties": { "access_type": "Pedestrian", "area_code": "E08000009", "area_name": "Trafford" }, "geometry": { "type": "Point", "coordinates": [ -2.327938300051126, 53.443624546246618 ] } },
{ "type": "Feature", "properties": { "access_type": "Motor Vehicle And Pedestrian", "area_code": "E08000009", "area_name": "Trafford" }, "geometry": { "type": "Point", "coordinates": [ -2.312380116721719, 53.443711126786063 ] } },
{ "type": "Feature", "properties": { "access_type": "Pedestrian", "area_code": "E08000009", "area_name": "Trafford" }, "geometry": { "type": "Point", "coordinates": [ -2.310421651445937, 53.443720999819867 ] } },
{ "type": "Feature", "properties": { "access_type": "Pedestrian", "area_code": "E08000009", "area_name": "Trafford" }, "geometry": { "type": "Point", "coordinates": [ -2.333004991365392, 53.443759909226053 ] } },
{ "type": "Feature", "properties": { "access_type": "Pedestrian", "area_code": "E08000009", "area_name": "Trafford" }, "geometry": { "type": "Point", "coordinates": [ -2.309946527829223, 53.444033776851207 ] } },
{ "type": "Feature", "properties": { "access_type": "Motor Vehicle And Pedestrian", "area_code": "E08000009", "area_name": "Trafford" }, "geometry": { "type": "Point", "coordinates": [ -2.327894034268347, 53.444132070537393 ] } },
{ "type": "Feature", "properties": { "access_type": "Pedestrian", "area_code": "E08000009", "area_name": "Trafford" }, "geometry": { "type": "Point", "coordinates": [ -2.310530867180742, 53.444204388473132 ] } },
{ "type": "Feature", "properties": { "access_type": "Motor Vehicle And Pedestrian", "area_code": "E08000009", "area_name": "Trafford" }, "geometry": { "type": "Point", "coordinates": [ -2.327598962618696, 53.444466355220747 ] } },
{ "type": "Feature", "properties": { "access_type": "Pedestrian", "area_code": "E08000009", "area_name": "Trafford" }, "geometry": { "type": "Point", "coordinates": [ -2.33125133695816, 53.444647462284337 ] } },
{ "type": "Feature", "properties": { "access_type": "Pedestrian", "area_code": "E08000009", "area_name": "Trafford" }, "geometry": { "type": "Point", "coordinates": [ -2.332555793926069, 53.445249842347174 ] } },
{ "type": "Feature", "properties": { "access_type": "Pedestrian", "area_code": "E08000009", "area_name": "Trafford" }, "geometry": { "type": "Point", "coordinates": [ -2.287514051523978, 53.429908798191477 ] } },
{ "type": "Feature", "properties": { "access_type": "Motor Vehicle And Pedestrian", "area_code": "E08000009", "area_name": "Trafford" }, "geometry": { "type": "Point", "coordinates": [ -2.387521343797653, 53.432362301135235 ] } },
{ "type": "Feature", "properties": { "access_type": "Pedestrian", "area_code": "E08000009", "area_name": "Trafford" }, "geometry": { "type": "Point", "coordinates": [ -2.387370359852691, 53.445625677210224 ] } },
{ "type": "Feature", "properties": { "access_type": "Pedestrian", "area_code": "E08000009", "area_name": "Trafford" }, "geometry": { "type": "Point", "coordinates": [ -2.385551909414052, 53.432082482300004 ] } },
{ "type": "Feature", "properties": { "access_type": "Pedestrian", "area_code": "E08000009", "area_name": "Trafford" }, "geometry": { "type": "Point", "coordinates": [ -2.384053850504749, 53.444459880893874 ] } },
{ "type": "Feature", "properties": { "access_type": "Pedestrian", "area_code": "E08000009", "area_name": "Trafford" }, "geometry": { "type": "Point", "coordinates": [ -2.383793925749516, 53.445237147478139 ] } },
{ "type": "Feature", "properties": { "access_type": "Motor Vehicle And Pedestrian", "area_code": "E08000009", "area_name": "Trafford" }, "geometry": { "type": "Point", "coordinates": [ -2.383596348788635, 53.445933675707224 ] } },
{ "type": "Feature", "properties": { "access_type": "Pedestrian", "area_code": "E08000009", "area_name": "Trafford" }, "geometry": { "type": "Point", "coordinates": [ -2.383572215936117, 53.444876610286393 ] } },
{ "type": "Feature", "properties": { "access_type": "Pedestrian", "area_code": "E08000009", "area_name": "Trafford" }, "geometry": { "type": "Point", "coordinates": [ -2.383363308511613, 53.444783620620136 ] } },
{ "type": "Feature", "properties": { "access_type": "Motor Vehicle And Pedestrian", "area_code": "E08000009", "area_name": "Trafford" }, "geometry": { "type": "Point", "coordinates": [ -2.383366206344919, 53.445690196136589 ] } },
{ "type": "Feature", "properties": { "access_type": "Pedestrian", "area_code": "E08000009", "area_name": "Trafford" }, "geometry": { "type": "Point", "coordinates": [ -2.383287241513769, 53.445632114007118 ] } },
{ "type": "Feature", "properties": { "access_type": "Motor Vehicle And Pedestrian", "area_code": "E08000009", "area_name": "Trafford" }, "geometry": { "type": "Point", "coordinates": [ -2.383060231344246, 53.445502059238109 ] } },
{ "type": "Feature", "properties": { "access_type": "Pedestrian", "area_code": "E08000009", "area_name": "Trafford" }, "geometry": { "type": "Point", "coordinates": [ -2.382140380823583, 53.442055651536741 ] } },
{ "type": "Feature", "properties": { "access_type": "Pedestrian", "area_code": "E08000009", "area_name": "Trafford" }, "geometry": { "type": "Point", "coordinates": [ -2.381382771609616, 53.441948503744214 ] } },
{ "type": "Feature", "properties": { "access_type": "Pedestrian", "area_code": "E08000009", "area_name": "Trafford" }, "geometry": { "type": "Point", "coordinates": [ -2.380782713589451, 53.441833028695825 ] } },
{ "type": "Feature", "properties": { "access_type": "Motor Vehicle And Pedestrian", "area_code": "E08000009", "area_name": "Trafford" }, "geometry": { "type": "Point", "coordinates": [ -2.376587509191899, 53.441772360135381 ] } },
{ "type": "Feature", "properties": { "access_type": "Pedestrian", "area_code": "E08000009", "area_name": "Trafford" }, "geometry": { "type": "Point", "coordinates": [ -2.374678764654307, 53.442014854648953 ] } },
{ "type": "Feature", "properties": { "access_type": "Motor Vehicle And Pedestrian", "area_code": "E08000009", "area_name": "Trafford" }, "geometry": { "type": "Point", "coordinates": [ -2.373289204078689, 53.446183870390399 ] } },
{ "type": "Feature", "properties": { "access_type": "Motor Vehicle And Pedestrian", "area_code": "E08000009", "area_name": "Trafford" }, "geometry": { "type": "Point", "coordinates": [ -2.373289201713136, 53.446183600741541 ] } },
{ "type": "Feature", "properties": { "access_type": "Pedestrian", "area_code": "E08000009", "area_name": "Trafford" }, "geometry": { "type": "Point", "coordinates": [ -2.371175063687694, 53.44608538589403 ] } },
{ "type": "Feature", "properties": { "access_type": "Motor Vehicle And Pedestrian", "area_code": "E08000009", "area_name": "Trafford" }, "geometry": { "type": "Point", "coordinates": [ -2.371091551118978, 53.444727117149007 ] } },
{ "type": "Feature", "properties": { "access_type": "Motor Vehicle And Pedestrian", "area_code": "E08000009", "area_name": "Trafford" }, "geometry": { "type": "Point", "coordinates": [ -2.370355816739349, 53.444973260981342 ] } },
{ "type": "Feature", "properties": { "access_type": "Motor Vehicle And Pedestrian", "area_code": "E08000009", "area_name": "Trafford" }, "geometry": { "type": "Point", "coordinates": [ -2.3691547893673, 53.432125867384855 ] } },
{ "type": "Feature", "properties": { "access_type": "Motor Vehicle And Pedestrian", "area_code": "E08000009", "area_name": "Trafford" }, "geometry": { "type": "Point", "coordinates": [ -2.367473817321132, 53.431596234597386 ] } },
{ "type": "Feature", "properties": { "access_type": "Pedestrian", "area_code": "E08000009", "area_name": "Trafford" }, "geometry": { "type": "Point", "coordinates": [ -2.360516749372271, 53.425191793565489 ] } },
{ "type": "Feature", "properties": { "access_type": "Pedestrian", "area_code": "E08000009", "area_name": "Trafford" }, "geometry": { "type": "Point", "coordinates": [ -2.359907602179241, 53.426298686613947 ] } },
{ "type": "Feature", "properties": { "access_type": "Pedestrian", "area_code": "E08000009", "area_name": "Trafford" }, "geometry": { "type": "Point", "coordinates": [ -2.358881834822207, 53.426492782297572 ] } },
{ "type": "Feature", "properties": { "access_type": "Pedestrian", "area_code": "E08000009", "area_name": "Trafford" }, "geometry": { "type": "Point", "coordinates": [ -2.35846079758802, 53.426711930376435 ] } },
{ "type": "Feature", "properties": { "access_type": "Pedestrian", "area_code": "E08000009", "area_name": "Trafford" }, "geometry": { "type": "Point", "coordinates": [ -2.358437422164616, 53.427921771729011 ] } },
{ "type": "Feature", "properties": { "access_type": "Pedestrian", "area_code": "E08000009", "area_name": "Trafford" }, "geometry": { "type": "Point", "coordinates": [ -2.358332716926429, 53.426191966775548 ] } },
{ "type": "Feature", "properties": { "access_type": "Motor Vehicle And Pedestrian", "area_code": "E08000009", "area_name": "Trafford" }, "geometry": { "type": "Point", "coordinates": [ -2.355138199501748, 53.433096460559248 ] } },
{ "type": "Feature", "properties": { "access_type": "Pedestrian", "area_code": "E08000009", "area_name": "Trafford" }, "geometry": { "type": "Point", "coordinates": [ -2.354858656728948, 53.425219176322614 ] } },
{ "type": "Feature", "properties": { "access_type": "Motor Vehicle And Pedestrian", "area_code": "E08000009", "area_name": "Trafford" }, "geometry": { "type": "Point", "coordinates": [ -2.354601367976056, 53.440348671295034 ] } },
{ "type": "Feature", "properties": { "access_type": "Motor Vehicle And Pedestrian", "area_code": "E08000009", "area_name": "Trafford" }, "geometry": { "type": "Point", "coordinates": [ -2.353854666741729, 53.432596733449294 ] } },
{ "type": "Feature", "properties": { "access_type": "Pedestrian", "area_code": "E08000009", "area_name": "Trafford" }, "geometry": { "type": "Point", "coordinates": [ -2.353708836734894, 53.432816216798415 ] } },
{ "type": "Feature", "properties": { "access_type": "Motor Vehicle And Pedestrian", "area_code": "E08000009", "area_name": "Trafford" }, "geometry": { "type": "Point", "coordinates": [ -2.353058050821158, 53.430370648868511 ] } },
{ "type": "Feature", "properties": { "access_type": "Pedestrian", "area_code": "E08000009", "area_name": "Trafford" }, "geometry": { "type": "Point", "coordinates": [ -2.352872136475895, 53.430202393466686 ] } },
{ "type": "Feature", "properties": { "access_type": "Motor Vehicle And Pedestrian", "area_code": "E08000009", "area_name": "Trafford" }, "geometry": { "type": "Point", "coordinates": [ -2.352851260208519, 53.442773123526159 ] } },
{ "type": "Feature", "properties": { "access_type": "Pedestrian", "area_code": "E08000009", "area_name": "Trafford" }, "geometry": { "type": "Point", "coordinates": [ -2.352679566721775, 53.445907574924505 ] } },
{ "type": "Feature", "properties": { "access_type": "Motor Vehicle And Pedestrian", "area_code": "E08000009", "area_name": "Trafford" }, "geometry": { "type": "Point", "coordinates": [ -2.352482782160811, 53.426094152426188 ] } },
{ "type": "Feature", "properties": { "access_type": "Motor Vehicle And Pedestrian", "area_code": "E08000009", "area_name": "Trafford" }, "geometry": { "type": "Point", "coordinates": [ -2.352509874452028, 53.43007555665595 ] } },
{ "type": "Feature", "properties": { "access_type": "Motor Vehicle And Pedestrian", "area_code": "E08000009", "area_name": "Trafford" }, "geometry": { "type": "Point", "coordinates": [ -2.352272999907215, 53.430005156461185 ] } },
{ "type": "Feature", "properties": { "access_type": "Pedestrian", "area_code": "E08000009", "area_name": "Trafford" }, "geometry": { "type": "Point", "coordinates": [ -2.352382093928414, 53.445929935947476 ] } },
{ "type": "Feature", "properties": { "access_type": "Pedestrian", "area_code": "E08000009", "area_name": "Trafford" }, "geometry": { "type": "Point", "coordinates": [ -2.352247853792163, 53.445828042561246 ] } },
{ "type": "Feature", "properties": { "access_type": "Pedestrian", "area_code": "E08000009", "area_name": "Trafford" }, "geometry": { "type": "Point", "coordinates": [ -2.35222528620513, 53.445811839895043 ] } },
{ "type": "Feature", "properties": { "access_type": "Pedestrian", "area_code": "E08000009", "area_name": "Trafford" }, "geometry": { "type": "Point", "coordinates": [ -2.351950994608634, 53.43052384742159 ] } },
{ "type": "Feature", "properties": { "access_type": "Pedestrian", "area_code": "E08000009", "area_name": "Trafford" }, "geometry": { "type": "Point", "coordinates": [ -2.350847634267264, 53.44513294752926 ] } },
{ "type": "Feature", "properties": { "access_type": "Motor Vehicle And Pedestrian", "area_code": "E08000009", "area_name": "Trafford" }, "geometry": { "type": "Point", "coordinates": [ -2.35048656747482, 53.445366990997364 ] } },
{ "type": "Feature", "properties": { "access_type": "Pedestrian", "area_code": "E08000009", "area_name": "Trafford" }, "geometry": { "type": "Point", "coordinates": [ -2.346777322205523, 53.44489459949105 ] } },
{ "type": "Feature", "properties": { "access_type": "Pedestrian", "area_code": "E08000009", "area_name": "Trafford" }, "geometry": { "type": "Point", "coordinates": [ -2.346512385630558, 53.428314372099194 ] } },
{ "type": "Feature", "properties": { "access_type": "Pedestrian", "area_code": "E08000009", "area_name": "Trafford" }, "geometry": { "type": "Point", "coordinates": [ -2.345149055483275, 53.426684740884596 ] } },
{ "type": "Feature", "properties": { "access_type": "Pedestrian", "area_code": "E08000009", "area_name": "Trafford" }, "geometry": { "type": "Point", "coordinates": [ -2.344995286880632, 53.432632375711805 ] } },
{ "type": "Feature", "properties": { "access_type": "Pedestrian", "area_code": "E08000009", "area_name": "Trafford" }, "geometry": { "type": "Point", "coordinates": [ -2.344994684840817, 53.432632377451867 ] } },
{ "type": "Feature", "properties": { "access_type": "Motor Vehicle And Pedestrian", "area_code": "E08000009", "area_name": "Trafford" }, "geometry": { "type": "Point", "coordinates": [ -2.344596407155727, 53.433950171242294 ] } },
{ "type": "Feature", "properties": { "access_type": "Motor Vehicle And Pedestrian", "area_code": "E08000009", "area_name": "Trafford" }, "geometry": { "type": "Point", "coordinates": [ -2.3444992793165, 53.434353947710036 ] } },
{ "type": "Feature", "properties": { "access_type": "Motor Vehicle And Pedestrian", "area_code": "E08000009", "area_name": "Trafford" }, "geometry": { "type": "Point", "coordinates": [ -2.344452563704728, 53.433863577228337 ] } },
{ "type": "Feature", "properties": { "access_type": "Pedestrian", "area_code": "E08000009", "area_name": "Trafford" }, "geometry": { "type": "Point", "coordinates": [ -2.344373017630321, 53.426132927394441 ] } },
{ "type": "Feature", "properties": { "access_type": "Pedestrian", "area_code": "E08000009", "area_name": "Trafford" }, "geometry": { "type": "Point", "coordinates": [ -2.344397632979207, 53.43356693371414 ] } },
{ "type": "Feature", "properties": { "access_type": "Pedestrian", "area_code": "E08000009", "area_name": "Trafford" }, "geometry": { "type": "Point", "coordinates": [ -2.34420635829886, 53.432751864078924 ] } },
{ "type": "Feature", "properties": { "access_type": "Pedestrian", "area_code": "E08000009", "area_name": "Trafford" }, "geometry": { "type": "Point", "coordinates": [ -2.34395502147538, 53.426625537477904 ] } },
{ "type": "Feature", "properties": { "access_type": "Pedestrian", "area_code": "E08000009", "area_name": "Trafford" }, "geometry": { "type": "Point", "coordinates": [ -2.343625926381426, 53.433081259116442 ] } },
{ "type": "Feature", "properties": { "access_type": "Pedestrian", "area_code": "E08000009", "area_name": "Trafford" }, "geometry": { "type": "Point", "coordinates": [ -2.343488006070631, 53.425091096265604 ] } },
{ "type": "Feature", "properties": { "access_type": "Motor Vehicle And Pedestrian", "area_code": "E08000009", "area_name": "Trafford" }, "geometry": { "type": "Point", "coordinates": [ -2.340648039126638, 53.423344218080089 ] } },
{ "type": "Feature", "properties": { "access_type": "Pedestrian", "area_code": "E08000009", "area_name": "Trafford" }, "geometry": { "type": "Point", "coordinates": [ -2.308970312565292, 53.423232412931448 ] } },
{ "type": "Feature", "properties": { "access_type": "Pedestrian", "area_code": "E08000009", "area_name": "Trafford" }, "geometry": { "type": "Point", "coordinates": [ -2.30861944600346, 53.423675737672106 ] } },
{ "type": "Feature", "properties": { "access_type": "Pedestrian", "area_code": "E08000009", "area_name": "Trafford" }, "geometry": { "type": "Point", "coordinates": [ -2.30818012085936, 53.425412653267571 ] } },
{ "type": "Feature", "properties": { "access_type": "Pedestrian", "area_code": "E08000009", "area_name": "Trafford" }, "geometry": { "type": "Point", "coordinates": [ -2.306730599769934, 53.425158865415263 ] } },
{ "type": "Feature", "properties": { "access_type": "Motor Vehicle And Pedestrian", "area_code": "E08000009", "area_name": "Trafford" }, "geometry": { "type": "Point", "coordinates": [ -2.306277861502395, 53.440460598064504 ] } },
{ "type": "Feature", "properties": { "access_type": "Pedestrian", "area_code": "E08000009", "area_name": "Trafford" }, "geometry": { "type": "Point", "coordinates": [ -2.305506941547183, 53.425928008804966 ] } },
{ "type": "Feature", "properties": { "access_type": "Pedestrian", "area_code": "E08000009", "area_name": "Trafford" }, "geometry": { "type": "Point", "coordinates": [ -2.304846706978108, 53.426217151068521 ] } },
{ "type": "Feature", "properties": { "access_type": "Pedestrian", "area_code": "E08000009", "area_name": "Trafford" }, "geometry": { "type": "Point", "coordinates": [ -2.30479902645097, 53.427692114606501 ] } },
{ "type": "Feature", "properties": { "access_type": "Motor Vehicle And Pedestrian", "area_code": "E08000009", "area_name": "Trafford" }, "geometry": { "type": "Point", "coordinates": [ -2.304646200021374, 53.442970146782251 ] } },
{ "type": "Feature", "properties": { "access_type": "Pedestrian", "area_code": "E08000009", "area_name": "Trafford" }, "geometry": { "type": "Point", "coordinates": [ -2.304138079713069, 53.428749775723887 ] } },
{ "type": "Feature", "properties": { "access_type": "Motor Vehicle And Pedestrian", "area_code": "E08000009", "area_name": "Trafford" }, "geometry": { "type": "Point", "coordinates": [ -2.303953542769589, 53.440170277485741 ] } },
{ "type": "Feature", "properties": { "access_type": "Motor Vehicle And Pedestrian", "area_code": "E08000009", "area_name": "Trafford" }, "geometry": { "type": "Point", "coordinates": [ -2.303953241053167, 53.440170188368725 ] } },
{ "type": "Feature", "properties": { "access_type": "Pedestrian", "area_code": "E08000009", "area_name": "Trafford" }, "geometry": { "type": "Point", "coordinates": [ -2.303714373667117, 53.427877886693096 ] } },
{ "type": "Feature", "properties": { "access_type": "Pedestrian", "area_code": "E08000009", "area_name": "Trafford" }, "geometry": { "type": "Point", "coordinates": [ -2.30331236552081, 53.43995519499417 ] } },
{ "type": "Feature", "properties": { "access_type": "Pedestrian", "area_code": "E08000009", "area_name": "Trafford" }, "geometry": { "type": "Point", "coordinates": [ -2.303003346959664, 53.423848776935962 ] } },
{ "type": "Feature", "properties": { "access_type": "Pedestrian", "area_code": "E08000009", "area_name": "Trafford" }, "geometry": { "type": "Point", "coordinates": [ -2.302977045273463, 53.428252066560852 ] } },
{ "type": "Feature", "properties": { "access_type": "Pedestrian", "area_code": "E08000009", "area_name": "Trafford" }, "geometry": { "type": "Point", "coordinates": [ -2.302366459597853, 53.428143864857937 ] } },
{ "type": "Feature", "properties": { "access_type": "Pedestrian", "area_code": "E08000009", "area_name": "Trafford" }, "geometry": { "type": "Point", "coordinates": [ -2.301788135003229, 53.425240498137491 ] } },
{ "type": "Feature", "properties": { "access_type": "Pedestrian", "area_code": "E08000009", "area_name": "Trafford" }, "geometry": { "type": "Point", "coordinates": [ -2.300835859789245, 53.443002192252607 ] } },
{ "type": "Feature", "properties": { "access_type": "Pedestrian", "area_code": "E08000009", "area_name": "Trafford" }, "geometry": { "type": "Point", "coordinates": [ -2.296014753508826, 53.44498641796919 ] } },
{ "type": "Feature", "properties": { "access_type": "Pedestrian", "area_code": "E08000009", "area_name": "Trafford" }, "geometry": { "type": "Point", "coordinates": [ -2.295485219078216, 53.438782589508335 ] } },
{ "type": "Feature", "properties": { "access_type": "Pedestrian", "area_code": "E08000009", "area_name": "Trafford" }, "geometry": { "type": "Point", "coordinates": [ -2.295458153600165, 53.43872198391314 ] } },
{ "type": "Feature", "properties": { "access_type": "Motor Vehicle And Pedestrian", "area_code": "E08000009", "area_name": "Trafford" }, "geometry": { "type": "Point", "coordinates": [ -2.293415546598592, 53.443655882444624 ] } },
{ "type": "Feature", "properties": { "access_type": "Pedestrian", "area_code": "E08000009", "area_name": "Trafford" }, "geometry": { "type": "Point", "coordinates": [ -2.293334086428317, 53.444549541970936 ] } },
{ "type": "Feature", "properties": { "access_type": "Pedestrian", "area_code": "E08000009", "area_name": "Trafford" }, "geometry": { "type": "Point", "coordinates": [ -2.293005879408061, 53.446736176823819 ] } },
{ "type": "Feature", "properties": { "access_type": "Motor Vehicle And Pedestrian", "area_code": "E08000009", "area_name": "Trafford" }, "geometry": { "type": "Point", "coordinates": [ -2.290947881452734, 53.423756083375821 ] } },
{ "type": "Feature", "properties": { "access_type": "Pedestrian", "area_code": "E08000009", "area_name": "Trafford" }, "geometry": { "type": "Point", "coordinates": [ -2.290789326641022, 53.445882564299886 ] } },
{ "type": "Feature", "properties": { "access_type": "Pedestrian", "area_code": "E08000009", "area_name": "Trafford" }, "geometry": { "type": "Point", "coordinates": [ -2.290747844999099, 53.445981359307346 ] } },
{ "type": "Feature", "properties": { "access_type": "Motor Vehicle And Pedestrian", "area_code": "E08000009", "area_name": "Trafford" }, "geometry": { "type": "Point", "coordinates": [ -2.290543772280183, 53.445619349159848 ] } },
{ "type": "Feature", "properties": { "access_type": "Pedestrian", "area_code": "E08000009", "area_name": "Trafford" }, "geometry": { "type": "Point", "coordinates": [ -2.290092478083526, 53.424210469862508 ] } },
{ "type": "Feature", "properties": { "access_type": "Motor Vehicle And Pedestrian", "area_code": "E08000009", "area_name": "Trafford" }, "geometry": { "type": "Point", "coordinates": [ -2.290109137237268, 53.445314526929735 ] } },
{ "type": "Feature", "properties": { "access_type": "Pedestrian", "area_code": "E08000009", "area_name": "Trafford" }, "geometry": { "type": "Point", "coordinates": [ -2.34000191537239, 53.423141930111946 ] } },
{ "type": "Feature", "properties": { "access_type": "Pedestrian", "area_code": "E08000009", "area_name": "Trafford" }, "geometry": { "type": "Point", "coordinates": [ -2.311889067530852, 53.423279291417209 ] } },
{ "type": "Feature", "properties": { "access_type": "Pedestrian", "area_code": "E08000009", "area_name": "Trafford" }, "geometry": { "type": "Point", "coordinates": [ -2.309453925748061, 53.423393942712067 ] } },
{ "type": "Feature", "properties": { "access_type": "Pedestrian", "area_code": "E08000009", "area_name": "Trafford" }, "geometry": { "type": "Point", "coordinates": [ -2.310025383862459, 53.423467334254589 ] } },
{ "type": "Feature", "properties": { "access_type": "Motor Vehicle And Pedestrian", "area_code": "E08000009", "area_name": "Trafford" }, "geometry": { "type": "Point", "coordinates": [ -2.339438382648343, 53.423445819671471 ] } },
{ "type": "Feature", "properties": { "access_type": "Pedestrian", "area_code": "E08000009", "area_name": "Trafford" }, "geometry": { "type": "Point", "coordinates": [ -2.310232810156137, 53.424136982181878 ] } },
{ "type": "Feature", "properties": { "access_type": "Motor Vehicle And Pedestrian", "area_code": "E08000009", "area_name": "Trafford" }, "geometry": { "type": "Point", "coordinates": [ -2.315302737431312, 53.424176727804912 ] } },
{ "type": "Feature", "properties": { "access_type": "Motor Vehicle And Pedestrian", "area_code": "E08000009", "area_name": "Trafford" }, "geometry": { "type": "Point", "coordinates": [ -2.315374961811564, 53.424419497732934 ] } },
{ "type": "Feature", "properties": { "access_type": "Pedestrian", "area_code": "E08000009", "area_name": "Trafford" }, "geometry": { "type": "Point", "coordinates": [ -2.315520906950629, 53.424781710449842 ] } },
{ "type": "Feature", "properties": { "access_type": "Pedestrian", "area_code": "E08000009", "area_name": "Trafford" }, "geometry": { "type": "Point", "coordinates": [ -2.326356015045121, 53.424800212999145 ] } },
{ "type": "Feature", "properties": { "access_type": "Pedestrian", "area_code": "E08000009", "area_name": "Trafford" }, "geometry": { "type": "Point", "coordinates": [ -2.310140600861792, 53.424927136306479 ] } },
{ "type": "Feature", "properties": { "access_type": "Pedestrian", "area_code": "E08000009", "area_name": "Trafford" }, "geometry": { "type": "Point", "coordinates": [ -2.326175646416205, 53.425122856109539 ] } },
{ "type": "Feature", "properties": { "access_type": "Pedestrian", "area_code": "E08000009", "area_name": "Trafford" }, "geometry": { "type": "Point", "coordinates": [ -2.325920704870092, 53.425395905969154 ] } },
{ "type": "Feature", "properties": { "access_type": "Pedestrian", "area_code": "E08000009", "area_name": "Trafford" }, "geometry": { "type": "Point", "coordinates": [ -2.325900707380349, 53.425673437432785 ] } },
{ "type": "Feature", "properties": { "access_type": "Pedestrian", "area_code": "E08000009", "area_name": "Trafford" }, "geometry": { "type": "Point", "coordinates": [ -2.327342133430935, 53.4258357810983 ] } },
{ "type": "Feature", "properties": { "access_type": "Motor Vehicle And Pedestrian", "area_code": "E08000009", "area_name": "Trafford" }, "geometry": { "type": "Point", "coordinates": [ -2.327145961190252, 53.425942294100956 ] } },
{ "type": "Feature", "properties": { "access_type": "Pedestrian", "area_code": "E08000009", "area_name": "Trafford" }, "geometry": { "type": "Point", "coordinates": [ -2.317641036406107, 53.42783947664531 ] } },
{ "type": "Feature", "properties": { "access_type": "Motor Vehicle And Pedestrian", "area_code": "E08000009", "area_name": "Trafford" }, "geometry": { "type": "Point", "coordinates": [ -2.328292541443016, 53.427854877312633 ] } },
{ "type": "Feature", "properties": { "access_type": "Motor Vehicle And Pedestrian", "area_code": "E08000009", "area_name": "Trafford" }, "geometry": { "type": "Point", "coordinates": [ -2.328336512378498, 53.427897272234858 ] } },
{ "type": "Feature", "properties": { "access_type": "Pedestrian", "area_code": "E08000009", "area_name": "Trafford" }, "geometry": { "type": "Point", "coordinates": [ -2.317845506062868, 53.427973221297442 ] } },
{ "type": "Feature", "properties": { "access_type": "Pedestrian", "area_code": "E08000009", "area_name": "Trafford" }, "geometry": { "type": "Point", "coordinates": [ -2.329735536797575, 53.42817026295446 ] } },
{ "type": "Feature", "properties": { "access_type": "Motor Vehicle And Pedestrian", "area_code": "E08000009", "area_name": "Trafford" }, "geometry": { "type": "Point", "coordinates": [ -2.329899561039704, 53.428187337384884 ] } },
{ "type": "Feature", "properties": { "access_type": "Pedestrian", "area_code": "E08000009", "area_name": "Trafford" }, "geometry": { "type": "Point", "coordinates": [ -2.3105226046148, 53.428568305294959 ] } },
{ "type": "Feature", "properties": { "access_type": "Pedestrian", "area_code": "E08000009", "area_name": "Trafford" }, "geometry": { "type": "Point", "coordinates": [ -2.334180380834483, 53.429767571482181 ] } },
{ "type": "Feature", "properties": { "access_type": "Pedestrian", "area_code": "E08000009", "area_name": "Trafford" }, "geometry": { "type": "Point", "coordinates": [ -2.334375740029394, 53.429825809507065 ] } },
{ "type": "Feature", "properties": { "access_type": "Pedestrian", "area_code": "E08000009", "area_name": "Trafford" }, "geometry": { "type": "Point", "coordinates": [ -2.33431677429959, 53.429829839761787 ] } },
{ "type": "Feature", "properties": { "access_type": "Pedestrian", "area_code": "E08000009", "area_name": "Trafford" }, "geometry": { "type": "Point", "coordinates": [ -2.336187600939667, 53.42991465032204 ] } },
{ "type": "Feature", "properties": { "access_type": "Pedestrian", "area_code": "E08000009", "area_name": "Trafford" }, "geometry": { "type": "Point", "coordinates": [ -2.334633906438941, 53.429928274607938 ] } },
{ "type": "Feature", "properties": { "access_type": "Pedestrian", "area_code": "E08000009", "area_name": "Trafford" }, "geometry": { "type": "Point", "coordinates": [ -2.334961058096565, 53.4300566123854 ] } },
{ "type": "Feature", "properties": { "access_type": "Pedestrian", "area_code": "E08000009", "area_name": "Trafford" }, "geometry": { "type": "Point", "coordinates": [ -2.333718326564544, 53.430188809579214 ] } },
{ "type": "Feature", "properties": { "access_type": "Pedestrian", "area_code": "E08000009", "area_name": "Trafford" }, "geometry": { "type": "Point", "coordinates": [ -2.326424903720365, 53.430252753189265 ] } },
{ "type": "Feature", "properties": { "access_type": "Pedestrian", "area_code": "E08000009", "area_name": "Trafford" }, "geometry": { "type": "Point", "coordinates": [ -2.331494354998157, 53.410978524628291 ] } },
{ "type": "Feature", "properties": { "access_type": "Motor Vehicle And Pedestrian", "area_code": "E08000009", "area_name": "Trafford" }, "geometry": { "type": "Point", "coordinates": [ -2.354603888675165, 53.411340129391505 ] } },
{ "type": "Feature", "properties": { "access_type": "Pedestrian", "area_code": "E08000009", "area_name": "Trafford" }, "geometry": { "type": "Point", "coordinates": [ -2.331212475033657, 53.413498986564811 ] } },
{ "type": "Feature", "properties": { "access_type": "Pedestrian", "area_code": "E08000009", "area_name": "Trafford" }, "geometry": { "type": "Point", "coordinates": [ -2.33131943054431, 53.413806997947532 ] } },
{ "type": "Feature", "properties": { "access_type": "Pedestrian", "area_code": "E08000009", "area_name": "Trafford" }, "geometry": { "type": "Point", "coordinates": [ -2.331522297896578, 53.413815333238219 ] } },
{ "type": "Feature", "properties": { "access_type": "Pedestrian", "area_code": "E08000009", "area_name": "Trafford" }, "geometry": { "type": "Point", "coordinates": [ -2.333097624498476, 53.414007257096792 ] } },
{ "type": "Feature", "properties": { "access_type": "Pedestrian", "area_code": "E08000009", "area_name": "Trafford" }, "geometry": { "type": "Point", "coordinates": [ -2.329597824494868, 53.414229374681994 ] } },
{ "type": "Feature", "properties": { "access_type": "Motor Vehicle And Pedestrian", "area_code": "E08000009", "area_name": "Trafford" }, "geometry": { "type": "Point", "coordinates": [ -2.342196522358433, 53.414340966728346 ] } },
{ "type": "Feature", "properties": { "access_type": "Pedestrian", "area_code": "E08000009", "area_name": "Trafford" }, "geometry": { "type": "Point", "coordinates": [ -2.342087204030665, 53.414441862364505 ] } },
{ "type": "Feature", "properties": { "access_type": "Pedestrian", "area_code": "E08000009", "area_name": "Trafford" }, "geometry": { "type": "Point", "coordinates": [ -2.341936873975619, 53.414587908204524 ] } },
{ "type": "Feature", "properties": { "access_type": "Pedestrian", "area_code": "E08000009", "area_name": "Trafford" }, "geometry": { "type": "Point", "coordinates": [ -2.341697400289872, 53.414818252350983 ] } },
{ "type": "Feature", "properties": { "access_type": "Motor Vehicle And Pedestrian", "area_code": "E08000009", "area_name": "Trafford" }, "geometry": { "type": "Point", "coordinates": [ -2.340973130465829, 53.41485573890234 ] } },
{ "type": "Feature", "properties": { "access_type": "Pedestrian", "area_code": "E08000009", "area_name": "Trafford" }, "geometry": { "type": "Point", "coordinates": [ -2.330102055326259, 53.415210162858052 ] } },
{ "type": "Feature", "properties": { "access_type": "Motor Vehicle And Pedestrian", "area_code": "E08000009", "area_name": "Trafford" }, "geometry": { "type": "Point", "coordinates": [ -2.330514304574151, 53.415657551797203 ] } },
{ "type": "Feature", "properties": { "access_type": "Motor Vehicle And Pedestrian", "area_code": "E08000009", "area_name": "Trafford" }, "geometry": { "type": "Point", "coordinates": [ -2.330824571771796, 53.416359059417701 ] } },
{ "type": "Feature", "properties": { "access_type": "Pedestrian", "area_code": "E08000009", "area_name": "Trafford" }, "geometry": { "type": "Point", "coordinates": [ -2.358198790763746, 53.417104739767467 ] } },
{ "type": "Feature", "properties": { "access_type": "Motor Vehicle And Pedestrian", "area_code": "E08000009", "area_name": "Trafford" }, "geometry": { "type": "Point", "coordinates": [ -2.329770909976227, 53.41728941676876 ] } },
{ "type": "Feature", "properties": { "access_type": "Pedestrian", "area_code": "E08000009", "area_name": "Trafford" }, "geometry": { "type": "Point", "coordinates": [ -2.356826159446763, 53.417572123038809 ] } },
{ "type": "Feature", "properties": { "access_type": "Pedestrian", "area_code": "E08000009", "area_name": "Trafford" }, "geometry": { "type": "Point", "coordinates": [ -2.355765933688492, 53.417634343171962 ] } },
{ "type": "Feature", "properties": { "access_type": "Pedestrian", "area_code": "E08000009", "area_name": "Trafford" }, "geometry": { "type": "Point", "coordinates": [ -2.357525924721207, 53.417820001257013 ] } },
{ "type": "Feature", "properties": { "access_type": "Pedestrian", "area_code": "E08000009", "area_name": "Trafford" }, "geometry": { "type": "Point", "coordinates": [ -2.355566081754496, 53.417917899246682 ] } },
{ "type": "Feature", "properties": { "access_type": "Pedestrian", "area_code": "E08000009", "area_name": "Trafford" }, "geometry": { "type": "Point", "coordinates": [ -2.356140739975626, 53.417959331002045 ] } },
{ "type": "Feature", "properties": { "access_type": "Pedestrian", "area_code": "E08000009", "area_name": "Trafford" }, "geometry": { "type": "Point", "coordinates": [ -2.355950136321615, 53.417999089829117 ] } },
{ "type": "Feature", "properties": { "access_type": "Pedestrian", "area_code": "E08000009", "area_name": "Trafford" }, "geometry": { "type": "Point", "coordinates": [ -2.356214578849494, 53.418170701807526 ] } },
{ "type": "Feature", "properties": { "access_type": "Pedestrian", "area_code": "E08000009", "area_name": "Trafford" }, "geometry": { "type": "Point", "coordinates": [ -2.356308442580366, 53.418329609361912 ] } },
{ "type": "Feature", "properties": { "access_type": "Pedestrian", "area_code": "E08000009", "area_name": "Trafford" }, "geometry": { "type": "Point", "coordinates": [ -2.342663601798594, 53.418653245267208 ] } },
{ "type": "Feature", "properties": { "access_type": "Pedestrian", "area_code": "E08000009", "area_name": "Trafford" }, "geometry": { "type": "Point", "coordinates": [ -2.337624756561722, 53.419152629865835 ] } },
{ "type": "Feature", "properties": { "access_type": "Pedestrian", "area_code": "E08000009", "area_name": "Trafford" }, "geometry": { "type": "Point", "coordinates": [ -2.353217282812409, 53.419648343701326 ] } },
{ "type": "Feature", "properties": { "access_type": "Pedestrian", "area_code": "E08000009", "area_name": "Trafford" }, "geometry": { "type": "Point", "coordinates": [ -2.333962345968273, 53.421446031466971 ] } },
{ "type": "Feature", "properties": { "access_type": "Pedestrian", "area_code": "E08000009", "area_name": "Trafford" }, "geometry": { "type": "Point", "coordinates": [ -2.353551767858804, 53.422058538506057 ] } },
{ "type": "Feature", "properties": { "access_type": "Motor Vehicle And Pedestrian", "area_code": "E08000009", "area_name": "Trafford" }, "geometry": { "type": "Point", "coordinates": [ -2.354138857742499, 53.422267490109732 ] } },
{ "type": "Feature", "properties": { "access_type": "Pedestrian", "area_code": "E08000009", "area_name": "Trafford" }, "geometry": { "type": "Point", "coordinates": [ -2.282537085369507, 53.418031886297932 ] } },
{ "type": "Feature", "properties": { "access_type": "Motor Vehicle And Pedestrian", "area_code": "E08000009", "area_name": "Trafford" }, "geometry": { "type": "Point", "coordinates": [ -2.281884674735302, 53.41880338936825 ] } },
{ "type": "Feature", "properties": { "access_type": "Pedestrian", "area_code": "E08000009", "area_name": "Trafford" }, "geometry": { "type": "Point", "coordinates": [ -2.281710293167522, 53.41903184094047 ] } },
{ "type": "Feature", "properties": { "access_type": "Pedestrian", "area_code": "E08000009", "area_name": "Trafford" }, "geometry": { "type": "Point", "coordinates": [ -2.329369279262394, 53.414947473960751 ] } },
{ "type": "Feature", "properties": { "access_type": "Pedestrian", "area_code": "E08000009", "area_name": "Trafford" }, "geometry": { "type": "Point", "coordinates": [ -2.329172333264382, 53.414790986922299 ] } },
{ "type": "Feature", "properties": { "access_type": "Pedestrian", "area_code": "E08000009", "area_name": "Trafford" }, "geometry": { "type": "Point", "coordinates": [ -2.328923382359135, 53.418868710847448 ] } },
{ "type": "Feature", "properties": { "access_type": "Motor Vehicle And Pedestrian", "area_code": "E08000009", "area_name": "Trafford" }, "geometry": { "type": "Point", "coordinates": [ -2.328218022117167, 53.418012064475533 ] } },
{ "type": "Feature", "properties": { "access_type": "Motor Vehicle And Pedestrian", "area_code": "E08000009", "area_name": "Trafford" }, "geometry": { "type": "Point", "coordinates": [ -2.328042348342893, 53.418176858591991 ] } },
{ "type": "Feature", "properties": { "access_type": "Pedestrian", "area_code": "E08000009", "area_name": "Trafford" }, "geometry": { "type": "Point", "coordinates": [ -2.327504121047486, 53.414769060469759 ] } },
{ "type": "Feature", "properties": { "access_type": "Pedestrian", "area_code": "E08000009", "area_name": "Trafford" }, "geometry": { "type": "Point", "coordinates": [ -2.326973481687523, 53.414670922132252 ] } },
{ "type": "Feature", "properties": { "access_type": "Pedestrian", "area_code": "E08000009", "area_name": "Trafford" }, "geometry": { "type": "Point", "coordinates": [ -2.326639110249979, 53.417643730252884 ] } },
{ "type": "Feature", "properties": { "access_type": "Pedestrian", "area_code": "E08000009", "area_name": "Trafford" }, "geometry": { "type": "Point", "coordinates": [ -2.325089882005777, 53.421870340710811 ] } },
{ "type": "Feature", "properties": { "access_type": "Pedestrian", "area_code": "E08000009", "area_name": "Trafford" }, "geometry": { "type": "Point", "coordinates": [ -2.324849583814275, 53.421536440611092 ] } },
{ "type": "Feature", "properties": { "access_type": "Pedestrian", "area_code": "E08000009", "area_name": "Trafford" }, "geometry": { "type": "Point", "coordinates": [ -2.324643848589614, 53.417011345619073 ] } },
{ "type": "Feature", "properties": { "access_type": "Motor Vehicle And Pedestrian", "area_code": "E08000009", "area_name": "Trafford" }, "geometry": { "type": "Point", "coordinates": [ -2.323581684611299, 53.401749996639772 ] } },
{ "type": "Feature", "properties": { "access_type": "Motor Vehicle And Pedestrian", "area_code": "E08000009", "area_name": "Trafford" }, "geometry": { "type": "Point", "coordinates": [ -2.32349613746031, 53.402091166026253 ] } },
{ "type": "Feature", "properties": { "access_type": "Pedestrian", "area_code": "E08000009", "area_name": "Trafford" }, "geometry": { "type": "Point", "coordinates": [ -2.323331354562697, 53.417500651301701 ] } },
{ "type": "Feature", "properties": { "access_type": "Pedestrian", "area_code": "E08000009", "area_name": "Trafford" }, "geometry": { "type": "Point", "coordinates": [ -2.322838192996338, 53.401704640708196 ] } },
{ "type": "Feature", "properties": { "access_type": "Pedestrian", "area_code": "E08000009", "area_name": "Trafford" }, "geometry": { "type": "Point", "coordinates": [ -2.322837741792946, 53.401704641929015 ] } },
{ "type": "Feature", "properties": { "access_type": "Pedestrian", "area_code": "E08000009", "area_name": "Trafford" }, "geometry": { "type": "Point", "coordinates": [ -2.322432841601098, 53.422732001730964 ] } },
{ "type": "Feature", "properties": { "access_type": "Motor Vehicle And Pedestrian", "area_code": "E08000009", "area_name": "Trafford" }, "geometry": { "type": "Point", "coordinates": [ -2.322193286495573, 53.422931745372289 ] } },
{ "type": "Feature", "properties": { "access_type": "Pedestrian", "area_code": "E08000009", "area_name": "Trafford" }, "geometry": { "type": "Point", "coordinates": [ -2.321821759780862, 53.422315323358326 ] } },
{ "type": "Feature", "properties": { "access_type": "Motor Vehicle And Pedestrian", "area_code": "E08000009", "area_name": "Trafford" }, "geometry": { "type": "Point", "coordinates": [ -2.320252002823452, 53.403207042448138 ] } },
{ "type": "Feature", "properties": { "access_type": "Pedestrian", "area_code": "E08000009", "area_name": "Trafford" }, "geometry": { "type": "Point", "coordinates": [ -2.320215701525957, 53.404080741121341 ] } },
{ "type": "Feature", "properties": { "access_type": "Motor Vehicle And Pedestrian", "area_code": "E08000009", "area_name": "Trafford" }, "geometry": { "type": "Point", "coordinates": [ -2.319434722529845, 53.404978727246288 ] } },
{ "type": "Feature", "properties": { "access_type": "Motor Vehicle And Pedestrian", "area_code": "E08000009", "area_name": "Trafford" }, "geometry": { "type": "Point", "coordinates": [ -2.319194336507703, 53.405457743259483 ] } },
{ "type": "Feature", "properties": { "access_type": "Pedestrian", "area_code": "E08000009", "area_name": "Trafford" }, "geometry": { "type": "Point", "coordinates": [ -2.319041015877833, 53.408886849536415 ] } },
{ "type": "Feature", "properties": { "access_type": "Motor Vehicle And Pedestrian", "area_code": "E08000009", "area_name": "Trafford" }, "geometry": { "type": "Point", "coordinates": [ -2.318678362444366, 53.414723114323486 ] } },
{ "type": "Feature", "properties": { "access_type": "Pedestrian", "area_code": "E08000009", "area_name": "Trafford" }, "geometry": { "type": "Point", "coordinates": [ -2.318443825573627, 53.403273543616862 ] } },
{ "type": "Feature", "properties": { "access_type": "Pedestrian", "area_code": "E08000009", "area_name": "Trafford" }, "geometry": { "type": "Point", "coordinates": [ -2.318218209677366, 53.409516989030578 ] } },
{ "type": "Feature", "properties": { "access_type": "Motor Vehicle And Pedestrian", "area_code": "E08000009", "area_name": "Trafford" }, "geometry": { "type": "Point", "coordinates": [ -2.318108152761332, 53.409404026336105 ] } },
{ "type": "Feature", "properties": { "access_type": "Pedestrian", "area_code": "E08000009", "area_name": "Trafford" }, "geometry": { "type": "Point", "coordinates": [ -2.317754135199592, 53.414318126777296 ] } },
{ "type": "Feature", "properties": { "access_type": "Pedestrian", "area_code": "E08000009", "area_name": "Trafford" }, "geometry": { "type": "Point", "coordinates": [ -2.317525571299732, 53.404363160835373 ] } },
{ "type": "Feature", "properties": { "access_type": "Pedestrian", "area_code": "E08000009", "area_name": "Trafford" }, "geometry": { "type": "Point", "coordinates": [ -2.317537172123227, 53.415869952386686 ] } },
{ "type": "Feature", "properties": { "access_type": "Pedestrian", "area_code": "E08000009", "area_name": "Trafford" }, "geometry": { "type": "Point", "coordinates": [ -2.349849495059599, 53.401307428757178 ] } },
{ "type": "Feature", "properties": { "access_type": "Pedestrian", "area_code": "E08000009", "area_name": "Trafford" }, "geometry": { "type": "Point", "coordinates": [ -2.3460824786383, 53.402026715654607 ] } },
{ "type": "Feature", "properties": { "access_type": "Pedestrian", "area_code": "E08000009", "area_name": "Trafford" }, "geometry": { "type": "Point", "coordinates": [ -2.349801991145459, 53.402153215758794 ] } },
{ "type": "Feature", "properties": { "access_type": "Pedestrian", "area_code": "E08000009", "area_name": "Trafford" }, "geometry": { "type": "Point", "coordinates": [ -2.331849820081565, 53.402227053986067 ] } },
{ "type": "Feature", "properties": { "access_type": "Motor Vehicle And Pedestrian", "area_code": "E08000009", "area_name": "Trafford" }, "geometry": { "type": "Point", "coordinates": [ -2.330926475854173, 53.402478692372036 ] } },
{ "type": "Feature", "properties": { "access_type": "Motor Vehicle And Pedestrian", "area_code": "E08000009", "area_name": "Trafford" }, "geometry": { "type": "Point", "coordinates": [ -2.352699840239669, 53.402477713356184 ] } },
{ "type": "Feature", "properties": { "access_type": "Pedestrian", "area_code": "E08000009", "area_name": "Trafford" }, "geometry": { "type": "Point", "coordinates": [ -2.351737960961235, 53.402565674597859 ] } },
{ "type": "Feature", "properties": { "access_type": "Motor Vehicle And Pedestrian", "area_code": "E08000009", "area_name": "Trafford" }, "geometry": { "type": "Point", "coordinates": [ -2.35210122252232, 53.402696466059275 ] } },
{ "type": "Feature", "properties": { "access_type": "Pedestrian", "area_code": "E08000009", "area_name": "Trafford" }, "geometry": { "type": "Point", "coordinates": [ -2.3481323617298, 53.404089748710973 ] } },
{ "type": "Feature", "properties": { "access_type": "Pedestrian", "area_code": "E08000009", "area_name": "Trafford" }, "geometry": { "type": "Point", "coordinates": [ -2.348812968763844, 53.404143580345981 ] } },
{ "type": "Feature", "properties": { "access_type": "Pedestrian", "area_code": "E08000009", "area_name": "Trafford" }, "geometry": { "type": "Point", "coordinates": [ -2.348151781388681, 53.404404742426578 ] } },
{ "type": "Feature", "properties": { "access_type": "Pedestrian", "area_code": "E08000009", "area_name": "Trafford" }, "geometry": { "type": "Point", "coordinates": [ -2.348312636537621, 53.404522832618667 ] } },
{ "type": "Feature", "properties": { "access_type": "Pedestrian", "area_code": "E08000009", "area_name": "Trafford" }, "geometry": { "type": "Point", "coordinates": [ -2.331473156848607, 53.404696189377759 ] } },
{ "type": "Feature", "properties": { "access_type": "Pedestrian", "area_code": "E08000009", "area_name": "Trafford" }, "geometry": { "type": "Point", "coordinates": [ -2.331469429421565, 53.404700424370965 ] } },
{ "type": "Feature", "properties": { "access_type": "Pedestrian", "area_code": "E08000009", "area_name": "Trafford" }, "geometry": { "type": "Point", "coordinates": [ -2.340351486351338, 53.406478263149801 ] } },
{ "type": "Feature", "properties": { "access_type": "Pedestrian", "area_code": "E08000009", "area_name": "Trafford" }, "geometry": { "type": "Point", "coordinates": [ -2.340192538308023, 53.406559523844621 ] } },
{ "type": "Feature", "properties": { "access_type": "Pedestrian", "area_code": "E08000009", "area_name": "Trafford" }, "geometry": { "type": "Point", "coordinates": [ -2.342002709599684, 53.406615741659877 ] } },
{ "type": "Feature", "properties": { "access_type": "Pedestrian", "area_code": "E08000009", "area_name": "Trafford" }, "geometry": { "type": "Point", "coordinates": [ -2.341405212306964, 53.40668801306019 ] } },
{ "type": "Feature", "properties": { "access_type": "Pedestrian", "area_code": "E08000009", "area_name": "Trafford" }, "geometry": { "type": "Point", "coordinates": [ -2.341807619781938, 53.406935395677394 ] } },
{ "type": "Feature", "properties": { "access_type": "Pedestrian", "area_code": "E08000009", "area_name": "Trafford" }, "geometry": { "type": "Point", "coordinates": [ -2.339768203487751, 53.407144811530564 ] } },
{ "type": "Feature", "properties": { "access_type": "Pedestrian", "area_code": "E08000009", "area_name": "Trafford" }, "geometry": { "type": "Point", "coordinates": [ -2.342868770979614, 53.407224390798198 ] } },
{ "type": "Feature", "properties": { "access_type": "Motor Vehicle And Pedestrian", "area_code": "E08000009", "area_name": "Trafford" }, "geometry": { "type": "Point", "coordinates": [ -2.333111051868369, 53.40760519025676 ] } },
{ "type": "Feature", "properties": { "access_type": "Pedestrian", "area_code": "E08000009", "area_name": "Trafford" }, "geometry": { "type": "Point", "coordinates": [ -2.332566695684159, 53.408707810668595 ] } },
{ "type": "Feature", "properties": { "access_type": "Motor Vehicle And Pedestrian", "area_code": "E08000009", "area_name": "Trafford" }, "geometry": { "type": "Point", "coordinates": [ -2.332971721695428, 53.408716928186486 ] } },
{ "type": "Feature", "properties": { "access_type": "Pedestrian", "area_code": "E08000009", "area_name": "Trafford" }, "geometry": { "type": "Point", "coordinates": [ -2.330649093579696, 53.408968325500979 ] } },
{ "type": "Feature", "properties": { "access_type": "Pedestrian", "area_code": "E08000009", "area_name": "Trafford" }, "geometry": { "type": "Point", "coordinates": [ -2.354987553335882, 53.408926360944314 ] } },
{ "type": "Feature", "properties": { "access_type": "Pedestrian", "area_code": "E08000009", "area_name": "Trafford" }, "geometry": { "type": "Point", "coordinates": [ -2.355007006982276, 53.408932145659875 ] } },
{ "type": "Feature", "properties": { "access_type": "Pedestrian", "area_code": "E08000009", "area_name": "Trafford" }, "geometry": { "type": "Point", "coordinates": [ -2.354863062793021, 53.409295443279539 ] } },
{ "type": "Feature", "properties": { "access_type": "Pedestrian", "area_code": "E08000009", "area_name": "Trafford" }, "geometry": { "type": "Point", "coordinates": [ -2.354976632291216, 53.409691951863834 ] } },
{ "type": "Feature", "properties": { "access_type": "Pedestrian", "area_code": "E08000009", "area_name": "Trafford" }, "geometry": { "type": "Point", "coordinates": [ -2.331197286589605, 53.409784496940524 ] } },
{ "type": "Feature", "properties": { "access_type": "Pedestrian", "area_code": "E08000009", "area_name": "Trafford" }, "geometry": { "type": "Point", "coordinates": [ -2.352551046736407, 53.410435937085829 ] } },
{ "type": "Feature", "properties": { "access_type": "Pedestrian", "area_code": "E08000009", "area_name": "Trafford" }, "geometry": { "type": "Point", "coordinates": [ -2.313489875458503, 53.400955650457504 ] } },
{ "type": "Feature", "properties": { "access_type": "Pedestrian", "area_code": "E08000009", "area_name": "Trafford" }, "geometry": { "type": "Point", "coordinates": [ -2.312798079053685, 53.418193429860196 ] } },
{ "type": "Feature", "properties": { "access_type": "Pedestrian", "area_code": "E08000009", "area_name": "Trafford" }, "geometry": { "type": "Point", "coordinates": [ -2.311574566508134, 53.417685720382316 ] } },
{ "type": "Feature", "properties": { "access_type": "Pedestrian", "area_code": "E08000009", "area_name": "Trafford" }, "geometry": { "type": "Point", "coordinates": [ -2.311153198023429, 53.418272155342514 ] } },
{ "type": "Feature", "properties": { "access_type": "Motor Vehicle And Pedestrian", "area_code": "E08000009", "area_name": "Trafford" }, "geometry": { "type": "Point", "coordinates": [ -2.310878099075903, 53.417955665755862 ] } },
{ "type": "Feature", "properties": { "access_type": "Pedestrian", "area_code": "E08000009", "area_name": "Trafford" }, "geometry": { "type": "Point", "coordinates": [ -2.309926213321189, 53.420820460508907 ] } },
{ "type": "Feature", "properties": { "access_type": "Pedestrian", "area_code": "E08000009", "area_name": "Trafford" }, "geometry": { "type": "Point", "coordinates": [ -2.309841354148129, 53.421090247869358 ] } },
{ "type": "Feature", "properties": { "access_type": "Pedestrian", "area_code": "E08000009", "area_name": "Trafford" }, "geometry": { "type": "Point", "coordinates": [ -2.309443946704984, 53.421026831004056 ] } },
{ "type": "Feature", "properties": { "access_type": "Pedestrian", "area_code": "E08000009", "area_name": "Trafford" }, "geometry": { "type": "Point", "coordinates": [ -2.309326136479493, 53.420655279565871 ] } },
{ "type": "Feature", "properties": { "access_type": "Pedestrian", "area_code": "E08000009", "area_name": "Trafford" }, "geometry": { "type": "Point", "coordinates": [ -2.309187343115108, 53.42081293909677 ] } },
{ "type": "Feature", "properties": { "access_type": "Motor Vehicle And Pedestrian", "area_code": "E08000009", "area_name": "Trafford" }, "geometry": { "type": "Point", "coordinates": [ -2.308389844989338, 53.41661581415719 ] } },
{ "type": "Feature", "properties": { "access_type": "Pedestrian", "area_code": "E08000009", "area_name": "Trafford" }, "geometry": { "type": "Point", "coordinates": [ -2.30816826935289, 53.416185654307952 ] } },
{ "type": "Feature", "properties": { "access_type": "Motor Vehicle And Pedestrian", "area_code": "E08000009", "area_name": "Trafford" }, "geometry": { "type": "Point", "coordinates": [ -2.307898255399101, 53.416609263494415 ] } },
{ "type": "Feature", "properties": { "access_type": "Pedestrian", "area_code": "E08000009", "area_name": "Trafford" }, "geometry": { "type": "Point", "coordinates": [ -2.30604653415319, 53.415157519014848 ] } },
{ "type": "Feature", "properties": { "access_type": "Pedestrian", "area_code": "E08000009", "area_name": "Trafford" }, "geometry": { "type": "Point", "coordinates": [ -2.30529593975861, 53.416292181289528 ] } },
{ "type": "Feature", "properties": { "access_type": "Motor Vehicle And Pedestrian", "area_code": "E08000009", "area_name": "Trafford" }, "geometry": { "type": "Point", "coordinates": [ -2.304697739544887, 53.417450449042008 ] } },
{ "type": "Feature", "properties": { "access_type": "Pedestrian", "area_code": "E08000009", "area_name": "Trafford" }, "geometry": { "type": "Point", "coordinates": [ -2.304445854987146, 53.416753758843868 ] } },
{ "type": "Feature", "properties": { "access_type": "Motor Vehicle And Pedestrian", "area_code": "E08000009", "area_name": "Trafford" }, "geometry": { "type": "Point", "coordinates": [ -2.30433307909375, 53.414531173186845 ] } },
{ "type": "Feature", "properties": { "access_type": "Pedestrian", "area_code": "E08000009", "area_name": "Trafford" }, "geometry": { "type": "Point", "coordinates": [ -2.303948365638008, 53.416447707877801 ] } },
{ "type": "Feature", "properties": { "access_type": "Pedestrian", "area_code": "E08000009", "area_name": "Trafford" }, "geometry": { "type": "Point", "coordinates": [ -2.303797046051592, 53.416136819071852 ] } },
{ "type": "Feature", "properties": { "access_type": "Pedestrian", "area_code": "E08000009", "area_name": "Trafford" }, "geometry": { "type": "Point", "coordinates": [ -2.303034493263418, 53.419429022666066 ] } },
{ "type": "Feature", "properties": { "access_type": "Pedestrian", "area_code": "E08000009", "area_name": "Trafford" }, "geometry": { "type": "Point", "coordinates": [ -2.299311911710398, 53.412144733672619 ] } },
{ "type": "Feature", "properties": { "access_type": "Pedestrian", "area_code": "E08000009", "area_name": "Trafford" }, "geometry": { "type": "Point", "coordinates": [ -2.299306089208131, 53.412193915776804 ] } },
{ "type": "Feature", "properties": { "access_type": "Motor Vehicle And Pedestrian", "area_code": "E08000009", "area_name": "Trafford" }, "geometry": { "type": "Point", "coordinates": [ -2.298559756384752, 53.409661906040284 ] } },
{ "type": "Feature", "properties": { "access_type": "Pedestrian", "area_code": "E08000009", "area_name": "Trafford" }, "geometry": { "type": "Point", "coordinates": [ -2.296323881231872, 53.415608746262251 ] } },
{ "type": "Feature", "properties": { "access_type": "Pedestrian", "area_code": "E08000009", "area_name": "Trafford" }, "geometry": { "type": "Point", "coordinates": [ -2.296284411527432, 53.415060721368882 ] } },
{ "type": "Feature", "properties": { "access_type": "Pedestrian", "area_code": "E08000009", "area_name": "Trafford" }, "geometry": { "type": "Point", "coordinates": [ -2.291940002460166, 53.422328614785229 ] } },
{ "type": "Feature", "properties": { "access_type": "Pedestrian", "area_code": "E08000009", "area_name": "Trafford" }, "geometry": { "type": "Point", "coordinates": [ -2.376719617432933, 53.392597451082295 ] } },
{ "type": "Feature", "properties": { "access_type": "Pedestrian", "area_code": "E08000009", "area_name": "Trafford" }, "geometry": { "type": "Point", "coordinates": [ -2.376401998619402, 53.392627846249766 ] } },
{ "type": "Feature", "properties": { "access_type": "Pedestrian", "area_code": "E08000009", "area_name": "Trafford" }, "geometry": { "type": "Point", "coordinates": [ -2.369756178000904, 53.392146970847996 ] } },
{ "type": "Feature", "properties": { "access_type": "Pedestrian", "area_code": "E08000009", "area_name": "Trafford" }, "geometry": { "type": "Point", "coordinates": [ -2.369747516529003, 53.392448655860719 ] } },
{ "type": "Feature", "properties": { "access_type": "Pedestrian", "area_code": "E08000009", "area_name": "Trafford" }, "geometry": { "type": "Point", "coordinates": [ -2.366024160202956, 53.393149203488051 ] } },
{ "type": "Feature", "properties": { "access_type": "Pedestrian", "area_code": "E08000009", "area_name": "Trafford" }, "geometry": { "type": "Point", "coordinates": [ -2.365913116217684, 53.393001141956574 ] } },
{ "type": "Feature", "properties": { "access_type": "Pedestrian", "area_code": "E08000009", "area_name": "Trafford" }, "geometry": { "type": "Point", "coordinates": [ -2.365911673324566, 53.393183435599369 ] } },
{ "type": "Feature", "properties": { "access_type": "Pedestrian", "area_code": "E08000009", "area_name": "Trafford" }, "geometry": { "type": "Point", "coordinates": [ -2.365879619786497, 53.392374647918167 ] } },
{ "type": "Feature", "properties": { "access_type": "Pedestrian", "area_code": "E08000009", "area_name": "Trafford" }, "geometry": { "type": "Point", "coordinates": [ -2.365811205815527, 53.393163878807776 ] } },
{ "type": "Feature", "properties": { "access_type": "Pedestrian", "area_code": "E08000009", "area_name": "Trafford" }, "geometry": { "type": "Point", "coordinates": [ -2.365801438541405, 53.393024495253229 ] } },
{ "type": "Feature", "properties": { "access_type": "Pedestrian", "area_code": "E08000009", "area_name": "Trafford" }, "geometry": { "type": "Point", "coordinates": [ -2.365606573420673, 53.392290272754082 ] } },
{ "type": "Feature", "properties": { "access_type": "Pedestrian", "area_code": "E08000009", "area_name": "Trafford" }, "geometry": { "type": "Point", "coordinates": [ -2.364886607223721, 53.402815176459541 ] } },
{ "type": "Feature", "properties": { "access_type": "Pedestrian", "area_code": "E08000009", "area_name": "Trafford" }, "geometry": { "type": "Point", "coordinates": [ -2.364794829880589, 53.402126570315239 ] } },
{ "type": "Feature", "properties": { "access_type": "Pedestrian", "area_code": "E08000009", "area_name": "Trafford" }, "geometry": { "type": "Point", "coordinates": [ -2.364495005968337, 53.402840013277036 ] } },
{ "type": "Feature", "properties": { "access_type": "Pedestrian", "area_code": "E08000009", "area_name": "Trafford" }, "geometry": { "type": "Point", "coordinates": [ -2.364172372910077, 53.401923890883538 ] } },
{ "type": "Feature", "properties": { "access_type": "Pedestrian", "area_code": "E08000009", "area_name": "Trafford" }, "geometry": { "type": "Point", "coordinates": [ -2.363987995287105, 53.403000389508918 ] } },
{ "type": "Feature", "properties": { "access_type": "Pedestrian", "area_code": "E08000009", "area_name": "Trafford" }, "geometry": { "type": "Point", "coordinates": [ -2.363807736310274, 53.402199425275946 ] } },
{ "type": "Feature", "properties": { "access_type": "Pedestrian", "area_code": "E08000009", "area_name": "Trafford" }, "geometry": { "type": "Point", "coordinates": [ -2.363509734569168, 53.401964652191701 ] } },
{ "type": "Feature", "properties": { "access_type": "Pedestrian", "area_code": "E08000009", "area_name": "Trafford" }, "geometry": { "type": "Point", "coordinates": [ -2.363390638958645, 53.402461545509752 ] } },
{ "type": "Feature", "properties": { "access_type": "Pedestrian", "area_code": "E08000009", "area_name": "Trafford" }, "geometry": { "type": "Point", "coordinates": [ -2.36233151528537, 53.402395823516528 ] } },
{ "type": "Feature", "properties": { "access_type": "Pedestrian", "area_code": "E08000009", "area_name": "Trafford" }, "geometry": { "type": "Point", "coordinates": [ -2.362297893776371, 53.402510170769943 ] } },
{ "type": "Feature", "properties": { "access_type": "Pedestrian", "area_code": "E08000009", "area_name": "Trafford" }, "geometry": { "type": "Point", "coordinates": [ -2.359418249311882, 53.406225868025011 ] } },
{ "type": "Feature", "properties": { "access_type": "Motor Vehicle And Pedestrian", "area_code": "E08000009", "area_name": "Trafford" }, "geometry": { "type": "Point", "coordinates": [ -2.359154624582749, 53.40207482666554 ] } },
{ "type": "Feature", "properties": { "access_type": "Pedestrian", "area_code": "E08000009", "area_name": "Trafford" }, "geometry": { "type": "Point", "coordinates": [ -2.359019863761877, 53.406306526455886 ] } },
{ "type": "Feature", "properties": { "access_type": "Pedestrian", "area_code": "E08000009", "area_name": "Trafford" }, "geometry": { "type": "Point", "coordinates": [ -2.357816034314856, 53.401772696175954 ] } },
{ "type": "Feature", "properties": { "access_type": "Pedestrian", "area_code": "E08000009", "area_name": "Trafford" }, "geometry": { "type": "Point", "coordinates": [ -2.356990508559226, 53.397145316504755 ] } },
{ "type": "Feature", "properties": { "access_type": "Pedestrian", "area_code": "E08000009", "area_name": "Trafford" }, "geometry": { "type": "Point", "coordinates": [ -2.356719885279978, 53.392499820888546 ] } },
{ "type": "Feature", "properties": { "access_type": "Pedestrian", "area_code": "E08000009", "area_name": "Trafford" }, "geometry": { "type": "Point", "coordinates": [ -2.356473401800379, 53.397064796458324 ] } },
{ "type": "Feature", "properties": { "access_type": "Pedestrian", "area_code": "E08000009", "area_name": "Trafford" }, "geometry": { "type": "Point", "coordinates": [ -2.356082495805287, 53.40899401882016 ] } },
{ "type": "Feature", "properties": { "access_type": "Pedestrian", "area_code": "E08000009", "area_name": "Trafford" }, "geometry": { "type": "Point", "coordinates": [ -2.355690941758205, 53.393118792786773 ] } },
{ "type": "Feature", "properties": { "access_type": "Pedestrian", "area_code": "E08000009", "area_name": "Trafford" }, "geometry": { "type": "Point", "coordinates": [ -2.354951329670809, 53.392532151003074 ] } },
{ "type": "Feature", "properties": { "access_type": "Pedestrian", "area_code": "E08000009", "area_name": "Trafford" }, "geometry": { "type": "Point", "coordinates": [ -2.354347561277434, 53.391751216739941 ] } },
{ "type": "Feature", "properties": { "access_type": "Motor Vehicle And Pedestrian", "area_code": "E08000009", "area_name": "Trafford" }, "geometry": { "type": "Point", "coordinates": [ -2.341369870002599, 53.392380414448539 ] } },
{ "type": "Feature", "properties": { "access_type": "Pedestrian", "area_code": "E08000009", "area_name": "Trafford" }, "geometry": { "type": "Point", "coordinates": [ -2.354372552002866, 53.392496478755504 ] } },
{ "type": "Feature", "properties": { "access_type": "Pedestrian", "area_code": "E08000009", "area_name": "Trafford" }, "geometry": { "type": "Point", "coordinates": [ -2.331679670284482, 53.394781368668362 ] } },
{ "type": "Feature", "properties": { "access_type": "Pedestrian", "area_code": "E08000009", "area_name": "Trafford" }, "geometry": { "type": "Point", "coordinates": [ -2.343751450888263, 53.396035357509149 ] } },
{ "type": "Feature", "properties": { "access_type": "Pedestrian", "area_code": "E08000009", "area_name": "Trafford" }, "geometry": { "type": "Point", "coordinates": [ -2.345808063500959, 53.396456373680572 ] } },
{ "type": "Feature", "properties": { "access_type": "Motor Vehicle And Pedestrian", "area_code": "E08000009", "area_name": "Trafford" }, "geometry": { "type": "Point", "coordinates": [ -2.345960863355872, 53.396494401986594 ] } },
{ "type": "Feature", "properties": { "access_type": "Pedestrian", "area_code": "E08000009", "area_name": "Trafford" }, "geometry": { "type": "Point", "coordinates": [ -2.343910999341579, 53.396574753613358 ] } },
{ "type": "Feature", "properties": { "access_type": "Pedestrian", "area_code": "E08000009", "area_name": "Trafford" }, "geometry": { "type": "Point", "coordinates": [ -2.346486611329553, 53.396623750587715 ] } },
{ "type": "Feature", "properties": { "access_type": "Pedestrian", "area_code": "E08000009", "area_name": "Trafford" }, "geometry": { "type": "Point", "coordinates": [ -2.347264337910893, 53.396817980633955 ] } },
{ "type": "Feature", "properties": { "access_type": "Pedestrian", "area_code": "E08000009", "area_name": "Trafford" }, "geometry": { "type": "Point", "coordinates": [ -2.345093603084198, 53.397165036727991 ] } },
{ "type": "Feature", "properties": { "access_type": "Pedestrian", "area_code": "E08000009", "area_name": "Trafford" }, "geometry": { "type": "Point", "coordinates": [ -2.351716889976746, 53.397260391849294 ] } },
{ "type": "Feature", "properties": { "access_type": "Pedestrian", "area_code": "E08000009", "area_name": "Trafford" }, "geometry": { "type": "Point", "coordinates": [ -2.344728394753269, 53.397473053383216 ] } },
{ "type": "Feature", "properties": { "access_type": "Pedestrian", "area_code": "E08000009", "area_name": "Trafford" }, "geometry": { "type": "Point", "coordinates": [ -2.344691915549341, 53.397629920086068 ] } },
{ "type": "Feature", "properties": { "access_type": "Pedestrian", "area_code": "E08000009", "area_name": "Trafford" }, "geometry": { "type": "Point", "coordinates": [ -2.345183828662875, 53.397665531088116 ] } },
{ "type": "Feature", "properties": { "access_type": "Pedestrian", "area_code": "E08000009", "area_name": "Trafford" }, "geometry": { "type": "Point", "coordinates": [ -2.333168488812447, 53.397905704989 ] } },
{ "type": "Feature", "properties": { "access_type": "Motor Vehicle And Pedestrian", "area_code": "E08000009", "area_name": "Trafford" }, "geometry": { "type": "Point", "coordinates": [ -2.331645957036642, 53.397928283406998 ] } },
{ "type": "Feature", "properties": { "access_type": "Pedestrian", "area_code": "E08000009", "area_name": "Trafford" }, "geometry": { "type": "Point", "coordinates": [ -2.346704280506868, 53.3979253879032 ] } },
{ "type": "Feature", "properties": { "access_type": "Pedestrian", "area_code": "E08000009", "area_name": "Trafford" }, "geometry": { "type": "Point", "coordinates": [ -2.33300715039473, 53.398025164500133 ] } },
{ "type": "Feature", "properties": { "access_type": "Motor Vehicle And Pedestrian", "area_code": "E08000009", "area_name": "Trafford" }, "geometry": { "type": "Point", "coordinates": [ -2.334102915026589, 53.398046100819961 ] } },
{ "type": "Feature", "properties": { "access_type": "Pedestrian", "area_code": "E08000009", "area_name": "Trafford" }, "geometry": { "type": "Point", "coordinates": [ -2.345331203269232, 53.398054401231157 ] } },
{ "type": "Feature", "properties": { "access_type": "Pedestrian", "area_code": "E08000009", "area_name": "Trafford" }, "geometry": { "type": "Point", "coordinates": [ -2.345238810800368, 53.398066533555046 ] } },
{ "type": "Feature", "properties": { "access_type": "Pedestrian", "area_code": "E08000009", "area_name": "Trafford" }, "geometry": { "type": "Point", "coordinates": [ -2.345238360364518, 53.398066624744402 ] } },
{ "type": "Feature", "properties": { "access_type": "Pedestrian", "area_code": "E08000009", "area_name": "Trafford" }, "geometry": { "type": "Point", "coordinates": [ -2.345385409604936, 53.398118153332206 ] } },
{ "type": "Feature", "properties": { "access_type": "Pedestrian", "area_code": "E08000009", "area_name": "Trafford" }, "geometry": { "type": "Point", "coordinates": [ -2.34518424486429, 53.398125476911559 ] } },
{ "type": "Feature", "properties": { "access_type": "Pedestrian", "area_code": "E08000009", "area_name": "Trafford" }, "geometry": { "type": "Point", "coordinates": [ -2.333139027735079, 53.398446451749827 ] } },
{ "type": "Feature", "properties": { "access_type": "Pedestrian", "area_code": "E08000009", "area_name": "Trafford" }, "geometry": { "type": "Point", "coordinates": [ -2.333068898393882, 53.398459770893808 ] } },
{ "type": "Feature", "properties": { "access_type": "Pedestrian", "area_code": "E08000009", "area_name": "Trafford" }, "geometry": { "type": "Point", "coordinates": [ -2.334203339144746, 53.398482485942367 ] } },
{ "type": "Feature", "properties": { "access_type": "Pedestrian", "area_code": "E08000009", "area_name": "Trafford" }, "geometry": { "type": "Point", "coordinates": [ -2.343839396417407, 53.398604497602307 ] } },
{ "type": "Feature", "properties": { "access_type": "Pedestrian", "area_code": "E08000009", "area_name": "Trafford" }, "geometry": { "type": "Point", "coordinates": [ -2.343308468462169, 53.398917032114213 ] } },
{ "type": "Feature", "properties": { "access_type": "Pedestrian", "area_code": "E08000009", "area_name": "Trafford" }, "geometry": { "type": "Point", "coordinates": [ -2.350429504858961, 53.399796000795384 ] } },
{ "type": "Feature", "properties": { "access_type": "Pedestrian", "area_code": "E08000009", "area_name": "Trafford" }, "geometry": { "type": "Point", "coordinates": [ -2.305514222207401, 53.391764733084813 ] } },
{ "type": "Feature", "properties": { "access_type": "Pedestrian", "area_code": "E08000009", "area_name": "Trafford" }, "geometry": { "type": "Point", "coordinates": [ -2.306602746555109, 53.391806883576194 ] } },
{ "type": "Feature", "properties": { "access_type": "Pedestrian", "area_code": "E08000009", "area_name": "Trafford" }, "geometry": { "type": "Point", "coordinates": [ -2.306537076045029, 53.392126237735674 ] } },
{ "type": "Feature", "properties": { "access_type": "Pedestrian", "area_code": "E08000009", "area_name": "Trafford" }, "geometry": { "type": "Point", "coordinates": [ -2.306527418067756, 53.392163295607077 ] } },
{ "type": "Feature", "properties": { "access_type": "Pedestrian", "area_code": "E08000009", "area_name": "Trafford" }, "geometry": { "type": "Point", "coordinates": [ -2.319000529871303, 53.394759044731416 ] } },
{ "type": "Feature", "properties": { "access_type": "Pedestrian", "area_code": "E08000009", "area_name": "Trafford" }, "geometry": { "type": "Point", "coordinates": [ -2.318059351482186, 53.396095646062875 ] } },
{ "type": "Feature", "properties": { "access_type": "Pedestrian", "area_code": "E08000009", "area_name": "Trafford" }, "geometry": { "type": "Point", "coordinates": [ -2.322629651992058, 53.396846327636581 ] } },
{ "type": "Feature", "properties": { "access_type": "Pedestrian", "area_code": "E08000009", "area_name": "Trafford" }, "geometry": { "type": "Point", "coordinates": [ -2.321600810261902, 53.397199301215096 ] } },
{ "type": "Feature", "properties": { "access_type": "Pedestrian", "area_code": "E08000009", "area_name": "Trafford" }, "geometry": { "type": "Point", "coordinates": [ -2.321599607179788, 53.397199304457942 ] } },
{ "type": "Feature", "properties": { "access_type": "Pedestrian", "area_code": "E08000009", "area_name": "Trafford" }, "geometry": { "type": "Point", "coordinates": [ -2.320697357071154, 53.397209912638274 ] } },
{ "type": "Feature", "properties": { "access_type": "Motor Vehicle And Pedestrian", "area_code": "E08000009", "area_name": "Trafford" }, "geometry": { "type": "Point", "coordinates": [ -2.320122198697853, 53.39722017615567 ] } },
{ "type": "Feature", "properties": { "access_type": "Pedestrian", "area_code": "E08000009", "area_name": "Trafford" }, "geometry": { "type": "Point", "coordinates": [ -2.322574407058243, 53.397216897318842 ] } },
{ "type": "Feature", "properties": { "access_type": "Pedestrian", "area_code": "E08000009", "area_name": "Trafford" }, "geometry": { "type": "Point", "coordinates": [ -2.319747482199534, 53.397227023548197 ] } },
{ "type": "Feature", "properties": { "access_type": "Motor Vehicle And Pedestrian", "area_code": "E08000009", "area_name": "Trafford" }, "geometry": { "type": "Point", "coordinates": [ -2.319402816390513, 53.397230283766937 ] } },
{ "type": "Feature", "properties": { "access_type": "Pedestrian", "area_code": "E08000009", "area_name": "Trafford" }, "geometry": { "type": "Point", "coordinates": [ -2.316872742251662, 53.397400263064831 ] } },
{ "type": "Feature", "properties": { "access_type": "Pedestrian", "area_code": "E08000009", "area_name": "Trafford" }, "geometry": { "type": "Point", "coordinates": [ -2.311793818819742, 53.397916106577533 ] } },
{ "type": "Feature", "properties": { "access_type": "Pedestrian", "area_code": "E08000009", "area_name": "Trafford" }, "geometry": { "type": "Point", "coordinates": [ -2.312753718537868, 53.397950986783485 ] } },
{ "type": "Feature", "properties": { "access_type": "Pedestrian", "area_code": "E08000009", "area_name": "Trafford" }, "geometry": { "type": "Point", "coordinates": [ -2.320675304718604, 53.398256604604441 ] } },
{ "type": "Feature", "properties": { "access_type": "Pedestrian", "area_code": "E08000009", "area_name": "Trafford" }, "geometry": { "type": "Point", "coordinates": [ -2.320431844323052, 53.398379863201306 ] } },
{ "type": "Feature", "properties": { "access_type": "Pedestrian", "area_code": "E08000009", "area_name": "Trafford" }, "geometry": { "type": "Point", "coordinates": [ -2.319160174110897, 53.398607267559115 ] } },
{ "type": "Feature", "properties": { "access_type": "Motor Vehicle And Pedestrian", "area_code": "E08000009", "area_name": "Trafford" }, "geometry": { "type": "Point", "coordinates": [ -2.325163928718977, 53.399008667136115 ] } },
{ "type": "Feature", "properties": { "access_type": "Motor Vehicle And Pedestrian", "area_code": "E08000009", "area_name": "Trafford" }, "geometry": { "type": "Point", "coordinates": [ -2.312552604745479, 53.400447287560745 ] } },
{ "type": "Feature", "properties": { "access_type": "Motor Vehicle And Pedestrian", "area_code": "E08000009", "area_name": "Trafford" }, "geometry": { "type": "Point", "coordinates": [ -2.312555163469542, 53.400447550515771 ] } },
{ "type": "Feature", "properties": { "access_type": "Motor Vehicle And Pedestrian", "area_code": "E08000009", "area_name": "Trafford" }, "geometry": { "type": "Point", "coordinates": [ -2.31255531452561, 53.400447640006014 ] } },
{ "type": "Feature", "properties": { "access_type": "Pedestrian", "area_code": "E08000009", "area_name": "Trafford" }, "geometry": { "type": "Point", "coordinates": [ -2.313013546952388, 53.400708995590016 ] } },
{ "type": "Feature", "properties": { "access_type": "Pedestrian", "area_code": "E08000009", "area_name": "Trafford" }, "geometry": { "type": "Point", "coordinates": [ -2.313069250403653, 53.400736983743414 ] } },
{ "type": "Feature", "properties": { "access_type": "Pedestrian", "area_code": "E08000009", "area_name": "Trafford" }, "geometry": { "type": "Point", "coordinates": [ -2.3130691006661, 53.400737074022238 ] } },
{ "type": "Feature", "properties": { "access_type": "Pedestrian", "area_code": "E08000009", "area_name": "Trafford" }, "geometry": { "type": "Point", "coordinates": [ -2.314599629027093, 53.365509606835232 ] } },
{ "type": "Feature", "properties": { "access_type": "Pedestrian", "area_code": "E08000009", "area_name": "Trafford" }, "geometry": { "type": "Point", "coordinates": [ -2.314554938951634, 53.382297978855277 ] } },
{ "type": "Feature", "properties": { "access_type": "Motor Vehicle And Pedestrian", "area_code": "E08000009", "area_name": "Trafford" }, "geometry": { "type": "Point", "coordinates": [ -2.314071632475194, 53.370072825357511 ] } },
{ "type": "Feature", "properties": { "access_type": "Pedestrian", "area_code": "E08000009", "area_name": "Trafford" }, "geometry": { "type": "Point", "coordinates": [ -2.314073349435572, 53.382248462050903 ] } },
{ "type": "Feature", "properties": { "access_type": "Motor Vehicle And Pedestrian", "area_code": "E08000009", "area_name": "Trafford" }, "geometry": { "type": "Point", "coordinates": [ -2.311771592191326, 53.386632586557681 ] } },
{ "type": "Feature", "properties": { "access_type": "Motor Vehicle And Pedestrian", "area_code": "E08000009", "area_name": "Trafford" }, "geometry": { "type": "Point", "coordinates": [ -2.31171547276537, 53.386606756109757 ] } },
{ "type": "Feature", "properties": { "access_type": "Motor Vehicle And Pedestrian", "area_code": "E08000009", "area_name": "Trafford" }, "geometry": { "type": "Point", "coordinates": [ -2.311530789330213, 53.386517262495502 ] } },
{ "type": "Feature", "properties": { "access_type": "Pedestrian", "area_code": "E08000009", "area_name": "Trafford" }, "geometry": { "type": "Point", "coordinates": [ -2.310941224057744, 53.370078150798768 ] } },
{ "type": "Feature", "properties": { "access_type": "Pedestrian", "area_code": "E08000009", "area_name": "Trafford" }, "geometry": { "type": "Point", "coordinates": [ -2.310238085827792, 53.385712914256914 ] } },
{ "type": "Feature", "properties": { "access_type": "Pedestrian", "area_code": "E08000009", "area_name": "Trafford" }, "geometry": { "type": "Point", "coordinates": [ -2.308698169066657, 53.389422554778747 ] } },
{ "type": "Feature", "properties": { "access_type": "Motor Vehicle And Pedestrian", "area_code": "E08000009", "area_name": "Trafford" }, "geometry": { "type": "Point", "coordinates": [ -2.307054245060206, 53.389230665818616 ] } },
{ "type": "Feature", "properties": { "access_type": "Pedestrian", "area_code": "E08000009", "area_name": "Trafford" }, "geometry": { "type": "Point", "coordinates": [ -2.30679507349629, 53.391264286261652 ] } },
{ "type": "Feature", "properties": { "access_type": "Pedestrian", "area_code": "E08000009", "area_name": "Trafford" }, "geometry": { "type": "Point", "coordinates": [ -2.306628163077314, 53.389173335760518 ] } },
{ "type": "Feature", "properties": { "access_type": "Pedestrian", "area_code": "E08000009", "area_name": "Trafford" }, "geometry": { "type": "Point", "coordinates": [ -2.306576391101922, 53.391696661104973 ] } },
{ "type": "Feature", "properties": { "access_type": "Pedestrian", "area_code": "E08000009", "area_name": "Trafford" }, "geometry": { "type": "Point", "coordinates": [ -2.306367670324189, 53.391548975164866 ] } },
{ "type": "Feature", "properties": { "access_type": "Pedestrian", "area_code": "E08000009", "area_name": "Trafford" }, "geometry": { "type": "Point", "coordinates": [ -2.306367369593055, 53.391548975937162 ] } },
{ "type": "Feature", "properties": { "access_type": "Pedestrian", "area_code": "E08000009", "area_name": "Trafford" }, "geometry": { "type": "Point", "coordinates": [ -2.306238103396024, 53.391660676662845 ] } },
{ "type": "Feature", "properties": { "access_type": "Pedestrian", "area_code": "E08000009", "area_name": "Trafford" }, "geometry": { "type": "Point", "coordinates": [ -2.306232243643275, 53.391661320906813 ] } },
{ "type": "Feature", "properties": { "access_type": "Pedestrian", "area_code": "E08000009", "area_name": "Trafford" }, "geometry": { "type": "Point", "coordinates": [ -2.306047345541649, 53.389092761198789 ] } },
{ "type": "Feature", "properties": { "access_type": "Motor Vehicle And Pedestrian", "area_code": "E08000009", "area_name": "Trafford" }, "geometry": { "type": "Point", "coordinates": [ -2.302590868430765, 53.367967342390529 ] } },
{ "type": "Feature", "properties": { "access_type": "Pedestrian", "area_code": "E08000009", "area_name": "Trafford" }, "geometry": { "type": "Point", "coordinates": [ -2.302434856717976, 53.369597648226915 ] } },
{ "type": "Feature", "properties": { "access_type": "Pedestrian", "area_code": "E08000009", "area_name": "Trafford" }, "geometry": { "type": "Point", "coordinates": [ -2.340942513697468, 53.384351113078289 ] } },
{ "type": "Feature", "properties": { "access_type": "Pedestrian", "area_code": "E08000009", "area_name": "Trafford" }, "geometry": { "type": "Point", "coordinates": [ -2.340889993311262, 53.389140581171283 ] } },
{ "type": "Feature", "properties": { "access_type": "Motor Vehicle And Pedestrian", "area_code": "E08000009", "area_name": "Trafford" }, "geometry": { "type": "Point", "coordinates": [ -2.340543124538078, 53.383098789718105 ] } },
{ "type": "Feature", "properties": { "access_type": "Pedestrian", "area_code": "E08000009", "area_name": "Trafford" }, "geometry": { "type": "Point", "coordinates": [ -2.340234774495075, 53.384718700992039 ] } },
{ "type": "Feature", "properties": { "access_type": "Pedestrian", "area_code": "E08000009", "area_name": "Trafford" }, "geometry": { "type": "Point", "coordinates": [ -2.33975288841141, 53.38307290843791 ] } },
{ "type": "Feature", "properties": { "access_type": "Pedestrian", "area_code": "E08000009", "area_name": "Trafford" }, "geometry": { "type": "Point", "coordinates": [ -2.339171071021418, 53.383393390599281 ] } },
{ "type": "Feature", "properties": { "access_type": "Pedestrian", "area_code": "E08000009", "area_name": "Trafford" }, "geometry": { "type": "Point", "coordinates": [ -2.338423911463284, 53.386636540880218 ] } },
{ "type": "Feature", "properties": { "access_type": "Motor Vehicle And Pedestrian", "area_code": "E08000009", "area_name": "Trafford" }, "geometry": { "type": "Point", "coordinates": [ -2.336180426075687, 53.391639746403165 ] } },
{ "type": "Feature", "properties": { "access_type": "Pedestrian", "area_code": "E08000009", "area_name": "Trafford" }, "geometry": { "type": "Point", "coordinates": [ -2.334382046147963, 53.386160395017463 ] } },
{ "type": "Feature", "properties": { "access_type": "Motor Vehicle And Pedestrian", "area_code": "E08000009", "area_name": "Trafford" }, "geometry": { "type": "Point", "coordinates": [ -2.333588587380881, 53.382673501970935 ] } },
{ "type": "Feature", "properties": { "access_type": "Pedestrian", "area_code": "E08000009", "area_name": "Trafford" }, "geometry": { "type": "Point", "coordinates": [ -2.333159276424707, 53.37886972479523 ] } },
{ "type": "Feature", "properties": { "access_type": "Pedestrian", "area_code": "E08000009", "area_name": "Trafford" }, "geometry": { "type": "Point", "coordinates": [ -2.332973771563739, 53.378811277297658 ] } },
{ "type": "Feature", "properties": { "access_type": "Pedestrian", "area_code": "E08000009", "area_name": "Trafford" }, "geometry": { "type": "Point", "coordinates": [ -2.331753613817914, 53.378852339186828 ] } },
{ "type": "Feature", "properties": { "access_type": "Motor Vehicle And Pedestrian", "area_code": "E08000009", "area_name": "Trafford" }, "geometry": { "type": "Point", "coordinates": [ -2.330948830953017, 53.391528082933846 ] } },
{ "type": "Feature", "properties": { "access_type": "Pedestrian", "area_code": "E08000009", "area_name": "Trafford" }, "geometry": { "type": "Point", "coordinates": [ -2.329982543141951, 53.389679823998001 ] } },
{ "type": "Feature", "properties": { "access_type": "Motor Vehicle And Pedestrian", "area_code": "E08000009", "area_name": "Trafford" }, "geometry": { "type": "Point", "coordinates": [ -2.329412130886674, 53.390349344288751 ] } },
{ "type": "Feature", "properties": { "access_type": "Pedestrian", "area_code": "E08000009", "area_name": "Trafford" }, "geometry": { "type": "Point", "coordinates": [ -2.329309465870947, 53.390236910485278 ] } },
{ "type": "Feature", "properties": { "access_type": "Motor Vehicle And Pedestrian", "area_code": "E08000009", "area_name": "Trafford" }, "geometry": { "type": "Point", "coordinates": [ -2.327880870365977, 53.381009351542318 ] } },
{ "type": "Feature", "properties": { "access_type": "Pedestrian", "area_code": "E08000009", "area_name": "Trafford" }, "geometry": { "type": "Point", "coordinates": [ -2.32630181662006, 53.380619799480158 ] } },
{ "type": "Feature", "properties": { "access_type": "Motor Vehicle And Pedestrian", "area_code": "E08000009", "area_name": "Trafford" }, "geometry": { "type": "Point", "coordinates": [ -2.326055007660606, 53.381213993410832 ] } },
{ "type": "Feature", "properties": { "access_type": "Pedestrian", "area_code": "E08000009", "area_name": "Trafford" }, "geometry": { "type": "Point", "coordinates": [ -2.323793507375749, 53.381721448853561 ] } },
{ "type": "Feature", "properties": { "access_type": "Pedestrian", "area_code": "E08000009", "area_name": "Trafford" }, "geometry": { "type": "Point", "coordinates": [ -2.323746057521778, 53.381411919464476 ] } },
{ "type": "Feature", "properties": { "access_type": "Pedestrian", "area_code": "E08000009", "area_name": "Trafford" }, "geometry": { "type": "Point", "coordinates": [ -2.323555570915854, 53.382024202145828 ] } },
{ "type": "Feature", "properties": { "access_type": "Pedestrian", "area_code": "E08000009", "area_name": "Trafford" }, "geometry": { "type": "Point", "coordinates": [ -2.320933450550323, 53.381387609768083 ] } },
{ "type": "Feature", "properties": { "access_type": "Pedestrian", "area_code": "E08000009", "area_name": "Trafford" }, "geometry": { "type": "Point", "coordinates": [ -2.316475468370641, 53.390419597825421 ] } },
{ "type": "Feature", "properties": { "access_type": "Pedestrian", "area_code": "E08000009", "area_name": "Trafford" }, "geometry": { "type": "Point", "coordinates": [ -2.316442327787881, 53.390006299502403 ] } },
{ "type": "Feature", "properties": { "access_type": "Motor Vehicle And Pedestrian", "area_code": "E08000009", "area_name": "Trafford" }, "geometry": { "type": "Point", "coordinates": [ -2.316442341131026, 53.390008097189302 ] } },
{ "type": "Feature", "properties": { "access_type": "Pedestrian", "area_code": "E08000009", "area_name": "Trafford" }, "geometry": { "type": "Point", "coordinates": [ -2.315973506719232, 53.389804848916476 ] } },
{ "type": "Feature", "properties": { "access_type": "Pedestrian", "area_code": "E08000009", "area_name": "Trafford" }, "geometry": { "type": "Point", "coordinates": [ -2.314911862986042, 53.382260902898537 ] } },
{ "type": "Feature", "properties": { "access_type": "Motor Vehicle And Pedestrian", "area_code": "E08000009", "area_name": "Trafford" }, "geometry": { "type": "Point", "coordinates": [ -2.314892078000037, 53.383327634907189 ] } },
{ "type": "Feature", "properties": { "access_type": "Pedestrian", "area_code": "E08000009", "area_name": "Trafford" }, "geometry": { "type": "Point", "coordinates": [ -2.314856451431628, 53.382106444848709 ] } },
{ "type": "Feature", "properties": { "access_type": "Pedestrian", "area_code": "E08000009", "area_name": "Trafford" }, "geometry": { "type": "Point", "coordinates": [ -2.323566319614683, 53.362534194461482 ] } },
{ "type": "Feature", "properties": { "access_type": "Pedestrian", "area_code": "E08000009", "area_name": "Trafford" }, "geometry": { "type": "Point", "coordinates": [ -2.326487567169555, 53.363722084256388 ] } },
{ "type": "Feature", "properties": { "access_type": "Pedestrian", "area_code": "E08000009", "area_name": "Trafford" }, "geometry": { "type": "Point", "coordinates": [ -2.33313511577822, 53.365670779547649 ] } },
{ "type": "Feature", "properties": { "access_type": "Motor Vehicle And Pedestrian", "area_code": "E08000009", "area_name": "Trafford" }, "geometry": { "type": "Point", "coordinates": [ -2.32843110113746, 53.366955000028874 ] } },
{ "type": "Feature", "properties": { "access_type": "Pedestrian", "area_code": "E08000009", "area_name": "Trafford" }, "geometry": { "type": "Point", "coordinates": [ -2.31700734839119, 53.36884539012685 ] } },
{ "type": "Feature", "properties": { "access_type": "Pedestrian", "area_code": "E08000009", "area_name": "Trafford" }, "geometry": { "type": "Point", "coordinates": [ -2.341759116778487, 53.369033934745133 ] } },
{ "type": "Feature", "properties": { "access_type": "Motor Vehicle And Pedestrian", "area_code": "E08000009", "area_name": "Trafford" }, "geometry": { "type": "Point", "coordinates": [ -2.3167903071898, 53.369105199254292 ] } },
{ "type": "Feature", "properties": { "access_type": "Motor Vehicle And Pedestrian", "area_code": "E08000009", "area_name": "Trafford" }, "geometry": { "type": "Point", "coordinates": [ -2.315227945766811, 53.369111495869454 ] } },
{ "type": "Feature", "properties": { "access_type": "Pedestrian", "area_code": "E08000009", "area_name": "Trafford" }, "geometry": { "type": "Point", "coordinates": [ -2.31497378944822, 53.369618137980574 ] } },
{ "type": "Feature", "properties": { "access_type": "Motor Vehicle And Pedestrian", "area_code": "E08000009", "area_name": "Trafford" }, "geometry": { "type": "Point", "coordinates": [ -2.316388181608822, 53.369618439468695 ] } },
{ "type": "Feature", "properties": { "access_type": "Motor Vehicle And Pedestrian", "area_code": "E08000009", "area_name": "Trafford" }, "geometry": { "type": "Point", "coordinates": [ -2.315081671944241, 53.369655245794476 ] } },
{ "type": "Feature", "properties": { "access_type": "Motor Vehicle And Pedestrian", "area_code": "E08000009", "area_name": "Trafford" }, "geometry": { "type": "Point", "coordinates": [ -2.316647916276033, 53.369764444863129 ] } },
{ "type": "Feature", "properties": { "access_type": "Pedestrian", "area_code": "E08000009", "area_name": "Trafford" }, "geometry": { "type": "Point", "coordinates": [ -2.315725906057168, 53.369971470492821 ] } },
{ "type": "Feature", "properties": { "access_type": "Motor Vehicle And Pedestrian", "area_code": "E08000009", "area_name": "Trafford" }, "geometry": { "type": "Point", "coordinates": [ -2.315886095330169, 53.37080069793236 ] } },
{ "type": "Feature", "properties": { "access_type": "Motor Vehicle And Pedestrian", "area_code": "E08000009", "area_name": "Trafford" }, "geometry": { "type": "Point", "coordinates": [ -2.317643676958025, 53.371531211221487 ] } },
{ "type": "Feature", "properties": { "access_type": "Pedestrian", "area_code": "E08000009", "area_name": "Trafford" }, "geometry": { "type": "Point", "coordinates": [ -2.318317335086734, 53.371675300968363 ] } },
{ "type": "Feature", "properties": { "access_type": "Pedestrian", "area_code": "E08000009", "area_name": "Trafford" }, "geometry": { "type": "Point", "coordinates": [ -2.317904911925084, 53.372178955700001 ] } },
{ "type": "Feature", "properties": { "access_type": "Pedestrian", "area_code": "E08000009", "area_name": "Trafford" }, "geometry": { "type": "Point", "coordinates": [ -2.317872701678955, 53.372596384029997 ] } },
{ "type": "Feature", "properties": { "access_type": "Motor Vehicle And Pedestrian", "area_code": "E08000009", "area_name": "Trafford" }, "geometry": { "type": "Point", "coordinates": [ -2.320847566186925, 53.372708866930338 ] } },
{ "type": "Feature", "properties": { "access_type": "Motor Vehicle And Pedestrian", "area_code": "E08000009", "area_name": "Trafford" }, "geometry": { "type": "Point", "coordinates": [ -2.317961912177626, 53.373333304434169 ] } },
{ "type": "Feature", "properties": { "access_type": "Motor Vehicle And Pedestrian", "area_code": "E08000009", "area_name": "Trafford" }, "geometry": { "type": "Point", "coordinates": [ -2.341310002069376, 53.375114780666443 ] } },
{ "type": "Feature", "properties": { "access_type": "Motor Vehicle And Pedestrian", "area_code": "E08000009", "area_name": "Trafford" }, "geometry": { "type": "Point", "coordinates": [ -2.342003904192044, 53.375123309979749 ] } },
{ "type": "Feature", "properties": { "access_type": "Pedestrian", "area_code": "E08000009", "area_name": "Trafford" }, "geometry": { "type": "Point", "coordinates": [ -2.34246528456742, 53.375413757586941 ] } },
{ "type": "Feature", "properties": { "access_type": "Pedestrian", "area_code": "E08000009", "area_name": "Trafford" }, "geometry": { "type": "Point", "coordinates": [ -2.342566300365974, 53.375489421553873 ] } },
{ "type": "Feature", "properties": { "access_type": "Pedestrian", "area_code": "E08000009", "area_name": "Trafford" }, "geometry": { "type": "Point", "coordinates": [ -2.342196429762584, 53.375720142887744 ] } },
{ "type": "Feature", "properties": { "access_type": "Motor Vehicle And Pedestrian", "area_code": "E08000009", "area_name": "Trafford" }, "geometry": { "type": "Point", "coordinates": [ -2.341939917588175, 53.375841595870568 ] } },
{ "type": "Feature", "properties": { "access_type": "Pedestrian", "area_code": "E08000009", "area_name": "Trafford" }, "geometry": { "type": "Point", "coordinates": [ -2.345333077313168, 53.375896090153603 ] } },
{ "type": "Feature", "properties": { "access_type": "Pedestrian", "area_code": "E08000009", "area_name": "Trafford" }, "geometry": { "type": "Point", "coordinates": [ -2.344743941966712, 53.376186599166594 ] } },
{ "type": "Feature", "properties": { "access_type": "Pedestrian", "area_code": "E08000009", "area_name": "Trafford" }, "geometry": { "type": "Point", "coordinates": [ -2.352536345530328, 53.382801484446155 ] } },
{ "type": "Feature", "properties": { "access_type": "Pedestrian", "area_code": "E08000009", "area_name": "Trafford" }, "geometry": { "type": "Point", "coordinates": [ -2.352478318274224, 53.388586107405487 ] } },
{ "type": "Feature", "properties": { "access_type": "Pedestrian", "area_code": "E08000009", "area_name": "Trafford" }, "geometry": { "type": "Point", "coordinates": [ -2.352104932392681, 53.37947588513785 ] } },
{ "type": "Feature", "properties": { "access_type": "Pedestrian", "area_code": "E08000009", "area_name": "Trafford" }, "geometry": { "type": "Point", "coordinates": [ -2.351800206649294, 53.389807505306443 ] } },
{ "type": "Feature", "properties": { "access_type": "Motor Vehicle And Pedestrian", "area_code": "E08000009", "area_name": "Trafford" }, "geometry": { "type": "Point", "coordinates": [ -2.351345766442868, 53.384783933455708 ] } },
{ "type": "Feature", "properties": { "access_type": "Pedestrian", "area_code": "E08000009", "area_name": "Trafford" }, "geometry": { "type": "Point", "coordinates": [ -2.351104545968088, 53.384447030694439 ] } },
{ "type": "Feature", "properties": { "access_type": "Pedestrian", "area_code": "E08000009", "area_name": "Trafford" }, "geometry": { "type": "Point", "coordinates": [ -2.350786731313091, 53.390169045408598 ] } },
{ "type": "Feature", "properties": { "access_type": "Pedestrian", "area_code": "E08000009", "area_name": "Trafford" }, "geometry": { "type": "Point", "coordinates": [ -2.35061975014214, 53.381089854281136 ] } },
{ "type": "Feature", "properties": { "access_type": "Motor Vehicle And Pedestrian", "area_code": "E08000009", "area_name": "Trafford" }, "geometry": { "type": "Point", "coordinates": [ -2.350577325448218, 53.384451187808473 ] } },
{ "type": "Feature", "properties": { "access_type": "Pedestrian", "area_code": "E08000009", "area_name": "Trafford" }, "geometry": { "type": "Point", "coordinates": [ -2.350262859763306, 53.385299649210474 ] } },
{ "type": "Feature", "properties": { "access_type": "Pedestrian", "area_code": "E08000009", "area_name": "Trafford" }, "geometry": { "type": "Point", "coordinates": [ -2.350261808839641, 53.38529983206837 ] } },
{ "type": "Feature", "properties": { "access_type": "Pedestrian", "area_code": "E08000009", "area_name": "Trafford" }, "geometry": { "type": "Point", "coordinates": [ -2.349831648824934, 53.385242578213727 ] } },
{ "type": "Feature", "properties": { "access_type": "Motor Vehicle And Pedestrian", "area_code": "E08000009", "area_name": "Trafford" }, "geometry": { "type": "Point", "coordinates": [ -2.34958580140919, 53.38490865223676 ] } },
{ "type": "Feature", "properties": { "access_type": "Pedestrian", "area_code": "E08000009", "area_name": "Trafford" }, "geometry": { "type": "Point", "coordinates": [ -2.34690260841558, 53.38625983456253 ] } },
{ "type": "Feature", "properties": { "access_type": "Pedestrian", "area_code": "E08000009", "area_name": "Trafford" }, "geometry": { "type": "Point", "coordinates": [ -2.346817114227519, 53.387042992321994 ] } },
{ "type": "Feature", "properties": { "access_type": "Motor Vehicle", "area_code": "E08000009", "area_name": "Trafford" }, "geometry": { "type": "Point", "coordinates": [ -2.346423239875039, 53.386901037749205 ] } },
{ "type": "Feature", "properties": { "access_type": "Motor Vehicle And Pedestrian", "area_code": "E08000009", "area_name": "Trafford" }, "geometry": { "type": "Point", "coordinates": [ -2.346362998640831, 53.388036295992492 ] } },
{ "type": "Feature", "properties": { "access_type": "Pedestrian", "area_code": "E08000009", "area_name": "Trafford" }, "geometry": { "type": "Point", "coordinates": [ -2.346151395806294, 53.388307737294795 ] } },
{ "type": "Feature", "properties": { "access_type": "Motor Vehicle And Pedestrian", "area_code": "E08000009", "area_name": "Trafford" }, "geometry": { "type": "Point", "coordinates": [ -2.345910893839314, 53.388761101805514 ] } },
{ "type": "Feature", "properties": { "access_type": "Pedestrian", "area_code": "E08000009", "area_name": "Trafford" }, "geometry": { "type": "Point", "coordinates": [ -2.345509472075305, 53.387633653610251 ] } },
{ "type": "Feature", "properties": { "access_type": "Pedestrian", "area_code": "E08000009", "area_name": "Trafford" }, "geometry": { "type": "Point", "coordinates": [ -2.345106541471708, 53.387896208946607 ] } },
{ "type": "Feature", "properties": { "access_type": "Pedestrian", "area_code": "E08000009", "area_name": "Trafford" }, "geometry": { "type": "Point", "coordinates": [ -2.344990849567895, 53.388408086006734 ] } },
{ "type": "Feature", "properties": { "access_type": "Pedestrian", "area_code": "E08000009", "area_name": "Trafford" }, "geometry": { "type": "Point", "coordinates": [ -2.343944963488366, 53.383524349946562 ] } },
{ "type": "Feature", "properties": { "access_type": "Pedestrian", "area_code": "E08000009", "area_name": "Trafford" }, "geometry": { "type": "Point", "coordinates": [ -2.343701408785763, 53.385314687519163 ] } },
{ "type": "Feature", "properties": { "access_type": "Pedestrian", "area_code": "E08000009", "area_name": "Trafford" }, "geometry": { "type": "Point", "coordinates": [ -2.343310204391284, 53.384978201110975 ] } },
{ "type": "Feature", "properties": { "access_type": "Pedestrian", "area_code": "E08000009", "area_name": "Trafford" }, "geometry": { "type": "Point", "coordinates": [ -2.34323836282362, 53.384999800753278 ] } },
{ "type": "Feature", "properties": { "access_type": "Pedestrian", "area_code": "E08000009", "area_name": "Trafford" }, "geometry": { "type": "Point", "coordinates": [ -2.343213124118081, 53.38457255406383 ] } },
{ "type": "Feature", "properties": { "access_type": "Pedestrian", "area_code": "E08000009", "area_name": "Trafford" }, "geometry": { "type": "Point", "coordinates": [ -2.342401685327687, 53.383220299512239 ] } },
{ "type": "Feature", "properties": { "access_type": "Pedestrian", "area_code": "E08000009", "area_name": "Trafford" }, "geometry": { "type": "Point", "coordinates": [ -2.342249223016063, 53.383555203851166 ] } },
{ "type": "Feature", "properties": { "access_type": "Pedestrian", "area_code": "E08000009", "area_name": "Trafford" }, "geometry": { "type": "Point", "coordinates": [ -2.341127158707498, 53.390142583692857 ] } },
{ "type": "Feature", "properties": { "access_type": "Motor Vehicle And Pedestrian", "area_code": "E08000009", "area_name": "Trafford" }, "geometry": { "type": "Point", "coordinates": [ -2.341035858073488, 53.383107988767556 ] } },
{ "type": "Feature", "properties": { "access_type": "Pedestrian", "area_code": "E08000009", "area_name": "Trafford" }, "geometry": { "type": "Point", "coordinates": [ -2.369421274560318, 53.369718655856857 ] } },
{ "type": "Feature", "properties": { "access_type": "Motor Vehicle And Pedestrian", "area_code": "E08000009", "area_name": "Trafford" }, "geometry": { "type": "Point", "coordinates": [ -2.3616661143324, 53.369812352147648 ] } },
{ "type": "Feature", "properties": { "access_type": "Pedestrian", "area_code": "E08000009", "area_name": "Trafford" }, "geometry": { "type": "Point", "coordinates": [ -2.36100114940982, 53.369928072853256 ] } },
{ "type": "Feature", "properties": { "access_type": "Pedestrian", "area_code": "E08000009", "area_name": "Trafford" }, "geometry": { "type": "Point", "coordinates": [ -2.369644683646757, 53.370230496962144 ] } },
{ "type": "Feature", "properties": { "access_type": "Pedestrian", "area_code": "E08000009", "area_name": "Trafford" }, "geometry": { "type": "Point", "coordinates": [ -2.358536183025127, 53.371428072771977 ] } },
{ "type": "Feature", "properties": { "access_type": "Pedestrian", "area_code": "E08000009", "area_name": "Trafford" }, "geometry": { "type": "Point", "coordinates": [ -2.362914015851968, 53.371776897389033 ] } },
{ "type": "Feature", "properties": { "access_type": "Pedestrian", "area_code": "E08000009", "area_name": "Trafford" }, "geometry": { "type": "Point", "coordinates": [ -2.363175767381223, 53.37187470629339 ] } },
{ "type": "Feature", "properties": { "access_type": "Pedestrian", "area_code": "E08000009", "area_name": "Trafford" }, "geometry": { "type": "Point", "coordinates": [ -2.360229838410667, 53.371974064497195 ] } },
{ "type": "Feature", "properties": { "access_type": "Pedestrian", "area_code": "E08000009", "area_name": "Trafford" }, "geometry": { "type": "Point", "coordinates": [ -2.363979236451407, 53.372346768372964 ] } },
{ "type": "Feature", "properties": { "access_type": "Pedestrian", "area_code": "E08000009", "area_name": "Trafford" }, "geometry": { "type": "Point", "coordinates": [ -2.36381500478428, 53.373092608246047 ] } },
{ "type": "Feature", "properties": { "access_type": "Pedestrian", "area_code": "E08000009", "area_name": "Trafford" }, "geometry": { "type": "Point", "coordinates": [ -2.355848870683529, 53.373177310647968 ] } },
{ "type": "Feature", "properties": { "access_type": "Motor Vehicle And Pedestrian", "area_code": "E08000009", "area_name": "Trafford" }, "geometry": { "type": "Point", "coordinates": [ -2.354268356523392, 53.37322327279572 ] } },
{ "type": "Feature", "properties": { "access_type": "Pedestrian", "area_code": "E08000009", "area_name": "Trafford" }, "geometry": { "type": "Point", "coordinates": [ -2.374478273632707, 53.373740951389891 ] } },
{ "type": "Feature", "properties": { "access_type": "Pedestrian", "area_code": "E08000009", "area_name": "Trafford" }, "geometry": { "type": "Point", "coordinates": [ -2.37565357308965, 53.373884040949321 ] } },
{ "type": "Feature", "properties": { "access_type": "Motor Vehicle And Pedestrian", "area_code": "E08000009", "area_name": "Trafford" }, "geometry": { "type": "Point", "coordinates": [ -2.356065993069807, 53.374628059499535 ] } },
{ "type": "Feature", "properties": { "access_type": "Pedestrian", "area_code": "E08000009", "area_name": "Trafford" }, "geometry": { "type": "Point", "coordinates": [ -2.363741318736943, 53.377900949661246 ] } },
{ "type": "Feature", "properties": { "access_type": "Pedestrian", "area_code": "E08000009", "area_name": "Trafford" }, "geometry": { "type": "Point", "coordinates": [ -2.364798957393859, 53.377916596395139 ] } },
{ "type": "Feature", "properties": { "access_type": "Pedestrian", "area_code": "E08000009", "area_name": "Trafford" }, "geometry": { "type": "Point", "coordinates": [ -2.361456764456132, 53.378009375153511 ] } },
{ "type": "Feature", "properties": { "access_type": "Pedestrian", "area_code": "E08000009", "area_name": "Trafford" }, "geometry": { "type": "Point", "coordinates": [ -2.36436622830233, 53.378115309421396 ] } },
{ "type": "Feature", "properties": { "access_type": "Pedestrian", "area_code": "E08000009", "area_name": "Trafford" }, "geometry": { "type": "Point", "coordinates": [ -2.360596991547968, 53.378976997510115 ] } },
{ "type": "Feature", "properties": { "access_type": "Pedestrian", "area_code": "E08000009", "area_name": "Trafford" }, "geometry": { "type": "Point", "coordinates": [ -2.361606003406617, 53.379034347050784 ] } },
{ "type": "Feature", "properties": { "access_type": "Motor Vehicle And Pedestrian", "area_code": "E08000009", "area_name": "Trafford" }, "geometry": { "type": "Point", "coordinates": [ -2.362176417609391, 53.379079537426136 ] } },
{ "type": "Feature", "properties": { "access_type": "Pedestrian", "area_code": "E08000009", "area_name": "Trafford" }, "geometry": { "type": "Point", "coordinates": [ -2.353545725348793, 53.380971288039397 ] } },
{ "type": "Feature", "properties": { "access_type": "Motor Vehicle And Pedestrian", "area_code": "E08000009", "area_name": "Trafford" }, "geometry": { "type": "Point", "coordinates": [ -2.361792141027795, 53.38109442813149 ] } },
{ "type": "Feature", "properties": { "access_type": "Pedestrian", "area_code": "E08000009", "area_name": "Trafford" }, "geometry": { "type": "Point", "coordinates": [ -2.371229563567133, 53.381583181190344 ] } },
{ "type": "Feature", "properties": { "access_type": "Motor Vehicle And Pedestrian", "area_code": "E08000009", "area_name": "Trafford" }, "geometry": { "type": "Point", "coordinates": [ -2.353330146000077, 53.382549521822234 ] } },
{ "type": "Feature", "properties": { "access_type": "Pedestrian", "area_code": "E08000009", "area_name": "Trafford" }, "geometry": { "type": "Point", "coordinates": [ -2.373531130208092, 53.382539939118502 ] } },
{ "type": "Feature", "properties": { "access_type": "Pedestrian", "area_code": "E08000009", "area_name": "Trafford" }, "geometry": { "type": "Point", "coordinates": [ -2.383273074136521, 53.382786520517627 ] } },
{ "type": "Feature", "properties": { "access_type": "Pedestrian", "area_code": "E08000009", "area_name": "Trafford" }, "geometry": { "type": "Point", "coordinates": [ -2.369838428378652, 53.383496148973585 ] } },
{ "type": "Feature", "properties": { "access_type": "Pedestrian", "area_code": "E08000009", "area_name": "Trafford" }, "geometry": { "type": "Point", "coordinates": [ -2.402801119091205, 53.383779615233649 ] } },
{ "type": "Feature", "properties": { "access_type": "Motor Vehicle And Pedestrian", "area_code": "E08000009", "area_name": "Trafford" }, "geometry": { "type": "Point", "coordinates": [ -2.40222708002586, 53.383887438029774 ] } },
{ "type": "Feature", "properties": { "access_type": "Motor Vehicle And Pedestrian", "area_code": "E08000009", "area_name": "Trafford" }, "geometry": { "type": "Point", "coordinates": [ -2.370776391877041, 53.384013859496505 ] } },
{ "type": "Feature", "properties": { "access_type": "Motor Vehicle And Pedestrian", "area_code": "E08000009", "area_name": "Trafford" }, "geometry": { "type": "Point", "coordinates": [ -2.403087740879911, 53.384025745125157 ] } },
{ "type": "Feature", "properties": { "access_type": "Pedestrian", "area_code": "E08000009", "area_name": "Trafford" }, "geometry": { "type": "Point", "coordinates": [ -2.404429448114022, 53.384966720375388 ] } },
{ "type": "Feature", "properties": { "access_type": "Pedestrian", "area_code": "E08000009", "area_name": "Trafford" }, "geometry": { "type": "Point", "coordinates": [ -2.356157772723776, 53.385944838758313 ] } },
{ "type": "Feature", "properties": { "access_type": "Motor Vehicle And Pedestrian", "area_code": "E08000009", "area_name": "Trafford" }, "geometry": { "type": "Point", "coordinates": [ -2.370034148991431, 53.385971371459163 ] } },
{ "type": "Feature", "properties": { "access_type": "Pedestrian", "area_code": "E08000009", "area_name": "Trafford" }, "geometry": { "type": "Point", "coordinates": [ -2.355975997766617, 53.386106547357812 ] } },
{ "type": "Feature", "properties": { "access_type": "Pedestrian", "area_code": "E08000009", "area_name": "Trafford" }, "geometry": { "type": "Point", "coordinates": [ -2.362388624589824, 53.386380720639401 ] } },
{ "type": "Feature", "properties": { "access_type": "Motor Vehicle And Pedestrian", "area_code": "E08000009", "area_name": "Trafford" }, "geometry": { "type": "Point", "coordinates": [ -2.355687567632611, 53.386423807285908 ] } },
{ "type": "Feature", "properties": { "access_type": "Motor Vehicle And Pedestrian", "area_code": "E08000009", "area_name": "Trafford" }, "geometry": { "type": "Point", "coordinates": [ -2.356474451571831, 53.386453727960848 ] } },
{ "type": "Feature", "properties": { "access_type": "Motor Vehicle And Pedestrian", "area_code": "E08000009", "area_name": "Trafford" }, "geometry": { "type": "Point", "coordinates": [ -2.355874455293233, 53.386640235441142 ] } },
{ "type": "Feature", "properties": { "access_type": "Motor Vehicle And Pedestrian", "area_code": "E08000009", "area_name": "Trafford" }, "geometry": { "type": "Point", "coordinates": [ -2.362573775245007, 53.386972418882486 ] } },
{ "type": "Feature", "properties": { "access_type": "Pedestrian", "area_code": "E08000009", "area_name": "Trafford" }, "geometry": { "type": "Point", "coordinates": [ -2.391609504504985, 53.387359745316616 ] } },
{ "type": "Feature", "properties": { "access_type": "Motor Vehicle And Pedestrian", "area_code": "E08000009", "area_name": "Trafford" }, "geometry": { "type": "Point", "coordinates": [ -2.391791990683412, 53.387371370785168 ] } },
{ "type": "Feature", "properties": { "access_type": "Motor Vehicle And Pedestrian", "area_code": "E08000009", "area_name": "Trafford" }, "geometry": { "type": "Point", "coordinates": [ -2.362635972335046, 53.387497075849957 ] } },
{ "type": "Feature", "properties": { "access_type": "Motor Vehicle And Pedestrian", "area_code": "E08000009", "area_name": "Trafford" }, "geometry": { "type": "Point", "coordinates": [ -2.392336772924985, 53.387458478297305 ] } },
{ "type": "Feature", "properties": { "access_type": "Motor Vehicle And Pedestrian", "area_code": "E08000009", "area_name": "Trafford" }, "geometry": { "type": "Point", "coordinates": [ -2.378229952011552, 53.387630231158674 ] } },
{ "type": "Feature", "properties": { "access_type": "Pedestrian", "area_code": "E08000009", "area_name": "Trafford" }, "geometry": { "type": "Point", "coordinates": [ -2.391891387913808, 53.387700028451277 ] } },
{ "type": "Feature", "properties": { "access_type": "Pedestrian", "area_code": "E08000009", "area_name": "Trafford" }, "geometry": { "type": "Point", "coordinates": [ -2.362698127864082, 53.387892925841747 ] } },
{ "type": "Feature", "properties": { "access_type": "Pedestrian", "area_code": "E08000009", "area_name": "Trafford" }, "geometry": { "type": "Point", "coordinates": [ -2.361663665264577, 53.388139298291513 ] } },
{ "type": "Feature", "properties": { "access_type": "Pedestrian", "area_code": "E08000009", "area_name": "Trafford" }, "geometry": { "type": "Point", "coordinates": [ -2.352799285077711, 53.388434958840904 ] } },
{ "type": "Feature", "properties": { "access_type": "Pedestrian", "area_code": "E08000009", "area_name": "Trafford" }, "geometry": { "type": "Point", "coordinates": [ -2.353089517909653, 53.388766948991254 ] } },
{ "type": "Feature", "properties": { "access_type": "Pedestrian", "area_code": "E08000009", "area_name": "Trafford" }, "geometry": { "type": "Point", "coordinates": [ -2.352997345506191, 53.388893781544603 ] } },
{ "type": "Feature", "properties": { "access_type": "Pedestrian", "area_code": "E08000009", "area_name": "Trafford" }, "geometry": { "type": "Point", "coordinates": [ -2.352972422952029, 53.388898259704305 ] } },
{ "type": "Feature", "properties": { "access_type": "Pedestrian", "area_code": "E08000009", "area_name": "Trafford" }, "geometry": { "type": "Point", "coordinates": [ -2.355734088421237, 53.390594480117358 ] } },
{ "type": "Feature", "properties": { "access_type": "Pedestrian", "area_code": "E08000009", "area_name": "Trafford" }, "geometry": { "type": "Point", "coordinates": [ -2.357015085489682, 53.390706517260945 ] } },
{ "type": "Feature", "properties": { "access_type": "Pedestrian", "area_code": "E08000009", "area_name": "Trafford" }, "geometry": { "type": "Point", "coordinates": [ -2.353936520878559, 53.391578417104711 ] } }
]
}
