{
"type": "FeatureCollection",
"name": "trafford_metrolink_stops_styled",
"crs": { "type": "name", "properties": { "name": "urn:ogc:def:crs:OGC:1.3:CRS84" } },
"features": [
{ "type": "Feature", "properties": { "name": "Altrincham", "area_code": "E05015239", "area_name": "Altrincham", "marker-color": "#fc6721", "marker-size": "medium" }, "geometry": { "type": "Point", "coordinates": [ -2.34727738027411, 53.387435175417593 ] } },
{ "type": "Feature", "properties": { "name": "Brooklands", "area_code": "E05015243", "area_name": "Brooklands", "marker-color": "#fc6721", "marker-size": "medium" }, "geometry": { "type": "Point", "coordinates": [ -2.326108825309977, 53.417085372184602 ] } },
{ "type": "Feature", "properties": { "name": "Dane Road", "area_code": "E05015254", "area_name": "Sale Central", "marker-color": "#fc6721", "marker-size": "medium" }, "geometry": { "type": "Point", "coordinates": [ -2.311325036366532, 53.430293095195033 ] } },
{ "type": "Feature", "properties": { "name": "Barton Dock Road", "area_code": "E05015251", "area_name": "Lostock & Barton", "marker-color": "#fc6721", "marker-size": "medium" }, "geometry": { "type": "Point", "coordinates": [ -2.341996628550036, 53.465713847529678 ] } },
{ "type": "Feature", "properties": { "name": "Firswood", "area_code": "E05015250", "area_name": "Longford", "marker-color": "#fc6721", "marker-size": "medium" }, "geometry": { "type": "Point", "coordinates": [ -2.277718725123091, 53.451274351033369 ] } },
{ "type": "Feature", "properties": { "name": "Imperial War Museum", "area_code": "E05015247", "area_name": "Gorse Hill & Cornbrook", "marker-color": "#fc6721", "marker-size": "medium" }, "geometry": { "type": "Point", "coordinates": [ -2.296782314001699, 53.468576283913599 ] } },
{ "type": "Feature", "properties": { "name": "Navigation Road", "area_code": "E05015239", "area_name": "Altrincham", "marker-color": "#fc6721", "marker-size": "medium" }, "geometry": { "type": "Point", "coordinates": [ -2.343329535849601, 53.395707139751963 ] } },
{ "type": "Feature", "properties": { "name": "Old Trafford", "area_code": "E05015250", "area_name": "Longford", "marker-color": "#fc6721", "marker-size": "medium" }, "geometry": { "type": "Point", "coordinates": [ -2.284559311524542, 53.456417643152648 ] } },
{ "type": "Feature", "properties": { "name": "Parkway", "area_code": "E05015247", "area_name": "Gorse Hill & Cornbrook", "marker-color": "#fc6721", "marker-size": "medium" }, "geometry": { "type": "Point", "coordinates": [ -2.324392172775479, 53.468243797963993 ] } },
{ "type": "Feature", "properties": { "name": "Pomona", "area_code": "E05015247", "area_name": "Gorse Hill & Cornbrook", "marker-color": "#fc6721", "marker-size": "medium" }, "geometry": { "type": "Point", "coordinates": [ -2.277960239985361, 53.465187985958103 ] } },
{ "type": "Feature", "properties": { "name": "Stretford", "area_code": "E05015250", "area_name": "Longford", "marker-color": "#fc6721", "marker-size": "medium" }, "geometry": { "type": "Point", "coordinates": [ -2.303791977776251, 53.446069410435008 ] } },
{ "type": "Feature", "properties": { "name": "Sale", "area_code": "E05015254", "area_name": "Sale Central", "marker-color": "#fc6721", "marker-size": "medium" }, "geometry": { "type": "Point", "coordinates": [ -2.318851467516855, 53.424421675791748 ] } },
{ "type": "Feature", "properties": { "name": "Sale Water Park", "area_code": "E05015255", "area_name": "Sale Moor", "marker-color": "#fc6721", "marker-size": "medium" }, "geometry": { "type": "Point", "coordinates": [ -2.290827101320108, 53.428214519326104 ] } },
{ "type": "Feature", "properties": { "name": "Timperley", "area_code": "E05015242", "area_name": "Broadheath", "marker-color": "#fc6721", "marker-size": "medium" }, "geometry": { "type": "Point", "coordinates": [ -2.338256237980616, 53.404503494306283 ] } },
{ "type": "Feature", "properties": { "name": "Trafford Bar", "area_code": "E05015250", "area_name": "Longford", "marker-color": "#fc6721", "marker-size": "medium" }, "geometry": { "type": "Point", "coordinates": [ -2.277049638723108, 53.461828406906072 ] } },
{ "type": "Feature", "properties": { "name": "Intu Trafford Centre", "area_code": "E05015251", "area_name": "Lostock & Barton", "marker-color": "#fc6721", "marker-size": "medium" }, "geometry": { "type": "Point", "coordinates": [ -2.347798715552635, 53.467899272005837 ] } },
{ "type": "Feature", "properties": { "name": "Village", "area_code": "E05015247", "area_name": "Gorse Hill & Cornbrook", "marker-color": "#fc6721", "marker-size": "medium" }, "geometry": { "type": "Point", "coordinates": [ -2.309080979442526, 53.467385564704422 ] } },
{ "type": "Feature", "properties": { "name": "Wharfside", "area_code": "E05015247", "area_name": "Gorse Hill & Cornbrook", "marker-color": "#fc6721", "marker-size": "medium" }, "geometry": { "type": "Point", "coordinates": [ -2.287517036825778, 53.466217006235574 ] } }
]
}
