{
"type": "FeatureCollection",
"name": "trafford_train_stops",
"crs": { "type": "name", "properties": { "name": "urn:ogc:def:crs:OGC:1.3:CRS84" } },
"features": [
{ "type": "Feature", "properties": { "name": "Altrincham Interchange", "area_code": "E05015239", "area_name": "Altrincham" }, "geometry": { "type": "Point", "coordinates": [ -2.347158856214275, 53.387651247316583 ] } },
{ "type": "Feature", "properties": { "name": "Chassen Road", "area_code": "E05015246", "area_name": "Flixton" }, "geometry": { "type": "Point", "coordinates": [ -2.368172753811607, 53.446175848866332 ] } },
{ "type": "Feature", "properties": { "name": "Flixton", "area_code": "E05015246", "area_name": "Flixton" }, "geometry": { "type": "Point", "coordinates": [ -2.383508366713449, 53.443772572266489 ] } },
{ "type": "Feature", "properties": { "name": "Hale", "area_code": "E05015248", "area_name": "Hale" }, "geometry": { "type": "Point", "coordinates": [ -2.347490240649887, 53.378499857100998 ] } },
{ "type": "Feature", "properties": { "name": "Humphrey Park", "area_code": "E05015251", "area_name": "Lostock & Barton" }, "geometry": { "type": "Point", "coordinates": [ -2.327718559442145, 53.452253146819075 ] } },
{ "type": "Feature", "properties": { "name": "Manchester United Football Ground", "area_code": "E05015247", "area_name": "Gorse Hill & Cornbrook" }, "geometry": { "type": "Point", "coordinates": [ -2.290728034070792, 53.462182385275945 ] } },
{ "type": "Feature", "properties": { "name": "Navigation Road", "area_code": "E05015239", "area_name": "Altrincham" }, "geometry": { "type": "Point", "coordinates": [ -2.343329535849601, 53.395707139751963 ] } },
{ "type": "Feature", "properties": { "name": "Trafford Park", "area_code": "E05015247", "area_name": "Gorse Hill & Cornbrook" }, "geometry": { "type": "Point", "coordinates": [ -2.311699926901007, 53.454767886705795 ] } },
{ "type": "Feature", "properties": { "name": "Urmston", "area_code": "E05015259", "area_name": "Urmston" }, "geometry": { "type": "Point", "coordinates": [ -2.353796483922658, 53.448268704322082 ] } }
]
}
