name,activity,address,postcode,area_name,area_code,ward_code,ward_name,msoa_code,msoa_hcl_name,lsoa_code,lsoa_name,la_code,la_name,lon,lat
Luxury Leisure,Adult Gaming Centre,"Admiral, Admiral, Wellington House, 39 Piccadilly, Manchester",M1 1LQ,Manchester,E0800003,E05011376,Piccadilly,E02006912,Piccadilly & Ancoats,E01033653,Manchester 055B,E08000003,Manchester,-2.235736,53.481402
Luxury Leisure,Adult Gaming Centre,"Admiral, 9 Union Terrace, Bury Old Road, Salford",M7 4ZH,Salford,E0800006,E05013026,Kersal & Broughton Park,E02001166,Broughton Park,E01005651,Salford 010D,E08000006,Salford,-2.245864,53.512583
Luxury Leisure,Adult Gaming Centre,"Admiral, 47 Market Street, Bury",BL9 OBH,Bury,E0800002,NA,NA,NA,NA,NA,NA,NA,NA,NA,NA
Ashcroft Bookmakers Limited,Betting Shop,"Ashcroft Bookmakers Limited, 230A City Road, Wigan",WN5 0BG,Wigan,E08000010,E05015006,Pemberton,E02001297,Pemberton North,E01006398,Wigan 011D,E08000010,Wigan,-2.682552,53.544081
Benjamin Robert Holmes & Paulene Holmes,Betting Shop,"Bet Ben Bookmakers, 6 Chapel Walk, Middleton, Manchester",M24 4QB,Manchester,E0800003,E05014048,South Middleton,E02001155,Middleton Town & Rhodes,E01005546,Rochdale 024C,E08000005,Rochdale,-2.224724,53.544155
Done Brothers (Cash Betting) Limited,Betting Shop,"Betfred, 177-179 Langworthy Road, Salford",M6 5PW,Salford,E0800006,E05013036,Weaste & Seedley,E02001179,Langworthy Buile Hill,E01005657,Salford 023C,E08000006,Salford,-2.295173,53.486413
Done Brothers (Cash Betting) Limited,Betting Shop,"Betfred, 92-94 Liverpool Road, Irlam, Manchester",M44 6FN,Salford,E0800006,E05013025,Higher Irlam & Peel Green,E02001185,Higher Irlam,E01005641,Salford 029C,E08000006,Salford,-2.409927,53.452835
Done Brothers (Cash Betting) Limited,Betting Shop,"Betfred, 349 Stockport Road, Timperley, Altrincham",WA15 7UG,Trafford,E0800009,E05015257,Timperley Central,E02001281,Timperley South,E01006192,Trafford 023C,E08000009,Trafford,-2.318906,53.397499
Done Brothers (Cash Betting) Limited,Betting Shop,"Betfred, 890 Chester Road, Stretford, Manchester",M32 0PA,Trafford,E0800009,E05015247,Gorse Hill & Cornbrook,E02001261,Gorse Hill,E01006187,Trafford 003C,E08000009,Trafford,-2.299421,53.453953
Done Brothers (Cash Betting) Limited,Betting Shop,"Betfred, 9/9A Lostock Road, Urmston, Manchester",M41 0SU,Trafford,E0800009,E05015251,Lostock & Barton,E02001260,Trafford Park West & Kingsway Park,E01006118,Trafford 002C,E08000009,Trafford,-2.35454,53.458028
Done Brothers (Cash Betting) Limited,Betting Shop,"Betfred, 100 George Street, Altrincham",WA14 1RF,Trafford,E0800009,E05015239,Altrincham,E02001283,"Altrincham West, Dunham & Warburton",E01006075,Trafford 025B,E08000009,Trafford,-2.351329,53.386577
Done Brothers (Cash Betting) Limited,Betting Shop,"Betfred, 177-179 Stockport Road, Denton, Manchester",M34 6AQ,Tameside,E0800008,E05014523,Denton North East,E02001254,Denton East,E01005976,Tameside 026B,E08000008,Tameside,-2.110802,53.45116
Done Brothers (Cash Betting) Limited,Betting Shop,"Betfred, 100 Bolton Road, Atherton, Manchester",M46 9JY,Wigan,E08000010,E05014993,Atherton North,E02001308,Atherton South East & Tyldesley West,E01006291,Wigan 022B,E08000010,Wigan,-2.485461,53.526805
Done Brothers (Cash Betting) Limited,Betting Shop,"Betfred, 215A-217 Elliott Street, Tyldesley, Manchester",M29 8DG,Wigan,E08000010,E05015009,Tyldesley & Mosley Common,E02001311,Tyldesley North,E01006294,Wigan 025B,E08000010,Wigan,-2.463798,53.514191
Done Brothers (Cash Betting) Limited,Betting Shop,"Betfred, 73 Westleigh Lane, Leigh",WN7 5JE,Wigan,E08000010,E05015003,Leigh West,E02001313,Leigh North,E01006283,Wigan 027B,E08000010,Wigan,-2.526024,53.510851
Done Brothers (Cash Betting) Limited,Betting Shop,"Betfred, 6/8 King Street, Leigh",WN7 4LR,Wigan,E08000010,E05015001,Leigh Central & Higher Folds,E02001316,Leigh Central,E01006328,Wigan 030A,E08000010,Wigan,-2.519316,53.496388
Done Brothers (Cash Betting) Limited,Betting Shop,"Betfred, 16A Market Place, Hyde",SK14 2QU,Tameside,E0800008,E05014530,Hyde Godley,E02001256,Hyde South,E01006028,Tameside 028A,E08000008,Tameside,-2.077705,53.451384
Done Brothers (Cash Betting) Limited,Betting Shop,"Betfred, 26 Heath Street, Golborne, Warrington",WA3 3AD,Wigan,E08000010,E05014997,Golborne & Lowton West,E02001324,Golborne,E01006346,Wigan 038E,E08000010,Wigan,-2.598552,53.476443
Done Brothers (Cash Betting) Limited,Betting Shop,"Betfred, 51 Chapel Street, Leigh",WN7 2PB,Wigan,E08000010,E05015001,Leigh Central & Higher Folds,E02001317,Leigh East & Higher Folds,E01006332,Wigan 031E,E08000010,Wigan,-2.509735,53.495479
Done Brothers (Cash Betting) Limited,Betting Shop,"Betfred, 276-278 Liverpool Road, Eccles, Manchester",M30 0RZ,Salford,E0800006,E05013018,Barton & Winton,E02001183,Patricroft,E01005638,Salford 027D,E08000006,Salford,-2.35658,53.482111
Done Brothers (Cash Betting) Limited,Betting Shop,"Betfred, Unit 3,16-22 Oxford Street, Bolton",BL1 1RF,Bolton,E0800001,E05014832,Queens Park & Central,E02001005,Burnden & Great Lever,E01004817,Bolton 022E,E08000001,Bolton,-2.429875,53.579168
Done Brothers (Cash Betting) Limited,Betting Shop,"Betfred, 425-427 Wigan Road, Bolton",BL3 4QJ,Bolton,E0800001,E05014829,Hulton,E02001001,Heaton & Deane,E01004838,Bolton 018B,E08000001,Bolton,-2.467131,53.566203
Done Brothers (Cash Betting) Limited,Betting Shop,"Betfred, 86 St. Helens Road, Bolton",BL3 3NP,Bolton,E0800001,E05014833,Rumworth,E02001006,Rumworth South,E01004829,Bolton 023B,E08000001,Bolton,-2.448121,53.565007
Done Brothers (Cash Betting) Limited,Betting Shop,"Betfred, 26 Manchester Road, Bolton",BL4 8NZ,Bolton,E0800001,E05014830,Kearsley,E02001017,Kearsley & Stoneclough,E01004909,Bolton 034F,E08000001,Bolton,-2.37326,53.538642
Done Brothers (Cash Betting) Limited,Betting Shop,"Betfred, Unit 3/5 Courtletts House, 38 King Street West, Manchester",M3 2WZ,Manchester,E0800003,E05011361,Deansgate,E02006902,City Centre North & Collyhurst,E01033658,Manchester 054C,E08000003,Manchester,-2.249524,53.481437
Done Brothers (Cash Betting) Limited,Betting Shop,"Betfred, 29-31 Winter Hey Lane, Horwich, Bolton",BL6 7AD,Bolton,E0800001,E05014827,Horwich North,E02000987,Horwich North,E01004890,Bolton 004E,E08000001,Bolton,-2.547054,53.599391
Done Brothers (Cash Betting) Limited,Betting Shop,"Betfred, 124 Market Street, Farnworth, Bolton",BL4 9AE,Bolton,E0800001,E05014823,Farnworth South,E02001015,Farnworth South,E01004859,Bolton 032B,E08000001,Bolton,-2.393479,53.548393
Done Brothers (Cash Betting) Limited,Betting Shop,"Betfred, Unit 36B, Spindles Shopping Centre, Oldham",OL1 1HE,Oldham,E0800004,E05014650,Coldhurst,E02001121,Oldham Town South,E01005434,Oldham 024B,E08000004,Oldham,-2.114855,53.541103
Done Brothers (Cash Betting) Limited,Betting Shop,"Betfred, 1/3 Coalshaw Green Road, Chadderton, Oldham",OL9 8JW,Oldham,E0800004,E05014649,Chadderton South,E02001124,Chadderton South East,E01005344,Oldham 027C,E08000004,Oldham,-2.145326,53.52952
Done Brothers (Cash Betting) Limited,Betting Shop,"Betfred, 472-476 Halliwell Road, Bolton",BL1 8AN,Bolton,E0800001,E05014825,Halliwell,E02000994,Halliwell & Brownlow Fold,E01004865,Bolton 011D,E08000001,Bolton,-2.443978,53.594479
Done Brothers (Cash Betting) Limited,Betting Shop,"Betfred, 57 Market Street, Bolton",BL5 3AG,Bolton,E0800001,E05014837,Westhoughton South,E02001014,Westhoughton West,E01004936,Bolton 031C,E08000001,Bolton,-2.522222,53.548736
Done Brothers (Cash Betting) Limited,Betting Shop,"Betfred, 7 Yorkshire Street, Rochdale",OL16 1BH,Rochdale,E0800005,E05014036,Central Rochdale,E02001141,Central Rochdale & Mandale Park,E01005482,Rochdale 010C,E08000005,Rochdale,-2.158795,53.61721
Done Brothers (Cash Betting) Limited,Betting Shop,"Betfred, Market St/Foundry Street, Little Lever, Bolton",BL3 1HH,Bolton,E0800001,E05014831,Little Lever & Darcy Lever,E02001007,Little Lever,E01004911,Bolton 024A,E08000001,Bolton,-2.371909,53.561987
Done Brothers (Cash Betting) Limited,Betting Shop,"Betfred, 61-63 Halifax Road, Rochdale",OL12 9BA,Rochdale,E0800005,E05014036,Central Rochdale,E02001139,Wardleworth & Newbold Brow,E01005581,Rochdale 008B,E08000005,Rochdale,-2.142923,53.626371
Done Brothers (Cash Betting) Limited,Betting Shop,"Betfred, 12 Deansgate, Bolton",BL1 1BR,Bolton,E0800001,E05014832,Queens Park & Central,E02000999,Central Bolton,E01033217,Bolton 016E,E08000001,Bolton,-2.427542,53.579967
Done Brothers (Cash Betting) Limited,Betting Shop,"Betfred, 78 Bury Old Road, Manchester",M8 5BW,Manchester,E0800003,E05011360,Crumpsall,E02001052,Crumpsall South,E01005165,Manchester 008D,E08000003,Manchester,-2.246583,53.514325
Done Brothers (Cash Betting) Limited,Betting Shop,"Betfred, 344 Palatine Road, Manchester",M22 4HE,Manchester,E0800003,E05011374,Northenden,E02001090,Northenden,E01005268,Manchester 046C,E08000003,Manchester,-2.25715,53.408966
Done Brothers (Cash Betting) Limited,Betting Shop,"Betfred, 21 The Parade, Swinton, Manchester",M27 4BH,Salford,E0800006,E05013032,Swinton & Wardley,E02001161,Clifton,E01005672,Salford 005B,E08000006,Salford,-2.338573,53.512615
Done Brothers (Cash Betting) Limited,Betting Shop,"Betfred, 183 Kirkway, Middleton, Manchester",M24 1LW,Rochdale,E0800005,E05014048,South Middleton,E02001156,Alkrington,E01005545,Rochdale 025E,E08000005,Rochdale,-2.19261,53.537273
Done Brothers (Cash Betting) Limited,Betting Shop,"Betfred, 23 Long Street, Middleton, Manchester",M24 6UQ,Rochdale,E0800005,E05014046,North Middleton,E02001155,Middleton Town & Rhodes,E01005539,Rochdale 024B,E08000005,Rochdale,-2.196462,53.551664
Done Brothers (Cash Betting) Limited,Betting Shop,"Betfred, 133 Deansgate, Manchester",M3 3WR,Manchester,E0800003,E05011361,Deansgate,E02006902,City Centre North & Collyhurst,E01033658,Manchester 054C,E08000003,Manchester,-2.248055,53.479788
Done Brothers (Cash Betting) Limited,Betting Shop,"Betfred, Unit 1 Grove Village Parade, Stockport Road, Manchester",M13 0SH,Manchester,E0800003,E05011370,Longsight,E02006985,Longsight East,E01005234,Manchester 063A,E08000003,Manchester,-2.198545,53.455026
Done Brothers (Cash Betting) Limited,Betting Shop,"Betfred, 487 Wilmslow Road, Manchester",M20 4AN,Manchester,E0800003,E05011380,Withington,E02001084,Withington East,E01005304,Manchester 040B,E08000003,Manchester,-2.22798,53.434138
Done Brothers (Cash Betting) Limited,Betting Shop,"Betfred, 334 Platt Lane, Manchester",M14 7DA,Manchester,E0800003,E05011364,Fallowfield,E02001074,Fallowfield West & Whalley Range South,E01005178,Manchester 030A,E08000003,Manchester,-2.238557,53.446836
Done Brothers (Cash Betting) Limited,Betting Shop,"Betfred, 292-294 Claremont Road, Manchester",M14 4EP,Manchester,E0800003,E05011372,Moss Side,E02001069,Rusholme West & Moss Side East,E01034124,Manchester 025F,E08000003,Manchester,-2.23671,53.45306
Done Brothers (Cash Betting) Limited,Betting Shop,"Betfred, 7-9 Oldham Street, Manchester",M1 1LG,Manchester,E0800003,E05011376,Piccadilly,E02006902,City Centre North & Collyhurst,E01033667,Manchester 054E,E08000003,Manchester,-2.236916,53.481806
Done Brothers (Cash Betting) Limited,Betting Shop,"Betfred, 135-137 Chapman Street, Manchester",M18 8LY,Manchester,E0800003,E05011365,Gorton & Abbey Hey,E02001061,Openshaw & Gorton North,E01005189,Manchester 017D,E08000003,Manchester,-2.169882,53.464456
Done Brothers (Cash Betting) Limited,Betting Shop,"Betfred, 30 Haymarket Street, Bury",BL9 0AY,Bury,E0800002,E05014153,Bury East,E02001029,Buckley Wells & Fishpool,E01005027,Bury 011B,E08000002,Bury,-2.297872,53.592054
Done Brothers (Cash Betting) Limited,Betting Shop,"Betfred, 500 Manchester Road East, Little Hulton, Manchester",M38 9NS,Salford,E0800006,E05013034,Walkden North,E02001158,Walkden North West,E01005704,Salford 002B,E08000006,Salford,-2.421842,53.53058
Done Brothers (Cash Betting) Limited,Betting Shop,"Betfred, 582-584 Bolton Road, Pendlebury, Swinton, Manchester",M27 4ET,Salford,E0800006,E05013029,Pendlebury & Clifton,E02001161,Clifton,E01005670,Salford 005A,E08000006,Salford,-2.330998,53.517599
Done Brothers (Cash Betting) Limited,Betting Shop,"Betfred, 192A-192B Liverpool Road, Cadishead, Manchester",M44 5DB,Salford,E0800006,E05013022,Cadishead & Lower Irlam,E02001186,Lower Irlam & Cadishead,E01005619,Salford 030D,E08000006,Salford,-2.439488,53.423715
Done Brothers (Cash Betting) Limited,Betting Shop,"Betfred, 5 Standfield Centre, Manchester",M28 1FB,Salford,E0800006,E05013020,Boothstown & Ellenbrook,E02001169,Ellenbrook & Boothstown,E01005734,Salford 013C,E08000006,Salford,-2.416095,53.503006
Done Brothers (Cash Betting) Limited,Betting Shop,"Betfred, 58 Coppice Avenue, Sale",M33 4WB,Trafford,E0800009,E05015252,Manor,E02001274,Ashton upon Mersey South,E01006152,Trafford 016C,E08000009,Trafford,-2.348768,53.415269
Done Brothers (Cash Betting) Limited,Betting Shop,"Betfred, Unit 3, Apex Centre, Water Street, Radcliffe, Manchester",M26 4DF,Bury,E0800002,E05014160,Radcliffe East,E02001034,Radcliffe,E01004996,Bury 016B,E08000002,Bury,-2.331026,53.563977
Done Brothers (Cash Betting) Limited,Betting Shop,"Betfred, 32 Gorton Road, Stockport",SK5 6AE,Stockport,E0800007,E05015033,Reddish North,E02001188,North Reddish,E01005893,Stockport 002C,E08000007,Stockport,-2.159418,53.438043
Done Brothers (Cash Betting) Limited,Betting Shop,"Betfred, Chapel Lane, Wigan",WN3 4HS,Wigan,E08000010,E05014996,Douglas,E02001301,Wigan South,E01006349,Wigan 015A,E08000010,Wigan,-2.631137,53.54004
Done Brothers (Cash Betting) Limited,Betting Shop,"Betfred, 92 Bradshawgate, Leigh",WN7 4NP,Wigan,E08000010,E05015001,Leigh Central & Higher Folds,E02001316,Leigh Central,E01006333,Wigan 030B,E08000010,Wigan,-2.514442,53.495951
Done Brothers (Cash Betting) Limited,Betting Shop,"Betfred, Unit 38B Spindles Shopping Centre, Oldham",OL1 1JG,Oldham,E0800004,E05014650,Coldhurst,E02001121,Oldham Town South,E01005434,Oldham 024B,E08000004,Oldham,-2.1149,53.541274
Done Brothers (Cash Betting) Limited,Betting Shop,"Betfred, 150 Blackburn Road, Bolton",BL1 8DR,Bolton,E0800001,E05014825,Halliwell,E02000999,Central Bolton,E01004822,Bolton 016B,E08000001,Bolton,-2.430573,53.591158
Done Brothers (Cash Betting) Limited,Betting Shop,"Betfred, 58 Moorgate, Bury",BL9 7AF,Bury,E0800002,E05014153,Bury East,E02001026,Fernhill & Pimhole,E01005024,Bury 008E,E08000002,Bury,-2.287797,53.596896
Done Brothers (Cash Betting) Limited,Betting Shop,"Betfred, 15 HaleTop, Civic Centre, Wythenshawe, Manchester",M22 5RP,Manchester,E0800003,E05011381,Woodhouse Park,E02001094,Benchill South & Wythenshawe Central,E01005291,Manchester 050E,E08000003,Manchester,-2.261464,53.379077
Done Brothers (Cash Betting) Limited,Betting Shop,"Betfred, 498-502 Liverpool Road, Manchester",M30 7HZ,Salford,E0800006,E05013018,Barton & Winton,E02001181,Peel Green,E01005729,Salford 025A,E08000006,Salford,-2.364765,53.478949
Done Brothers (Cash Betting) Limited,Betting Shop,"Betfred, Unit 15, North City Shoppping Centre, Lee Road, Manchester",M9 4DH,Manchester,E0800003,E05011366,Harpurhey,E02001050,Harpurhey North,E01005205,Manchester 006B,E08000003,Manchester,-2.211905,53.51263
Done Brothers (Cash Betting) Limited,Betting Shop,"Betfred, 6 Union Terrace, Bury Old Road, Salford",M7 4ZH,Salford,E0800006,E05013026,Kersal & Broughton Park,E02001166,Broughton Park,E01005651,Salford 010D,E08000006,Salford,-2.245864,53.512583
Done Brothers (Cash Betting) Limited,Betting Shop,"Betfred, 33 George Street, Manchester",M1 4HQ,Manchester,E0800003,E05011361,Deansgate,E02006912,Piccadilly & Ancoats,E01033653,Manchester 055B,E08000003,Manchester,-2.240602,53.478534
Done Brothers (Cash Betting) Limited,Betting Shop,"Betfred, 19 Warren Street, Stockport",SK1 1UD,Stockport,E0800007,E05015018,Brinnington & Stockport Central,E02001200,"Central Stockport, Portwood & Shaw Heath",E01033947,Stockport 014E,E08000007,Stockport,-2.157474,53.412663
Done Brothers (Cash Betting) Limited,Betting Shop,"Betfred, Unit 4, The Arcades, Warrington Street, Ashton-Under-Lyne",OL6 7JD,Tameside,E0800008,E05014535,St Peter's,E02001241,Ashton Central,E01005948,Tameside 013A,E08000008,Tameside,-2.096569,53.489346
Done Brothers (Cash Betting) Limited,Betting Shop,"Betfred, 43-44 Hankinson Way, Salford",M6 5JA,Salford,E0800006,E05013030,Pendleton & Charlestown,E02001173,Cromwell Road & Broad Street,E01005680,Salford 017B,E08000006,Salford,-2.286704,53.488797
Done Brothers (Cash Betting) Limited,Betting Shop,"Betfred, 835-837 Stockport Road, Manchester",M19 3PW,Manchester,E0800003,E05011369,Levenshulme,E02001075,Levenshulme Central,E01005221,Manchester 031C,E08000003,Manchester,-2.191328,53.443894
Done Brothers (Cash Betting) Limited,Betting Shop,"Betfred, 10 Mosley Street, Manchester",M2 3AQ,Manchester,E0800003,E05011361,Deansgate,E02006902,City Centre North & Collyhurst,E01033658,Manchester 054C,E08000003,Manchester,-2.239365,53.480901
Done Brothers (Cash Betting) Limited,Betting Shop,"Betfred, 14 Nicholas Street, Manchester",M1 4EJ,Manchester,E0800003,E05011361,Deansgate,E02006912,Piccadilly & Ancoats,E01033653,Manchester 055B,E08000003,Manchester,-2.240242,53.478321
Done Brothers (Cash Betting) Limited,Betting Shop,"Betfred, 586E & 586F Ashton New Road, Manchester",M11 4GS,Manchester,E0800003,E05011359,Clayton & Openshaw,E02001056,Clayton Vale,E01005094,Manchester 012B,E08000003,Manchester,-2.171789,53.481792
Done Brothers (Cash Betting) Limited,Betting Shop,"Betfred, 586a and 586f Ashton New Road, Manchester",M11 4SG,Manchester,E0800003,E05011359,Clayton & Openshaw,E02001059,"Beswick, Eastlands & Openshaw Park",E01033669,Manchester 015G,E08000003,Manchester,-2.186804,53.483306
Done Brothers (Cash Betting) Limited,Betting Shop,"Betfred, 6-10 Wallgate, Wigan",WN1 1JU,Wigan,E08000010,E05015010,Wigan Central,E02001294,Wigan Central,E01006369,Wigan 008C,E08000010,Wigan,-2.632651,53.54544
Done Brothers (Cash Betting) Limited,Betting Shop,"Betfred, Unit5/6 Bryn Road, Ashton-in-Makerfield, Wigan",WN4 0AA,Wigan,E08000010,E05014995,Bryn with Ashton-in-Makerfield North,E02001318,Ashton-in-Makerfield North,E01006268,Wigan 032E,E08000010,Wigan,-2.64739,53.501569
Done Brothers (Cash Betting) Limited,Betting Shop,"Betfred, Unit 26, Chadderton Precinct, Middleton Road, Chadderton, Oldham",OL9 0LJ,Oldham,E0800004,E05014647,Chadderton Central,E02001114,Chadderton Central,E01005338,Oldham 017E,E08000004,Oldham,-2.140778,53.545228
Done Brothers (Cash Betting) Limited,Betting Shop,"Betfred, 399-401 Ormskirk Road, Wigan",WN5 9DH,Wigan,E08000010,E05014996,Douglas,E02001300,Pemberton South,E01006355,Wigan 014C,E08000010,Wigan,-2.6679,53.535532
Done Brothers (Cash Betting) Limited,Betting Shop,"Betfred, Unit 21-23  The Parade, Swinton, Manchester",M27 4BH,Salford,E0800006,E05013032,Swinton & Wardley,E02001161,Clifton,E01005672,Salford 005B,E08000006,Salford,-2.338573,53.512615
Done Brothers (Cash Betting) Limited,Betting Shop,"Betfred, 34 Bradshawgate, Leigh",WN7 4LA,Wigan,E08000010,E05015001,Leigh Central & Higher Folds,E02001316,Leigh Central,E01006333,Wigan 030B,E08000010,Wigan,-2.517038,53.496131
Done Brothers (Cash Betting) Limited,Betting Shop,"Betfred, Unit 150/151  Ellesmere Shopping Centre, Bolton Road, Worsley, Manchester",M28 3ZH,Salford,E0800006,E05013034,Walkden North,E02001158,Walkden North West,E01005708,Salford 002D,E08000006,Salford,-2.400383,53.525045
Done Brothers (Cash Betting) Limited,Betting Shop,"Betfred, 41 School Road, Sale",M33 7YE,Trafford,E0800009,E05015254,Sale Central,E02001273,Sale Central,E01006160,Trafford 015B,E08000009,Trafford,-2.322663,53.424978
Done Brothers (Cash Betting) Limited,Betting Shop,"Betfred, 3 Retail Development, Gerrard Street, Wigan",WN4 9AN,Wigan,E08000010,E05014990,Ashton-in-Makerfield South,E02001322,Ashton-in-Makerfield West,E01006223,Wigan 036A,E08000010,Wigan,-2.63676,53.4864
Done Brothers (Cash Betting) Limited,Betting Shop,"Betfred, 25 Deansgate, Bolton",BL1 1HG,Bolton,E0800001,E05014832,Queens Park & Central,E02001005,Burnden & Great Lever,E01004817,Bolton 022E,E08000001,Bolton,-2.428068,53.5795
Done Brothers (Cash Betting) Limited,Betting Shop,"Betfred, Unit 16C, Katherine Street, Arcades Shopping Centre, Ashton-Under-Lyne",OL6 7JE,Tameside,E0800008,E05014535,St Peter's,E02001241,Ashton Central,E01005948,Tameside 013A,E08000008,Tameside,-2.096538,53.48938
Done Brothers (Cash Betting) Limited,Betting Shop,"Betfred, Unit 16A, Katherine Street, Arcades Shopping Centre, Ashton-Under-Lyne",OL6 7JE,Tameside,E0800008,E05014535,St Peter's,E02001241,Ashton Central,E01005948,Tameside 013A,E08000008,Tameside,-2.096538,53.48938
Done Brothers (Cash Betting) Limited,Betting Shop,"Betfred, Unit 1, 192 Manchester Road, Kearsley, Bolton",BL4 8QR,Bolton,E0800001,E05014830,Kearsley,E02001017,Kearsley & Stoneclough,E01004903,Bolton 034A,E08000001,Bolton,-2.368796,53.537432
Done Brothers (Cash Betting) Limited,Betting Shop,"Betfred, 2 Bennett Street, Hyde",SK14 4TQ,Tameside,E0800008,E05014531,Hyde Newton,E02001248,Hyde North,E01006033,Tameside 020C,E08000008,Tameside,-2.076627,53.462889
Done Brothers (Cash Betting) Limited,Betting Shop,"Betfred, 101 Haughton Green Road, Denton, Manchester",M34 7GR,Tameside,E0800008,E05014524,Denton South,E02001257,Denton South,E01005983,Tameside 029E,E08000008,Tameside,-2.097754,53.441472
Done Brothers (Cash Betting) Limited,Betting Shop,"Betfred, Unit 30B, Cheadle Hulme Shopping Precinc, Cheadle",SK8 5AF,Stockport,E0800007,E05015020,Cheadle Hulme South,E02001216,Cheadle Hulme Orrishmere,E01005786,Stockport 030E,E08000007,Stockport,-2.189269,53.376914
Done Brothers (Cash Betting) Limited,Betting Shop,"Betfred, 236 Finney Lane, Heald Green, Cheadle",SK8 3QA,Stockport,E0800007,E05015025,Heald Green,E02001222,Heald Green West,E01005845,Stockport 036B,E08000007,Stockport,-2.232043,53.370178
Done Brothers (Cash Betting) Limited,Betting Shop,"Betfred, 392 Worsley Road, Eccles, Manchester",M30 8HQ,Salford,E0800006,E05013037,Worsley & Westwood Park,E02001175,Winton & Westwood,E01005726,Salford 019B,E08000006,Salford,-2.372816,53.491732
Done Brothers (Cash Betting) Limited,Betting Shop,"Betfred, Broughton Road, Salford",M6 6LS,Salford,E0800006,E05013030,Pendleton & Charlestown,E02001173,Cromwell Road & Broad Street,E01005683,Salford 017C,E08000006,Salford,-2.283855,53.493074
Done Brothers (Cash Betting) Limited,Betting Shop,"Betfred, 111 Princes Street, Stockport",SK1 1RW,Stockport,E0800007,E05015018,Brinnington & Stockport Central,E02001200,"Central Stockport, Portwood & Shaw Heath",E01033947,Stockport 014E,E08000007,Stockport,-2.16171,53.411058
Done Brothers (Cash Betting) Limited,Betting Shop,"Betfred, Unit 4 Radclyffe Park, Trafford Road, Salford",M5 3PH,Salford,E0800006,E05013028,Ordsall,E02006961,Ordsall West,E01032912,Salford 035B,E08000006,Salford,-2.280971,53.473981
Done Brothers (Cash Betting) Limited,Betting Shop,"Betfred, 33-35 Newport Street, Bolton",BL1 1NE,Bolton,E0800001,E05014832,Queens Park & Central,E02001005,Burnden & Great Lever,E01004817,Bolton 022E,E08000001,Bolton,-2.428873,53.577167
Done Brothers (Cash Betting) Limited,Betting Shop,"Betfred, 153 Moorcroft Road, Manchester",M23 0AE,Manchester,E0800003,E05011353,Brooklands,E02001088,Northern Moor,E01005115,Manchester 044A,E08000003,Manchester,-2.2934,53.408478
Done Brothers (Cash Betting) Limited,Betting Shop,"Betfred, 83 Beswick Street, Manchester",M4 7HR,Manchester,E0800003,E05011350,Ancoats & Beswick,E02006984,New Islington South & Bradford,E01033688,Manchester 062B,E08000003,Manchester,-2.214126,53.483485
Done Brothers (Cash Betting) Limited,Betting Shop,"Betfred, 79 Erskine Street, Manchester",M15 4BS,Manchester,E0800003,E05011368,Hulme,E02001259,Old Trafford,E01034001,Trafford 001H,E08000003,Manchester,-2.260114,53.465759
Done Brothers (Cash Betting) Limited,Betting Shop,"Betfred, 1299-1301 Ashton Old Road, Manchester",M11 1JS,Manchester,E0800003,E05011359,Clayton & Openshaw,E02001061,Openshaw & Gorton North,E01034112,Manchester 017H,E08000003,Manchester,-2.162698,53.473003
Done Brothers (Cash Betting) Limited,Betting Shop,"Betfred, 62 Hathersage Road, Manchester",M13 0FE,Manchester,E0800003,E05011351,Ardwick,E02001066,Victoria Park & Longsight West,E01034119,Manchester 022H,E08000003,Manchester,-2.215558,53.460156
Done Brothers (Cash Betting) Limited,Betting Shop,"Betfred, 582a Hyde Road, Manchester",M18 7EE,Manchester,E0800003,E05011365,Gorton & Abbey Hey,E02001067,Gorton South,E01005197,Manchester 023C,E08000003,Manchester,-2.173586,53.460961
Done Brothers (Cash Betting) Limited,Betting Shop,"Betfred, 5-6 Eldon Precinct, Oldham",OL8 1JP,Oldham,E0800004,E05014646,Alexandra,E02001121,Oldham Town South,E01005434,Oldham 024B,E08000004,Oldham,-2.115052,53.53606
Done Brothers (Cash Betting) Limited,Betting Shop,"Betfred, Unit 2 Mayfiled Public House, Albert Royds Street, Rochdale",OL16 2UE,Rochdale,E0800005,E05014047,Smallbridge & Firgrove,E02001135,Hurstead & Smallbridge,E01005579,Rochdale 004B,E08000005,Rochdale,-2.133445,53.622329
Done Brothers (Cash Betting) Limited,Betting Shop,"Betfred, 820-822 Manchester Road, Rochdale",OL11 3AW,Rochdale,E0800005,E05014035,Castleton,E02001148,Castleton & Trub,E01005477,Rochdale 017B,E08000005,Rochdale,-2.180229,53.592559
Done Brothers (Cash Betting) Limited,Betting Shop,"Betfred, 80 Bury Street, Heywood",OL10 4QT,Rochdale,E0800005,E05014051,West Heywood,E02001149,Heywood Town,E01005505,Rochdale 018E,E08000005,Rochdale,-2.23405,53.593331
Done Brothers (Cash Betting) Limited,Betting Shop,"Betfred, 106 Manchester Street, Heywood",OL10 1DW,Rochdale,E0800005,E05014045,North Heywood,E02001149,Heywood Town,E01005501,Rochdale 018B,E08000005,Rochdale,-2.211868,53.589642
Done Brothers (Cash Betting) Limited,Betting Shop,"Betfred, 307-309 Littleton Road, Salford",M7 3TA,Salford,E0800006,E05013026,Kersal & Broughton Park,E02001167,Kersal Dale,E01005653,Salford 011D,E08000006,Salford,-2.280008,53.503968
Done Brothers (Cash Betting) Limited,Betting Shop,"Betfred, 333-335 Bolton Road, Salford",M6 7GU,Salford,E0800006,E05013023,Claremont,E02001173,Cromwell Road & Broad Street,E01005624,Salford 017A,E08000006,Salford,-2.30675,53.499318
Done Brothers (Cash Betting) Limited,Betting Shop,"Betfred, 110 Monton Road, Eccles, Manchester",M30 9PY,Salford,E0800006,E05013024,Eccles,E02001176,Eccles,E01005634,Salford 020D,E08000006,Salford,-2.351682,53.49124
Done Brothers (Cash Betting) Limited,Betting Shop,"Betfred, 64 Church Street, Eccles, Manchester",M30 0DA,Salford,E0800006,E05013024,Eccles,E02001176,Eccles,E01005631,Salford 020A,E08000006,Salford,-2.336019,53.483365
Done Brothers (Cash Betting) Limited,Betting Shop,"Betfred, 80 Pendleton Way, Salford",M6 5FW,Salford,E0800006,E05013030,Pendleton & Charlestown,E02001173,Cromwell Road & Broad Street,E01005680,Salford 017B,E08000006,Salford,-2.289026,53.488703
Done Brothers (Cash Betting) Limited,Betting Shop,"Betfred, 101 London Road, Hazel Grove, Stockport",SK7 4AX,Stockport,E0800007,E05015024,Hazel Grove,E02001217,Hazel Grove North,E01005838,Stockport 031C,E08000007,Stockport,-2.124588,53.382382
Done Brothers (Cash Betting) Limited,Betting Shop,"Betfred, 3 Fiveways Parade, Hazel Grove, Stockport",SK7 6DG,Stockport,E0800007,E05015031,Norbury & Woodsmoor,E02001221,Hazel Grove East & South,E01005805,Stockport 035A,E08000007,Stockport,-2.114222,53.367913
Done Brothers (Cash Betting) Limited,Betting Shop,"Betfred, Unit 40, The Arcades, Warrington Street, Ashton-Under-Lyne",OL6 7JD,Tameside,E0800008,E05014535,St Peter's,E02001241,Ashton Central,E01005948,Tameside 013A,E08000008,Tameside,-2.096569,53.489346
Done Brothers (Cash Betting) Limited,Betting Shop,"Betfred, 175 Chorlton Road, Manchester",M16 7WS,Trafford,E0800009,E05015253,Old Trafford,E02001259,Old Trafford,E01006109,Trafford 001A,E08000009,Trafford,-2.257935,53.45913
Done Brothers (Cash Betting) Limited,Betting Shop,"Betfred, 107 Ayres Road, Manchester",M16 7GS,Trafford,E0800009,E05015253,Old Trafford,E02001259,Old Trafford,E01006110,Trafford 001B,E08000009,Trafford,-2.267615,53.458434
Done Brothers (Cash Betting) Limited,Betting Shop,"Betfred, 115-117 Scholes Precinct, Wigan",WN1 3SD,Wigan,E08000010,E05015000,Ince,E02001295,Wigan East,E01006386,Wigan 009C,E08000010,Wigan,-2.622417,53.546357
Done Brothers (Cash Betting) Limited,Betting Shop,"Betfred, 83 Market Street, Hindley, Wigan",WN2 3AE,Wigan,E08000010,E05014998,Hindley,E02001299,Hindley West,E01006272,Wigan 013C,E08000010,Wigan,-2.577019,53.536257
Done Brothers (Cash Betting) Limited,Betting Shop,"Betfred, 22 Wallgate, Wigan",WN1 1JU,Wigan,E08000010,E05015010,Wigan Central,E02001294,Wigan Central,E01006369,Wigan 008C,E08000010,Wigan,-2.632651,53.54544
Done Brothers (Cash Betting) Limited,Betting Shop,"Betfred, 236 Scholes, Wigan",WN1 3NH,Wigan,E08000010,E05015010,Wigan Central,E02001295,Wigan East,E01006387,Wigan 009D,E08000010,Wigan,-2.620127,53.54967
Done Brothers (Cash Betting) Limited,Betting Shop,"Betfred, 9 Preston Road, Standish, Wigan",WN6 0HR,Wigan,E08000010,E05015008,Standish with Langtree,E02001288,Standish South,E01006238,Wigan 002E,E08000010,Wigan,-2.664161,53.586772
Done Brothers (Cash Betting) Limited,Betting Shop,"Betfred, 1 Derwent Road, Farnworth, Bolton",BL4 0QE,Bolton,E0800001,E05014823,Farnworth South,E02001016,Highfield & New Bury,E01004876,Bolton 033E,E08000001,Bolton,-2.429334,53.546409
Done Brothers (Cash Betting) Limited,Betting Shop,"Betfred, 1 Slater Street, Farnworth, Bolton",BL1 2HL,Bolton,E0800001,E05014825,Halliwell,E02000999,Central Bolton,E01004822,Bolton 016B,E08000001,Bolton,-2.430445,53.585954
Done Brothers (Cash Betting) Limited,Betting Shop,"Betfred, 7 Elms Square, Whitefield, Manchester",M45 7TA,Bury,E0800002,E05014168,Unsworth,E02001037,Whitefield West & Park Lane,E01004989,Bury 019C,E08000002,Bury,-2.296165,53.553193
Done Brothers (Cash Betting) Limited,Betting Shop,"Betfred, 168 Walmersley Road, Bury",BL9 6LL,Bury,E0800002,E05014157,Moorside,E02001026,Fernhill & Pimhole,E01004979,Bury 008C,E08000002,Bury,-2.290648,53.602437
Done Brothers (Cash Betting) Limited,Betting Shop,"Betfred, Unit 5 Radius Devt Longfield Centre, Prestwich, Manchester",M25 1AY,Bury,E0800002,E05014166,St. Mary's,E02001042,Prestwich Central,E01005036,Bury 024C,E08000002,Bury,-2.284226,53.532918
Done Brothers (Cash Betting) Limited,Betting Shop,"Betfred, 88 Rochdale Road, Bury",BL9 7AY,Bury,E0800002,E05014153,Bury East,E02001026,Fernhill & Pimhole,E01005024,Bury 008E,E08000002,Bury,-2.286592,53.5929
Done Brothers (Cash Betting) Limited,Betting Shop,"Betfred, 203 Manchester Road, Bury",BL9 9HL,Bury,E0800002,E05014164,Redvales,E02001029,Buckley Wells & Fishpool,E01005025,Bury 011A,E08000002,Bury,-2.298428,53.583019
Done Brothers (Cash Betting) Limited,Betting Shop,"Betfred, 322 Tottington Road, Bury",BL8 1TA,Bury,E0800002,E05014155,Elton,E02001027,Whitehead Park,E01004962,Bury 009C,E08000002,Bury,-2.321933,53.603191
Done Brothers (Cash Betting) Limited,Betting Shop,"Betfred, 11 Bridge Street, Ramsbottom, Bury",BL0 9AB,Bury,E0800002,E05014163,Ramsbottom,E02001019,Ramsbottom,E01005014,Bury 001A,E08000002,Bury,-2.31512,53.648025
Done Brothers (Cash Betting) Limited,Betting Shop,"Betfred, 130 Water Street, Radcliffe, Manchester",M26 4BE,Bury,E0800002,E05014162,Radcliffe West,E02001034,Radcliffe,E01004996,Bury 016B,E08000002,Bury,-2.334688,53.563113
Done Brothers (Cash Betting) Limited,Betting Shop,"Betfred, 7 Silver Street, Bury",BL9 0EU,Bury,E0800002,E05014153,Bury East,E02001029,Buckley Wells & Fishpool,E01005027,Bury 011B,E08000002,Bury,-2.298258,53.593212
Done Brothers (Cash Betting) Limited,Betting Shop,"Betfred, Unit 9, Lime Square, Ashton Old Road, Manchester",M11 1DA,Manchester,E0800003,E05011359,Clayton & Openshaw,E02001061,Openshaw & Gorton North,E01034111,Manchester 017G,E08000003,Manchester,-2.164901,53.473649
Done Brothers (Cash Betting) Limited,Betting Shop,"Betfred, Unit 4 Walthew Parade, Walthew Lane, Wigan",WN2 5AL,Wigan,E08000010,E05014989,Abram,E02001310,Platt Bridge & Spring View,E01006218,Wigan 024D,E08000010,Wigan,-2.598633,53.52078
Done Brothers (Cash Betting) Limited,Betting Shop,"Betfred, 15 Hale Top, Manchester",M22 5RB,Manchester,E0800003,E05011381,Woodhouse Park,E02001094,Benchill South & Wythenshawe Central,E01005291,Manchester 050E,E08000003,Manchester,-2.263376,53.379515
Done Brothers (Cash Betting) Limited,Betting Shop,"Betfred, 35 Market Street, Bury",BL9 0BL,Bury,E0800002,E05014153,Bury East,E02001026,Fernhill & Pimhole,E01005024,Bury 008E,E08000002,Bury,-2.29671,53.592291
Shipley Brothers Limited,Bingo,"Bj's Bingo, Ellesmere Street, Leigh",WN7 4LQ,Wigan,E08000010,E05015001,Leigh Central & Higher Folds,E02001316,Leigh Central,E01006333,Wigan 030B,E08000010,Wigan,-2.519126,53.494376
BoyleSports (UK) Limited,Betting Shop,"Boylesports, 49 Old Church Street, Newton Heath,, Manchester",M40 2JN,Manchester,E0800003,E05011371,Miles Platting & Newton Heath,E02001055,Newton Heath,E01005256,Manchester 011A,E08000003,Manchester,-2.1804,53.501131
BoyleSports (UK) Limited,Betting Shop,"Boylesports, 585b Wilbraham Road, Manchester",M21 9AF,Manchester,E0800003,E05011358,Chorlton Park,E02001073,Chorlton North,E01005150,Manchester 029A,E08000003,Manchester,-2.277555,53.44233
Merkur Slots UK Limited,Bingo,"Cashino Gaming Limited, Merkur Slots, 196 Deane Road, Bolton",BL3 5DP,Bolton,E0800001,E05014833,Rumworth,E02001004,Rumworth North,E01004849,Bolton 021B,E08000001,Bolton,-2.444008,53.573058
Cheshire Sporting Club Limited,Casino,"Cheshire Sporting Club Limited, Dickinson House, Dickinson Street, Manchester",M1 4LF,Manchester,E0800003,E05011376,Piccadilly,E02006914,University North & Whitworth Street,E01033662,Manchester 057C,E08000003,Manchester,-2.240634,53.476179
Fraser Capital Management Limited,Bingo,"Club 3000 Bingo, Bolton Road, Walkden, Manchester",M28 3TZ,Salford,E0800006,E05013034,Walkden North,E02001158,Walkden North West,E01005708,Salford 002D,E08000006,Salford,-2.400305,53.525098
Fraser Capital Management Limited,Bingo,"Club 3000 Bingo, Arndale Centre, Middleton, Manchester",M24 4EL,Rochdale,E0800005,E05014048,South Middleton,E02001155,Middleton Town & Rhodes,E01005548,Rochdale 024E,E08000005,Rochdale,-2.201051,53.548242
Fraser Capital Management Limited,Bingo,"Club 3000 Bingo, 601 Chester Road, Manchester",M16 0QW,Trafford,E0800009,E05015247,Gorse Hill & Cornbrook,E02001259,Old Trafford,E01006188,Trafford 001F,E08000009,Trafford,-2.276587,53.46245
Fraser Capital Management Limited,Bingo,"Club 3000 Bingo, 477 Hyde Road, Manchester",M12 5FL,Manchester,E0800003,E05011365,Gorton & Abbey Hey,E02001064,Belle Vue & West Gorton,E01005067,Manchester 020A,E08000003,Manchester,-2.194738,53.465218
Ladbrokes Betting & Gaming Limited,Betting Shop,"Coral, Winstanley District Centre, Holmes House Avenue, Wigan",WN3 6JA,Wigan,E08000010,E05015012,Winstanley,E02001307,Winstanley,E01006393,Wigan 021A,E08000010,Wigan,-2.669851,53.521481
Ladbrokes Betting & Gaming Limited,Betting Shop,"Coral Racing Limited, Unit 1, 26 Warrington Street, The Old Post Office, Ashton-Under-Lyne",OL6 6AS,Tameside,E0800008,E05014535,St Peter's,E02001241,Ashton Central,E01005948,Tameside 013A,E08000008,Tameside,-2.093129,53.487776
Ladbrokes Betting & Gaming Limited,Betting Shop,"Coral Racing Limited, Unit 61, Ellesmere Shopping Centre, Bolton Road, Worsley, Manchester",M28 3ZD,Salford,E0800006,E05013034,Walkden North,E02001158,Walkden North West,E01005708,Salford 002D,E08000006,Salford,-2.40026,53.525062
Ladbrokes Betting & Gaming Limited,Betting Shop,"Coral Racing Limited, 35-37 Church Street, Eccles, Manchester",M30 0BJ,Salford,E0800006,E05013024,Eccles,E02001176,Eccles,E01005631,Salford 020A,E08000006,Salford,-2.335464,53.483609
Ladbrokes Betting & Gaming Limited,Betting Shop,"Coral Racing Limited, 378 Thetford, Rochdale",OL12 6RB,Rochdale,E0800005,E05014049,Spotland & Falinge,E02001141,Central Rochdale & Mandale Park,E01005483,Rochdale 010D,E08000005,Rochdale,-2.163974,53.619711
Ladbrokes Betting & Gaming Limited,Betting Shop,"Coral Racing Limited, Unit 2 Failsworth Precinct, Sisson Street, Manchester",M35 0FF,Oldham,E0800004,E05014653,Failsworth West,E02001129,Failsworth West,E01005371,Oldham 032D,E08000004,Oldham,-2.15851,53.509511
Ladbrokes Betting & Gaming Limited,Betting Shop,"Coral Racing Limited, 12-14 Gerard Street, Ashton-In-Makerfield, Wigan",WN4 9AA,Wigan,E08000010,E05014990,Ashton-in-Makerfield South,E02001322,Ashton-in-Makerfield West,E01006223,Wigan 036A,E08000010,Wigan,-2.637166,53.487299
Ladbrokes Betting & Gaming Limited,Betting Shop,"Coral Racing Limited, 64 Market Street, Hindley, Wigan",WN2 3AN,Wigan,E08000010,E05014998,Hindley,E02001299,Hindley West,E01006272,Wigan 013C,E08000010,Wigan,-2.577516,53.536158
Ladbrokes Betting & Gaming Limited,Betting Shop,"Coral Racing Limited, 21 The Precinct, Compstall Road, Romley, Stockport",SK6 4EA,Stockport,E0800007,E05015017,Bredbury Green & Romiley,E02001196,Romiley & Compstall,E01005900,Stockport 010C,E08000007,Stockport,-2.08603,53.413777
Ladbrokes Betting & Gaming Limited,Betting Shop,"Coral Racing Limited, Unit 2 Market Square, Royton Precinct, Oldham",OL2 5QD,Oldham,E0800004,E05014656,Royton North,E02001105,Royton South West,E01005392,Oldham 008B,E08000004,Oldham,-2.123391,53.566125
Ladbrokes Betting & Gaming Limited,Betting Shop,"Coral Racing Limited, 7 Chapel Street, Guide Lane Precinct, Audenshaw, Manchester",M34 5DE,Tameside,E0800008,E05014535,St Peter's,E02001247,Guide Bridge,E01005965,Tameside 019C,E08000008,Tameside,-2.112008,53.46874
Ladbrokes Betting & Gaming Limited,Betting Shop,"Coral Racing Limited, 478 Didsbury Road, Heaton Mersey, Stockport",SK4 3BS,Stockport,E0800007,E05015027,Heatons South,E02001199,Heaton Mersey,E01005852,Stockport 013A,E08000007,Stockport,-2.205509,53.412338
Ladbrokes Betting & Gaming Limited,Betting Shop,"Coral Racing Limited, 45-47 Grosvenor Street, Stalybridge",SK15 2JN,Tameside,E0800008,E05014529,Dukinfield Stalybridge,E02001243,Stalybridge South,E01006022,Tameside 015A,E08000008,Tameside,-2.056935,53.481282
Ladbrokes Betting & Gaming Limited,Betting Shop,"Coral Racing Limited, 95 Church Lane, Marple, Stockport",SK6 7AW,Stockport,E0800007,E05015030,Marple South & High Lane,E02001206,Marple & Rose Hill,E01005885,Stockport 020E,E08000007,Stockport,-2.06596,53.393664
Ladbrokes Betting & Gaming Limited,Betting Shop,"Coral Racing Limited, 290-292 Bury Road, Bolton",BL2 6AY,Bolton,E0800001,E05014835,Tonge with the Haulgh,E02001000,Tonge,E01004932,Bolton 017F,E08000001,Bolton,-2.406176,53.580331
Ladbrokes Betting & Gaming Limited,Betting Shop,"Coral Racing Limited, 44-46 Firs Lane, Leigh",WN7 4SB,Wigan,E08000010,E05015003,Leigh West,E02001319,Leigh West,E01006324,Wigan 033B,E08000010,Wigan,-2.534111,53.498157
Ladbrokes Betting & Gaming Limited,Betting Shop,"Coral Racing Limited, 252-254 Whiteacre Road, Ashton-Under-Lyne",OL6 9QB,Tameside,E0800008,E05014520,Ashton St Michael's,E02001232,Hurst Cross,E01005947,Tameside 004E,E08000008,Tameside,-2.080017,53.495632
Ladbrokes Betting & Gaming Limited,Betting Shop,"Coral Racing Limited, 240 Kings road, Hurst Cross, Ashton-Under-Lyne",OL6 8HD,Tameside,E0800008,E05014519,Ashton Hurst,E02001234,Smallshaw,E01005935,Tameside 006C,E08000008,Tameside,-2.079438,53.500414
Ladbrokes Betting & Gaming Limited,Betting Shop,"Coral Racing Limited, 205 Bramhall Lane, Stockport",SK2 6JA,Stockport,E0800007,E05015022,Davenport & Cale Green,E02001213,Woodsmoor & Mile End,E01005798,Stockport 027A,E08000007,Stockport,-2.152623,53.394278
Ladbrokes Betting & Gaming Limited,Betting Shop,"Coral Racing Limited, 7 Smithy Green, Ince, Wigan",WN2 2AT,Wigan,E08000010,E05015000,Ince,E02001298,Ince-in-Makerfield,E01006308,Wigan 012B,E08000010,Wigan,-2.605954,53.543298
Ladbrokes Betting & Gaming Limited,Betting Shop,"Coral Racing Limited, 6 Partington Street, Failsworth, Manchester",M35 9RD,Oldham,E0800004,E05014652,Failsworth East,E02001129,Failsworth West,E01005363,Oldham 032A,E08000004,Oldham,-2.154089,53.508537
Ladbrokes Betting & Gaming Limited,Betting Shop,"Coral Racing Limited, 42-44 Wallgate, Wigan",WN1 1JU,Wigan,E08000010,E05015010,Wigan Central,E02001294,Wigan Central,E01006369,Wigan 008C,E08000010,Wigan,-2.632651,53.54544
Ladbrokes Betting & Gaming Limited,Betting Shop,"Coral Racing Limited, Unit 18 Princess Parade, Bury",BL9 0QL,Bury,E0800002,E05014153,Bury East,E02001026,Fernhill & Pimhole,E01005024,Bury 008E,E08000002,Bury,-2.295258,53.591649
Corbett Bookmakers Limited,Betting Shop,"Corbett Bookmakers Limited, 445 Gidlow Lane, Wigan",WN6 7PN,Wigan,E08000010,E05015011,Wigan West,E02001291,Beech Hill,E01006255,Wigan 005C,E08000010,Wigan,-2.645649,53.559566
BoyleSports (UK) Limited,Bingo,"Cosmo Bingo, Bingo Club 2- 62 Market Street, Stalybridge",SK15 2AB,Tameside,E0800008,E05014536,Stalybridge North,E02001236,Stalybridge North,E01006060,Tameside 008A,E08000008,Tameside,-2.057527,53.483942
David Pluck (North West) Limited,Betting Shop,"David Pluck Racing, 481 Cheetham Hill Road, Manchester",M8 9LR,Manchester,E0800003,E05011356,Cheetham,E02001052,Crumpsall South,E01005145,Manchester 008A,E08000003,Manchester,-2.241585,53.507917
David Pluck (North West) Limited,Betting Shop,"David Pluck Racing, 11 -13 Lansdowne Road, Crumpsall, Manchester",M8 5SF,Manchester,E0800003,E05011360,Crumpsall,E02001052,Crumpsall South,E01005166,Manchester 008E,E08000003,Manchester,-2.236784,53.515304
David Pluck (North West) Limited,Betting Shop,"David Pluck Racing, 555 Stockport Road, Manchester",M12 4JH,Manchester,E0800003,E05011370,Longsight,E02001064,Belle Vue & West Gorton,E01005232,Manchester 020C,E08000003,Manchester,-2.200288,53.457101
David Pluck (North West) Limited,Betting Shop,"David Pluck Racing, Unit 1 28-36 Melbourne Street, Stalybridge",SK15 2JJ,Tameside,E0800008,E05014529,Dukinfield Stalybridge,E02001243,Stalybridge South,E01006022,Tameside 015A,E08000008,Tameside,-2.057161,53.482125
David Pluck (North West) Limited,Betting Shop,"David Pluck Racing, 141 Northenden Road, Sale",M33 3HF,Trafford,E0800009,E05015255,Sale Moor,E02001272,Sale East,E01006174,Trafford 014D,E08000009,Trafford,-2.304527,53.420287
David Pluck (North West) Limited,Betting Shop,"David Pluck Racing, 14-16 Market Street, Heywood",OL10 4LY,Rochdale,E0800005,E05014045,North Heywood,E02001149,Heywood Town,E01005501,Rochdale 018B,E08000005,Rochdale,-2.222644,53.593881
David Pluck (North West) Limited,Betting Shop,"David Pluck Racing, 12 Northenden Road, Sale",M33 3BR,Trafford,E0800009,E05015254,Sale Central,E02001273,Sale Central,E01006161,Trafford 015C,E08000009,Trafford,-2.316951,53.423816
David Pluck (North West) Limited,Betting Shop,"David Pluck Racing, 130-132 Market Street, Droylsden, Manchester",M43 7AA,Tameside,E0800008,E05014526,Droylsden East,E02001238,Droylsden East,E01006000,Tameside 010E,E08000008,Tameside,-2.144872,53.480309
David Pluck (North West) Limited,Betting Shop,"David Pluck Racing, 349 Buxton Road, Stockport",SK2 7NL,Stockport,E0800007,E05015032,Offerton,E02001213,Woodsmoor & Mile End,E01005830,Stockport 027E,E08000007,Stockport,-2.136591,53.388815
David Pluck (North West) Limited,Betting Shop,"David Pluck Racing, Unit 2, 683-693 Wilmslow Road, Manchester",M20 6RE,Manchester,E0800003,E05011362,Didsbury East,E02001087,Didsbury Village,E01005176,Manchester 043E,E08000003,Manchester,-2.231334,53.417088
Grosvenor Casinos Limited,Casino,"Didsbury Grosvenor Casino, Parrswood Entertainment Centre, Kingsway, Wilmslow Road, Manchester",M20 5PG,Manchester,E0800003,E05011362,Didsbury East,E02001089,East Didsbury,E01005171,Manchester 045E,E08000003,Manchester,-2.219511,53.408664
Buzz Group Limited,Bingo,"Gala Bingo, Area 1, Crompton Street, Wigan",WN1 1YP,Wigan,E08000010,E05015010,Wigan Central,E02001292,Wigan Marylebone & Bottling Wood,E01006370,Wigan 006A,E08000010,Wigan,-2.629563,53.547928
Buzz Group Limited,Bingo,"Gala Bingo, Area 1, 8 Anjou Boulevard, Robin Park, Wigan",WN5 0UJ,Wigan,E08000010,E05014996,Douglas,E02001301,Wigan South,E01006352,Wigan 015B,E08000010,Wigan,-2.656932,53.546319
Buzz Group Limited,Bingo,"Gala Bingo, 108 Wellington Road, Ashton-Under-Lyne",OL6 6DJ,Tameside,E0800008,E05014535,St Peter's,E02001241,Ashton Central,E01005948,Tameside 013A,E08000008,Tameside,-2.097734,53.491251
Buzz Group Limited,Bingo,"Gala Bingo, 30 Newbridge Lane, Stockport",SK1 2NA,Stockport,E0800007,E05015018,Brinnington & Stockport Central,E02001200,"Central Stockport, Portwood & Shaw Heath",E01033947,Stockport 014E,E08000007,Stockport,-2.150384,53.411369
Buzz Group Limited,Bingo,"Gala Bingo, Hankinson Way, Salford",M6 5JA,Salford,E0800006,E05013030,Pendleton & Charlestown,E02001173,Cromwell Road & Broad Street,E01005680,Salford 017B,E08000006,Salford,-2.286704,53.488797
Genting Casinos UK Limited,Casino,"Genting Casino, 36-38 St Petersgate, Stockport",K1 1HD,Stockport,E0800007,NA,NA,NA,NA,NA,NA,NA,NA,NA,NA
Genting Casinos UK Limited,Casino,"Genting Casino Bolton, Higher Bridge Street, Bolton",BL1 2HA,Bolton,E0800001,E05014832,Queens Park & Central,E02000999,Central Bolton,E01033217,Bolton 016E,E08000001,Bolton,-2.428633,53.583066
Genting Casinos UK Limited,Casino,"Genting Casino Manchester, 110-114 Portland Street (Premises licence number 099902), Manchester",M1 4RJ,Manchester,E0800003,E05011361,Deansgate,E02006914,University North & Whitworth Street,E01033662,Manchester 057C,E08000003,Manchester,-2.241725,53.47688
Genting Casinos UK Limited,Casino,"Genting Casino Salford, Cromwell Road, Castle Irwell, Salford",M6 6DA,Salford,E0800006,E05013030,Pendleton & Charlestown,E02001173,Cromwell Road & Broad Street,E01033981,Salford 017H,E08000006,Salford,-2.272209,53.498852
Genting Casinos UK Limited,Casino,"Genting Electric Manchester, 110-114 Portland Street (Premises licence number 099904), Manchester",M1 4RJ,Manchester,E0800003,E05011361,Deansgate,E02006914,University North & Whitworth Street,E01033662,Manchester 057C,E08000003,Manchester,-2.241725,53.47688
Grosvenor Casinos Limited,Casino,"Grosvenor Casino, Ormrod St, Bolton",BL3 5DJ,Bolton,E0800001,E05014832,Queens Park & Central,E02000999,Central Bolton,E01004848,Bolton 016D,E08000001,Bolton,-2.4334,53.575272
Grosvenor Casinos Limited,Adult Gaming Centre,"Grosvenor Casino-AGC, Ormrod Street, Bolton",BL3 5DJ,Bolton,E0800001,E05014832,Queens Park & Central,E02000999,Central Bolton,E01004848,Bolton 016D,E08000001,Bolton,-2.4334,53.575272
Harold Arthur Smith,Betting Shop,"Harold Smith Bookmakers, 3 Stone Cross Lane North, Lowton, Warrington",WA3 2SA,Wigan,E08000010,E05014997,Golborne & Lowton West,E02001325,Lowton,E01006348,Wigan 039E,E08000010,Wigan,-2.581607,53.474612
HMCWC Limited,Adult Gaming Centre,"Hearts Amusements, 32-36 Standishgate, Wigan",WN1 1UE,Wigan,E08000010,E05015010,Wigan Central,E02001294,Wigan Central,E01006369,Wigan 008C,E08000010,Wigan,-2.630552,53.547446
Inspired Gaming (UK) Limited,Adult Gaming Centre,"Inspired Gaming (UK) Limited, Voyager Amusements, Main Concourse, Landside Departures, Terminal One, Manchester Airport, Manchester",M90 1QX,Manchester,E0800003,E05011381,Woodhouse Park,E02001097,Woodhouse Park & Airport,E01005316,Manchester 053D,E08000003,Manchester,-2.270841,53.361881
Jay Bee Leisure (Leigh) Limited,Adult Gaming Centre,"Jay Bee Leisure, 66 Market Street, Atherton, Manchester",M46 0DP,Wigan,E08000010,E05014994,Atherton South & Lilford,E02001309,Atherton South West,E01006244,Wigan 023C,E08000010,Wigan,-2.4944,53.523604
Jay Bee Leisure (Leigh) Limited,Adult Gaming Centre,"Jay Bee Leisure, 55 Yorkshire Street, Rochdale",OL16 1BT,Rochdale,E0800005,E05014036,Central Rochdale,E02001141,Central Rochdale & Mandale Park,E01005482,Rochdale 010C,E08000005,Rochdale,-2.15756,53.618416
Ladbrokes Betting & Gaming Limited,Betting Shop,"Ladbrokes, 71 Cheetham Hill Road, Manchester",M4 4ES,Manchester,E0800003,E05011356,Cheetham,E02006913,Cheetham Hill,E01033655,Manchester 056B,E08000003,Manchester,-2.240893,53.492153
Ladbrokes Betting & Gaming Limited,Betting Shop,"Ladbrokes, 36 Stand Lane, Radcliffe, Manchester",M26 1LJ,Bury,E0800002,E05014160,Radcliffe East,E02001034,Radcliffe,E01005009,Bury 016E,E08000002,Bury,-2.323355,53.557859
Ladbrokes Betting & Gaming Limited,Betting Shop,"Ladbrokes, 221 Chapel Street, Leigh",WN7 2AP,Wigan,E08000010,E05015001,Leigh Central & Higher Folds,E02001320,Leigh South East,E01006335,Wigan 034E,E08000010,Wigan,-2.499796,53.492456
Ladbrokes Betting & Gaming Limited,Betting Shop,"Ladbrokes, Unit 6&7, Stone Street Precint, Newhey Road, Milnrow, Rochdale",OL16 4JD,Rochdale,E0800005,E05014043,Milnrow & Newhey,E02001144,Milnrow West,E01005560,Rochdale 013C,E08000005,Rochdale,-2.107009,53.607093
Ladbrokes Betting & Gaming Limited,Betting Shop,"Ladbrokes, 147-151 Tonge Moor Road, Bolton",BL2 2HR,Bolton,E0800001,E05014835,Tonge with the Haulgh,E02001000,Tonge,E01004928,Bolton 017C,E08000001,Bolton,-2.412742,53.589358
Ladbrokes Betting & Gaming Limited,Betting Shop,"Ladbrokes, 171-173 St. Helens Road, Bolton",BL3 3PS,Bolton,E0800001,E05014833,Rumworth,E02001006,Rumworth South,E01004829,Bolton 023B,E08000001,Bolton,-2.451334,53.563019
Ladbrokes Betting & Gaming Limited,Betting Shop,"Ladbrokes, 13 Belmont Road, Bolton",BL1 7AF,Bolton,E0800001,E05014818,Astley Bridge,E02000988,Astley Bridge & Waters Meeting,E01004766,Bolton 005A,E08000001,Bolton,-2.433279,53.601646
Ladbrokes Betting & Gaming Limited,Betting Shop,"Ladbrokes, 44 Bury Old Road, Manchester",M8 5BN,Manchester,E0800003,E05011360,Crumpsall,E02001052,Crumpsall South,E01005165,Manchester 008D,E08000003,Manchester,-2.245643,53.513401
Ladbrokes Betting & Gaming Limited,Betting Shop,"Ladbrokes, 11-13 Barlow Moor Road, Manchester",M20 6TN,Manchester,E0800003,E05011363,Didsbury West,E02001087,Didsbury Village,E01005176,Manchester 043E,E08000003,Manchester,-2.232648,53.417772
Ladbrokes Betting & Gaming Limited,Betting Shop,"Ladbrokes, 223 Rishton Lane, Bolton",BL3 2BN,Bolton,E0800001,E05014824,Great Lever,E02001005,Burnden & Great Lever,E01004815,Bolton 022D,E08000001,Bolton,-2.428019,53.562824
Ladbrokes Betting & Gaming Limited,Betting Shop,"Ladbrokes, 2 -4 Norris Street, Farnworth, Bolton",BL4 9HG,Bolton,E0800001,E05014823,Farnworth South,E02001015,Farnworth South,E01004902,Bolton 032D,E08000001,Bolton,-2.398304,53.544932
Ladbrokes Betting & Gaming Limited,Betting Shop,"Ladbrokes, 224-226 Chorley Old Road, Bolton",BL1 3BW,Bolton,E0800001,E05014832,Queens Park & Central,E02000998,Gilnow & Victory,E01004869,Bolton 015B,E08000001,Bolton,-2.449811,53.586008
Ladbrokes Betting & Gaming Limited,Betting Shop,"Ladbrokes, Unit 47/48, Middleton Shopping Centre, Middleton, Manchester",M24 4EL,Rochdale,E0800005,E05014048,South Middleton,E02001155,Middleton Town & Rhodes,E01005548,Rochdale 024E,E08000005,Rochdale,-2.201051,53.548242
Ladbrokes Betting & Gaming Limited,Betting Shop,"Ladbrokes, 29 Church Street, Littleborough",OL15 8DA,Rochdale,E0800005,E05014041,Littleborough Lakeside,E02001132,Littleborough North & Calderbook,E01005522,Rochdale 001C,E08000005,Rochdale,-2.094426,53.643767
Ladbrokes Betting & Gaming Limited,Betting Shop,"Ladbrokes, 88-90 Old Street Church Street, Manchester",M40 2JL,Manchester,E0800003,E05011371,Miles Platting & Newton Heath,E02001055,Newton Heath,E01005259,Manchester 011D,E08000003,Manchester,-2.179582,53.500466
Ladbrokes Betting & Gaming Limited,Betting Shop,"Ladbrokes, 347 Moston Lane, Manchester",M40 9NB,Manchester,E0800003,E05011373,Moston,E02001051,Moston West,E01005224,Manchester 007B,E08000003,Manchester,-2.198039,53.514029
Ladbrokes Betting & Gaming Limited,Betting Shop,"Ladbrokes, 442 Barlow Moor Road, Manchester",M21 0BQ,Manchester,E0800003,E05011357,Chorlton,E02001073,Chorlton North,E01005150,Manchester 029A,E08000003,Manchester,-2.277668,53.443454
Ladbrokes Betting & Gaming Limited,Betting Shop,"Ladbrokes, 193 Fog Lane, Manchester",M20 6FJ,Manchester,E0800003,E05011354,Burnage,E02001084,Withington East,E01005125,Manchester 040A,E08000003,Manchester,-2.217048,53.421484
Ladbrokes Betting & Gaming Limited,Betting Shop,"Ladbrokes, Unit 5, Gorton Retail Market, Manchester",M18 8LD,Manchester,E0800003,E05011365,Gorton & Abbey Hey,E02001061,Openshaw & Gorton North,E01005189,Manchester 017D,E08000003,Manchester,-2.172479,53.462403
Ladbrokes Betting & Gaming Limited,Betting Shop,"Ladbrokes, 119-121 Radcliffe Road, Bury",BL9 9LD,Bury,E0800002,E05014164,Redvales,E02001029,Buckley Wells & Fishpool,E01005025,Bury 011A,E08000002,Bury,-2.303108,53.580626
Ladbrokes Betting & Gaming Limited,Betting Shop,"Ladbrokes, 2 The Rock, Bury",BL9 0NT,Bury,E0800002,E05014153,Bury East,E02001026,Fernhill & Pimhole,E01005024,Bury 008E,E08000002,Bury,-2.296629,53.593621
Ladbrokes Betting & Gaming Limited,Betting Shop,"Ladbrokes, 319 Bolton Road, Bury",BL8 2PD,Bury,E0800002,E05014154,Bury West,E02001027,Whitehead Park,E01004948,Bury 009B,E08000002,Bury,-2.319586,53.588492
Ladbrokes Betting & Gaming Limited,Betting Shop,"Ladbrokes, 384 Parr Lane, Bury",BL9 8LU,Bury,E0800002,E05014168,Unsworth,E02001035,Unsworth,E01005056,Bury 017C,E08000002,Bury,-2.280896,53.556439
Ladbrokes Betting & Gaming Limited,Betting Shop,"Ladbrokes, 105 The Rock, Bury",BL9 0NB,Bury,E0800002,E05014153,Bury East,E02001026,Fernhill & Pimhole,E01005024,Bury 008E,E08000002,Bury,-2.2944,53.594624
Ladbrokes Betting & Gaming Limited,Betting Shop,"Ladbrokes, 462 Bury New Road, Manchester",M25 1AX,Bury,E0800002,E05014166,St. Mary's,E02001042,Prestwich Central,E01005036,Bury 024C,E08000002,Bury,-2.285193,53.533212
Ladbrokes Betting & Gaming Limited,Betting Shop,"Ladbrokes, 1160 Rochdale Road, Manchester",M9 6ER,Manchester,E0800003,E05011355,Charlestown,E02001046,Blackley,E01005135,Manchester 002B,E08000003,Manchester,-2.208228,53.531995
Ladbrokes Betting & Gaming Limited,Betting Shop,"Ladbrokes, 306 Portway, Manchester",M22 1TE,Manchester,E0800003,E05011381,Woodhouse Park,E02001097,Woodhouse Park & Airport,E01005315,Manchester 053C,E08000003,Manchester,-2.268573,53.374199
Ladbrokes Betting & Gaming Limited,Betting Shop,"Ladbrokes, 181 Hollyhedge Road, Manchester",M22 8UE,Manchester,E0800003,E05011374,Northenden,E02001093,Benchill North & Sharston,E01005089,Manchester 049C,E08000003,Manchester,-2.258938,53.388918
Ladbrokes Betting & Gaming Limited,Betting Shop,"Ladbrokes, 26 Old Moat Lane, Manchester",M20 3FL,Manchester,E0800003,E05011375,Old Moat,E02001082,Withington West,E01005274,Manchester 038A,E08000003,Manchester,-2.232365,53.434859
Ladbrokes Betting & Gaming Limited,Betting Shop,"Ladbrokes, 285 Victoria Avenue, Manchester",M9 0NG,Manchester,E0800003,E05011367,Higher Blackley,E02001045,Boothroyden & Higher Blackley,E01005103,Manchester 001E,E08000003,Manchester,-2.227666,53.53278
Ladbrokes Betting & Gaming Limited,Betting Shop,"Ladbrokes, 2 Piccadilly South, Gateway House, Manchester",M1 2GH,Manchester,E0800003,E05011376,Piccadilly,E02006912,Piccadilly & Ancoats,E01033654,Manchester 055C,E08000003,Manchester,-2.231714,53.478392
Ladbrokes Betting & Gaming Limited,Betting Shop,"Ladbrokes, 676 Chester Road, Stretford, Manchester",M32 0SF,Trafford,E0800009,E05015247,Gorse Hill & Cornbrook,E02001261,Gorse Hill,E01006186,Trafford 003B,E08000009,Trafford,-2.288614,53.461404
Ladbrokes Betting & Gaming Limited,Betting Shop,"Ladbrokes, 2A-4 Regent Road, Altrincham",WA14 1RE,Trafford,E0800009,E05015239,Altrincham,E02001283,"Altrincham West, Dunham & Warburton",E01006075,Trafford 025B,E08000009,Trafford,-2.351442,53.385669
Ladbrokes Betting & Gaming Limited,Betting Shop,"Ladbrokes, 3 Pole Street, Standish, Wigan",WN6 0HP,Wigan,E08000010,E05015008,Standish with Langtree,E02001288,Standish South,E01006238,Wigan 002E,E08000010,Wigan,-2.664331,53.587023
Ladbrokes Betting & Gaming Limited,Betting Shop,"Ladbrokes, Unit 4, 8 Woodhouse Drive, Wigan",WN6 7NT,Wigan,E08000010,E05015011,Wigan West,E02001291,Beech Hill,E01006253,Wigan 005A,E08000010,Wigan,-2.659937,53.557115
Ladbrokes Betting & Gaming Limited,Betting Shop,"Ladbrokes, 36-38 Staveleigh Mall, Ladysmith Centre, Ashton-Under-Lyne",OL6 7JJ,Tameside,E0800008,E05014535,St Peter's,E02001241,Ashton Central,E01005948,Tameside 013A,E08000008,Tameside,-2.095873,53.488761
Ladbrokes Betting & Gaming Limited,Betting Shop,"Ladbrokes, Unit 4, Ribble Drive, Whitefield, Manchester",M45 8AJ,Bury,E0800002,E05014152,Besses,E02001039,Besses,E01004941,Bury 021A,E08000002,Bury,-2.276275,53.551497
Ladbrokes Betting & Gaming Limited,Betting Shop,"Ladbrokes, Unit 24, Haletop, Wythenshawe, Manchester",M22 5RN,Manchester,E0800003,E05011381,Woodhouse Park,E02001094,Benchill South & Wythenshawe Central,E01005291,Manchester 050E,E08000003,Manchester,-2.261751,53.379276
Ladbrokes Betting & Gaming Limited,Betting Shop,"Ladbrokes, 401 Hollinwood Avenue, Manchester",M40 0JQ,Manchester,E0800003,E05011355,Charlestown,E02001047,Charlestown,E01005251,Manchester 003D,E08000003,Manchester,-2.174226,53.524663
Ladbrokes Betting & Gaming Limited,Betting Shop,"Ladbrokes, 114 Sutton Way, Salford Shopping City, Salford",M6 5HS,Salford,E0800006,E05013030,Pendleton & Charlestown,E02001173,Cromwell Road & Broad Street,E01005680,Salford 017B,E08000006,Salford,-2.287944,53.489164
Ladbrokes Betting & Gaming Limited,Betting Shop,"Ladbrokes, 36-38 Higher Market Street, Farnworth, Bolton",BL4 9AJ,Bolton,E0800001,E05014823,Farnworth South,E02001015,Farnworth South,E01004859,Bolton 032B,E08000001,Bolton,-2.392043,53.546519
Ladbrokes Betting & Gaming Limited,Betting Shop,"Ladbrokes, 283 Featherstall Road North, Oldham",OL1 2NH,Oldham,E0800004,E05014650,Coldhurst,E02001113,Busk,E01005354,Oldham 016E,E08000004,Oldham,-2.123373,53.549784
Ladbrokes Betting & Gaming Limited,Betting Shop,"Ladbrokes, Unit 1, Woodley Precinct, Woodley, Stockport",SK6 1RJ,Stockport,E0800007,E05015016,Bredbury & Woodley,E02001191,Woodley,E01005746,Stockport 005B,E08000007,Stockport,-2.101211,53.426162
Ladbrokes Betting & Gaming Limited,Betting Shop,"Ladbrokes, 1 Church Road, Gatley, Cheadle",SK8 4NG,Stockport,E0800007,E05015021,Cheadle West & Gatley,E02001211,Gatley North,E01005770,Stockport 025B,E08000007,Stockport,-2.235845,53.391886
Ladbrokes Betting & Gaming Limited,Betting Shop,"Ladbrokes, 38 Hulton District Centre, Worsley, Manchester",M28 0AU,Salford,E0800006,E05013027,Little Hulton,E02001157,Little Hulton North,E01005660,Salford 001B,E08000006,Salford,-2.423225,53.530063
Ladbrokes Betting & Gaming Limited,Betting Shop,"Ladbrokes, 267 Great Cheetham Street East, Salford",M7 4UF,Salford,E0800006,E05013021,Broughton,E02006957,Broughton East,E01005612,Salford 031B,E08000006,Salford,-2.254856,53.503162
Ladbrokes Betting & Gaming Limited,Betting Shop,"Ladbrokes, 36 Lee Lane, Horwich, Bolton",BL6 7AE,Bolton,E0800001,E05014827,Horwich North,E02000987,Horwich North,E01004890,Bolton 004E,E08000001,Bolton,-2.547067,53.600476
Ladbrokes Betting & Gaming Limited,Betting Shop,"Ladbrokes, 45-47 Deansgate, Bolton",BL1 1HQ,Bolton,E0800001,E05014832,Queens Park & Central,E02001005,Burnden & Great Lever,E01004817,Bolton 022E,E08000001,Bolton,-2.429848,53.579491
Ladbrokes Betting & Gaming Limited,Betting Shop,"Ladbrokes, 25 Market Place, Oldham",OL1 3AB,Oldham,E0800004,E05014650,Coldhurst,E02001111,Oldham Town North,E01005350,Oldham 014B,E08000004,Oldham,-2.114719,53.542135
Ladbrokes Betting & Gaming Limited,Betting Shop,"Ladbrokes, 16a-16 Wood Street, Middleton, Manchester",M24 5TF,Rochdale,E0800005,E05014048,South Middleton,E02001155,Middleton Town & Rhodes,E01005539,Rochdale 024B,E08000005,Rochdale,-2.199128,53.55016
Ladbrokes Betting & Gaming Limited,Betting Shop,"Ladbrokes, 378 Lower Falinge, Rochdale",OL12 6BR,Rochdale,E0800005,E05014044,Norden,E02001137,Hooley Bridge & Norden West,E01005488,Rochdale 006A,E08000005,Rochdale,-2.198055,53.630463
Ladbrokes Betting & Gaming Limited,Betting Shop,"Ladbrokes, 85 Milkstone Road, Rochdale",OL11 1NT,Rochdale,E0800005,E05014042,Milkstone & Deeplish,E02001146,Deeplish,E01005564,Rochdale 015E,E08000005,Rochdale,-2.154636,53.608416
Ladbrokes Betting & Gaming Limited,Betting Shop,"Ladbrokes, 40 Yorkshire Street, Rochdale",OL16 1JN,Rochdale,E0800005,E05014036,Central Rochdale,E02001141,Central Rochdale & Mandale Park,E01005482,Rochdale 010C,E08000005,Rochdale,-2.158011,53.61776
Ladbrokes Betting & Gaming Limited,Betting Shop,"Ladbrokes, 8/10 Green Lane, Sale",M33 5PH,Trafford,E0800009,E05015240,Ashton upon Mersey,E02001271,Ashton upon Mersey North,E01006169,Trafford 013B,E08000009,Trafford,-2.341629,53.429338
Ladbrokes Betting & Gaming Limited,Betting Shop,"Ladbrokes, 5-7 Flixton Road, Urmston, Manchester",M41 5AW,Trafford,E0800009,E05015259,Urmston,E02001267,Urmston East,E01006201,Trafford 009D,E08000009,Trafford,-2.355677,53.448216
Ladbrokes Betting & Gaming Limited,Betting Shop,"Ladbrokes, 19a School Road, Sale",M33 7XX,Trafford,E0800009,E05015254,Sale Central,E02001273,Sale Central,E01006160,Trafford 015B,E08000009,Trafford,-2.321157,53.424784
Ladbrokes Betting & Gaming Limited,Betting Shop,"Ladbrokes, 87 Great Stone Road, Stretford, Manchester",M32 8GR,Trafford,E0800009,E05015250,Longford,E02001262,Firswood,E01006146,Trafford 004E,E08000009,Trafford,-2.286268,53.453007
Ladbrokes Betting & Gaming Limited,Betting Shop,"Ladbrokes, 408 Barton Road, Stretford, Manchester",M32 9RW,Trafford,E0800009,E05015251,Lostock & Barton,E02001264,Trafford Park East & Sevenways,E01006157,Trafford 006B,E08000009,Trafford,-2.325839,53.454577
Ladbrokes Betting & Gaming Limited,Betting Shop,"Ladbrokes, 9b Lostock Road, Urmston, Manchester",M41 0SU,Trafford,E0800009,E05015251,Lostock & Barton,E02001260,Trafford Park West & Kingsway Park,E01006118,Trafford 002C,E08000009,Trafford,-2.35454,53.458028
Ladbrokes Betting & Gaming Limited,Betting Shop,"Ladbrokes, Unit 32 Manchester Fort Shopping Park, Cheetham Hill Road, Manchester",M8 8EP,Manchester,E0800003,E05011356,Cheetham,E02006913,Cheetham Hill,E01033665,Manchester 056C,E08000003,Manchester,-2.235028,53.497216
Ladbrokes Betting & Gaming Limited,Betting Shop,"Ladbrokes, 34 Newport Street, Bolton",BL1 1NB,Bolton,E0800001,E05014832,Queens Park & Central,E02000999,Central Bolton,E01033217,Bolton 016E,E08000001,Bolton,-2.42972,53.577031
Ladbrokes Betting & Gaming Limited,Betting Shop,"Ladbrokes, 13-15 Market Place, Wigan",WN1 1PE,Wigan,E08000010,E05015010,Wigan Central,E02001294,Wigan Central,E01006369,Wigan 008C,E08000010,Wigan,-2.631381,53.546303
David Seldon Scott & Siobhan Mercia Ellen Corolina Scott,Adult Gaming Centre,"Limelight Amusements, 9 Dale Street, Radcliffe, Manchester",M26 1AB,Bury,E0800002,E05014160,Radcliffe East,E02001034,Radcliffe,E01005009,Bury 016E,E08000002,Bury,-2.325898,53.558805
London Clubs Manchester Limited,Casino,"London Clubs, Manchester 235, 2 Watson Street, Manchester",M3 4LP,Manchester,E0800003,E05011361,Deansgate,E02006917,Castlefield & Deansgate,E01033677,Manchester 060A,E08000003,Manchester,-2.248832,53.476333
London Clubs Manchester Limited,Casino,"London Clubs, 7-9 Great Northern Square, Deansgate, Manchester",M3 4EJ,Manchester,E0800003,E05011361,Deansgate,E02006917,Castlefield & Deansgate,E01033677,Manchester 060A,E08000003,Manchester,-2.249004,53.477072
Luxury Leisure,Adult Gaming Centre,"Luxury Leisure, 2 Mercian Mall, Ladysmith Centre, Ashton-Under-Lyne",OL6 7JH,Tameside,E0800008,E05014535,St Peter's,E02001241,Ashton Central,E01005948,Tameside 013A,E08000008,Tameside,-2.095016,53.489024
Grosvenor Casinos Limited,Casino,"Manchester Bury New Road Grosvenor Casino, 2 Ramsgate Street, Manchester",M8 9SG,Manchester,E0800003,E05011356,Cheetham,E02006915,Strangeways,E01033674,Manchester 058C,E08000003,Manchester,-2.253005,53.496245
Grosvenor Casinos Limited,Casino,"Manchester Electric Grosvenor Casino, 2 Ramsgate Street, Manchester",M8 9SG,Manchester,E0800003,E05011356,Cheetham,E02006915,Strangeways,E01033674,Manchester 058C,E08000003,Manchester,-2.253005,53.496245
Grosvenor Casinos Limited,Casino,"Manchester Soames Casino, 35-39 George Street, Manchester",M1 4HQ,Manchester,E0800003,E05011361,Deansgate,E02006912,Piccadilly & Ancoats,E01033653,Manchester 055B,E08000003,Manchester,-2.240602,53.478534
Mecca Bingo Limited,Adult Gaming Centre,"Mecca Bingo Clubs, 477 Hyde Road, Manchester",M12 5FL,Manchester,E0800003,E05011365,Gorton & Abbey Hey,E02001064,Belle Vue & West Gorton,E01005067,Manchester 020A,E08000003,Manchester,-2.194738,53.465218
Mecca Bingo Limited,Adult Gaming Centre,"Mecca Bingo Clubs, King Square, 24-28 King Street, Oldham",OL8 1DR,Oldham,E0800004,E05014650,Coldhurst,E02001121,Oldham Town South,E01005459,Oldham 024D,E08000004,Oldham,-2.118127,53.5403
Mecca Bingo Limited,Bingo,"Mecca Bingo Clubs, King Square, 24-28 King Street, Oldham",OL8 1DR,Oldham,E0800004,E05014650,Coldhurst,E02001121,Oldham Town South,E01005459,Oldham 024D,E08000004,Oldham,-2.118127,53.5403
Mecca Bingo Limited,Bingo,"Mecca Bingo Clubs, Ormrod Street, Bolton",BL3 5DJ,Bolton,E0800001,E05014832,Queens Park & Central,E02000999,Central Bolton,E01004848,Bolton 016D,E08000001,Bolton,-2.4334,53.575272
Merkur Slots UK Limited,Bingo,"Merkur Slots, 44 - 50 Portland Street, Manchester",M1 4QU,Manchester,E0800003,E05011361,Deansgate,E02006912,Piccadilly & Ancoats,E01033653,Manchester 055B,E08000003,Manchester,-2.239142,53.478341
Merkur Slots UK Limited,Bingo,"Merkur Slots, Unit 5 Kay Gardens, Market Street, Bury",BL9 0SW,Bury,E0800002,E05014153,Bury East,E02001029,Buckley Wells & Fishpool,E01005027,Bury 011B,E08000002,Bury,-2.299991,53.590172
Merkur Slots UK Limited,Bingo,"Merkur Slots UK Limited, 45-46 Hankinson Way, Salford",M6 5JA,Salford,E0800006,E05013030,Pendleton & Charlestown,E02001173,Cromwell Road & Broad Street,E01005680,Salford 017B,E08000006,Salford,-2.286704,53.488797
Merkur Slots UK Limited,Bingo,"Merkur Slots UK Limited, 67 Deansgate, Manchester",M3 2BW,Manchester,E0800003,E05011361,Deansgate,E02006902,City Centre North & Collyhurst,E01033658,Manchester 054C,E08000003,Manchester,-2.246756,53.482225
Moto Hospitality Limited,Adult Gaming Centre,"Moto Hospitality Limited, Junction 18/19 (M62), Birch, Heywood",OL10 2HQ,Rochdale,E0800005,E05014039,Hopwood Hall,E02001151,Heywood Hopwood & Siddal Moor,E01005507,Rochdale 020E,E08000005,Rochdale,-2.207978,53.585056
Moto Hospitality Limited,Adult Gaming Centre,"Moto Hospitality Limited, Full House, Moto Birch East Bound, Heywood",OL10 2HQ,Rochdale,E0800005,E05014039,Hopwood Hall,E02001151,Heywood Hopwood & Siddal Moor,E01005507,Rochdale 020E,E08000005,Rochdale,-2.207978,53.585056
Moto Hospitality Limited,Adult Gaming Centre,"Moto Hospitality Limited, Lucky Coin, Birch Services East Bound, Heywood",OL10 2HQ,Rochdale,E0800005,E05014039,Hopwood Hall,E02001151,Heywood Hopwood & Siddal Moor,E01005507,Rochdale 020E,E08000005,Rochdale,-2.207978,53.585056
Moto Hospitality Limited,Adult Gaming Centre,"Moto Hospitality Limited, Full House, Birch West Service Area, M62 Motorwa, Heywood",OL10 2QH,Rochdale,E0800005,E05014052,West Middleton,E02001153,Langley & Wood Side,E01005554,Rochdale 022F,E08000005,Rochdale,-2.225403,53.566823
Moto Hospitality Limited,Adult Gaming Centre,"Moto Hospitality Limited, Full House, AGC 2, Birch West Service Area, M62 Motorwa, Heywood",OL10 2QH,Rochdale,E0800005,E05014052,West Middleton,E02001153,Langley & Wood Side,E01005554,Rochdale 022F,E08000005,Rochdale,-2.225403,53.566823
Mr Rigby's Leisuretime Limited,Adult Gaming Centre,"Mr Rigby's Leisuretime Limited, 48 Bradshawgate, Leigh",WN7 4LA,Wigan,E08000010,E05015001,Leigh Central & Higher Folds,E02001316,Leigh Central,E01006333,Wigan 030B,E08000010,Wigan,-2.517038,53.496131
Bandai Namco Amusement Europe Limited,Adult Gaming Centre,"Namco Station, Unit 1, 13-17 The Orient, The Trafford Centre, Manchester",M17 8ED,Trafford,E0800009,E05015251,Lostock & Barton,E02001260,Trafford Park West & Kingsway Park,E01006121,Trafford 002E,E08000009,Trafford,-2.349005,53.466179
Players Club UK Limited,Casino,"Napoleons Casino, 57 Portland Street, Manchester",M1 3HP,Manchester,E0800003,E05011376,Piccadilly,E02006912,Piccadilly & Ancoats,E01033653,Manchester 055B,E08000003,Manchester,-2.239257,53.477737
Luxury Leisure,Adult Gaming Centre,"Nobles Amusements, 30 Newport Street, Bolton",BL1 1NB,Bolton,E0800001,E05014832,Queens Park & Central,E02000999,Central Bolton,E01033217,Bolton 016E,E08000001,Bolton,-2.42972,53.577031
Luxury Leisure,Adult Gaming Centre,"Nobles Amusements, 47 Market Street, Bury",BL9 0BH,Bury,E0800002,E05014153,Bury East,E02001029,Buckley Wells & Fishpool,E01005027,Bury 011B,E08000002,Bury,-2.295933,53.591277
Luxury Leisure,Adult Gaming Centre,"Nobles Amusements, 13 The Rock, Bury",BL9 0JP,Bury,E0800002,E05014153,Bury East,E02001026,Fernhill & Pimhole,E01005024,Bury 008E,E08000002,Bury,-2.295801,53.594073
Luxury Leisure,Adult Gaming Centre,"Nobles Amusements, Unit 1, 15 The Mall, Eccles, Manchester",M30 0EA,Salford,E0800006,E05013024,Eccles,E02001176,Eccles,E01005631,Salford 020A,E08000006,Salford,-2.336505,53.483867
Luxury Leisure,Adult Gaming Centre,"Nobles Amusements, 41-47 Market Avenue, Ashton-Under-Lyne",OL6 6BT,Tameside,E0800008,E05014535,St Peter's,E02001241,Ashton Central,E01005948,Tameside 013A,E08000008,Tameside,-2.092904,53.488745
Luxury Leisure,Adult Gaming Centre,"Nobles Amusements, 84-86 Bradshawgate, Leigh",WN7 4NP,Wigan,E08000010,E05015001,Leigh Central & Higher Folds,E02001316,Leigh Central,E01006333,Wigan 030B,E08000010,Wigan,-2.514442,53.495951
Power Leisure Bookmakers Limited,Betting Shop,"Paddy Power, 958-960 Stockport Road, Manchester",M19 3NN,Manchester,E0800003,E05011369,Levenshulme,E02001075,Levenshulme Central,E01005221,Manchester 031C,E08000003,Manchester,-2.191642,53.4433
Power Leisure Bookmakers Limited,Betting Shop,"Paddy Power, Piccadilly Plaza, Manchester",M1 4BD,Manchester,E0800003,E05011361,Deansgate,E02006912,Piccadilly & Ancoats,E01033653,Manchester 055B,E08000003,Manchester,-2.238988,53.480436
Power Leisure Bookmakers Limited,Betting Shop,"Paddy Power, 39 Warrington Street, Ashton-Under-Lyne",OL6 7JG,Tameside,E0800008,E05014535,St Peter's,E02001241,Ashton Central,E01005948,Tameside 013A,E08000008,Tameside,-2.094245,53.488501
Power Leisure Bookmakers Limited,Betting Shop,"Paddy Power, 79 Wilmslow Road, Manchester",M14 5SU,Manchester,E0800003,E05011377,Rusholme,E02001070,Rusholme East,E01005284,Manchester 026C,E08000003,Manchester,-2.224872,53.455439
Power Leisure Bookmakers Limited,Betting Shop,"Paddy Power, 284 Lees Road, Oldham",OL4 1NZ,Oldham,E0800004,E05014663,St Mary's,E02001116,Salem,E01005428,Oldham 019A,E08000004,Oldham,-2.088958,53.539894
Power Leisure Bookmakers Limited,Betting Shop,"Paddy Power, 30 Hulme High Street, Manchester",M15 5JS,Manchester,E0800003,E05011368,Hulme,E02001063,Hulme & University,E01005208,Manchester 019A,E08000003,Manchester,-2.248417,53.461784
Power Leisure Bookmakers Limited,Betting Shop,"Paddy Power, 38-40 Newport Street, Bolton",BL1 1NB,Bolton,E0800001,E05014832,Queens Park & Central,E02000999,Central Bolton,E01033217,Bolton 016E,E08000001,Bolton,-2.42972,53.577031
Power Leisure Bookmakers Limited,Betting Shop,"Paddy Power, Ground Floor, 15 Yorkshire Street, Rochdale",OL16 1BH,Rochdale,E0800005,E05014036,Central Rochdale,E02001141,Central Rochdale & Mandale Park,E01005482,Rochdale 010C,E08000005,Rochdale,-2.158795,53.61721
Power Leisure Bookmakers Limited,Betting Shop,"Paddy Power, 551-553 Stockport Road, Manchester",M12 4JH,Manchester,E0800003,E05011370,Longsight,E02001064,Belle Vue & West Gorton,E01005232,Manchester 020C,E08000003,Manchester,-2.200288,53.457101
Power Leisure Bookmakers Limited,Betting Shop,"Paddy Power, 13-15 Henshaw Street, Oldham",OL1 1NH,Oldham,E0800004,E05014650,Coldhurst,E02001111,Oldham Town North,E01005350,Oldham 014B,E08000004,Oldham,-2.115328,53.543026
Britannia Jinky Jersey Limited,Bingo,"Pontins, Country House Hotel, Palatine Road, Manchester",M20 2WG,Manchester,E0800003,E05011363,Didsbury West,E02001086,Merseybank & Barlow Moor,E01005078,Manchester 042B,E08000003,Manchester,-2.246727,53.41721
Talarius Limited,Adult Gaming Centre,"Quicksilver, 31 North City Shopping Centre, Lee Road, Manchester",M9 4DH,Manchester,E0800003,E05011366,Harpurhey,E02001050,Harpurhey North,E01005205,Manchester 006B,E08000003,Manchester,-2.211905,53.51263
Talarius Limited,Adult Gaming Centre,"Quicksilver, Winners Gold Room, 73-75 Princes Street, Stockport",SK1 1RW,Stockport,E0800007,E05015018,Brinnington & Stockport Central,E02001200,"Central Stockport, Portwood & Shaw Heath",E01033947,Stockport 014E,E08000007,Stockport,-2.16171,53.411058
Talarius Limited,Adult Gaming Centre,"Quicksilver, 57A-59 Newport Street, Bolton",BL1 1NE,Bolton,E0800001,E05014832,Queens Park & Central,E02001005,Burnden & Great Lever,E01004817,Bolton 022E,E08000001,Bolton,-2.428873,53.577167
Talarius Limited,Adult Gaming Centre,"Quicksilver, 36 School Road, Sale",M33 7XF,Trafford,E0800009,E05015254,Sale Central,E02001273,Sale Central,E01006160,Trafford 015B,E08000009,Trafford,-2.320903,53.425054
Talarius Limited,Adult Gaming Centre,"Quicksilver, 466 Wilbraham Road, Manchester",M21 9AS,Manchester,E0800003,E05011357,Chorlton,E02001073,Chorlton North,E01005150,Manchester 029A,E08000003,Manchester,-2.278777,53.442767
Talarius Limited,Adult Gaming Centre,"Quicksilver, 88/90 Yorkshire Street, Rochdale",OL16 1JX,Rochdale,E0800005,E05014036,Central Rochdale,E02001141,Central Rochdale & Mandale Park,E01005482,Rochdale 010C,E08000005,Rochdale,-2.156185,53.618823
Talarius Limited,Adult Gaming Centre,"Quicksilver, G43-G44, Arndale Shopping Centre, Middleton, Manchester",M24 4EL,Rochdale,E0800005,E05014048,South Middleton,E02001155,Middleton Town & Rhodes,E01005548,Rochdale 024E,E08000005,Rochdale,-2.201051,53.548242
Talarius Limited,Adult Gaming Centre,"Quicksilver, 7-8 Hankinson Way, Salford",M6 5JA,Salford,E0800006,E05013030,Pendleton & Charlestown,E02001173,Cromwell Road & Broad Street,E01005680,Salford 017B,E08000006,Salford,-2.286704,53.488797
Talarius Limited,Adult Gaming Centre,"Quicksilver, 81 Pendleton Way, Salford",M6 5FW,Salford,E0800006,E05013030,Pendleton & Charlestown,E02001173,Cromwell Road & Broad Street,E01005680,Salford 017B,E08000006,Salford,-2.289026,53.488703
Rank Leisure Limited,Adult Gaming Centre,"Rank Leisure Limited, 24-28 King Street, Oldham",OL8 1DR,Oldham,E0800004,E05014650,Coldhurst,E02001121,Oldham Town South,E01005459,Oldham 024D,E08000004,Oldham,-2.118127,53.5403
Rank Leisure Limited,Adult Gaming Centre,"Rank Leisure Limited, Ormrod Street, Bolton",BL3 5DJ,Bolton,E0800001,E05014832,Queens Park & Central,E02000999,Central Bolton,E01004848,Bolton 016D,E08000001,Bolton,-2.4334,53.575272
Reel Leisure Limited,Adult Gaming Centre,"Reel Leisure Limited, Unit 1, 100/102 Church Street, Eccles, Manchester",M30 0LH,Salford,E0800006,E05013024,Eccles,E02001176,Eccles,E01005631,Salford 020A,E08000006,Salford,-2.337072,53.482968
Reel Leisure Limited,Adult Gaming Centre,"Reel Leisure Limited, Unit 2, 100/102 Church Street, Eccles, Manchester",M30 0LH,Salford,E0800006,E05013024,Eccles,E02001176,Eccles,E01005631,Salford 020A,E08000006,Salford,-2.337072,53.482968
Reel Leisure Limited,Adult Gaming Centre,"Reel Time Amusements, Unit 1 , 17-19 Great Underbank, Stockport",SK1 1LF,Stockport,E0800007,E05015018,Brinnington & Stockport Central,E02001200,"Central Stockport, Portwood & Shaw Heath",E01033947,Stockport 014E,E08000007,Stockport,-2.157816,53.411575
Reel Leisure Limited,Adult Gaming Centre,"Reel Time Amusements, Unit 3 , 17-19 Great Underbank, Stockport",SK1 1LF,Stockport,E0800007,E05015018,Brinnington & Stockport Central,E02001200,"Central Stockport, Portwood & Shaw Heath",E01033947,Stockport 014E,E08000007,Stockport,-2.157816,53.411575
Reel Leisure Limited,Adult Gaming Centre,"Reel Time Amusements, Unit 2 , 17-19 Great Underbank, Stockport",SK1 1LF,Stockport,E0800007,E05015018,Brinnington & Stockport Central,E02001200,"Central Stockport, Portwood & Shaw Heath",E01033947,Stockport 014E,E08000007,Stockport,-2.157816,53.411575
Grosvenor Casinos Limited,Casino,"Salford Grosvenor Casino, 5 Derwent Street, Salford",M5 4SW,Salford,E0800006,E05013031,Quays,E02006962,Ordsall East,E01033993,Salford 036A,E08000006,Salford,-2.264106,53.475412
Summit Leisure (Deansgate) Limited,NA,"Shaws Amusements, 103 Chester Road, Stretford",M32 9BA,Trafford,E0800009,E05015256,Stretford & Humphrey Park,E02001269,Stretford East,E01006180,Trafford 011D,E08000009,Trafford,-2.30942,53.445677
Merkur Bingo & Casino Entertainment UK Limited,Bingo,"Showboat, 1a Princes Street, Stockport",SK1 1SL,Stockport,E0800007,E05015018,Brinnington & Stockport Central,E02001200,"Central Stockport, Portwood & Shaw Heath",E01033947,Stockport 014E,E08000007,Stockport,-2.159502,53.412246
Talarius Limited,Adult Gaming Centre,"Silvers, Unit 1, 6 Hale TopCivic Centre, Wythenshawe, Manchester",M22 5RN,Manchester,E0800003,E05011381,Woodhouse Park,E02001094,Benchill South & Wythenshawe Central,E01005291,Manchester 050E,E08000003,Manchester,-2.261751,53.379276
Talarius Limited,Adult Gaming Centre,"Silvers Amusements, 6 Hale Top, Civic Centre, Wythenshawe, Manchester",M22 5RN,Manchester,E0800003,E05011381,Woodhouse Park,E02001094,Benchill South & Wythenshawe Central,E01005291,Manchester 050E,E08000003,Manchester,-2.261751,53.379276
Grosvenor Casinos (GC) Limited,Casino,"Stockport Grosvenor Casino, 59 Wellington Street, Stockport",SK1 3AD,Stockport,E0800007,E05015018,Brinnington & Stockport Central,E02001200,"Central Stockport, Portwood & Shaw Heath",E01033947,Stockport 014E,E08000007,Stockport,-2.155911,53.409275
Summit Leisure (KC) Limited,Adult Gaming Centre,"Summit Leisure, 65/65A School Road, Sale",M33 7YF,Trafford,E0800009,E05015254,Sale Central,E02001273,Sale Central,E01006160,Trafford 015B,E08000009,Trafford,-2.323402,53.425145
Summit Leisure (Market St) Limited,Adult Gaming Centre,"Summit Leisure (Market St) Limited, 18-22 Market Street, Bolton",BL1 1BU,Bolton,E0800001,E05014832,Queens Park & Central,E02001005,Burnden & Great Lever,E01004817,Bolton 022E,E08000001,Bolton,-2.429196,53.579161
Summit Leisure (Market St) Limited,Adult Gaming Centre,"Summit Leisure (Market St) Limited, 46 Market Street, Shaw, Oldham",OL2 8NH,Oldham,E0800004,E05014661,Shaw,E02001100,Clough & Shaw Side,E01005447,Oldham 003D,E08000004,Oldham,-2.093915,53.577083
Summit Leisure (Swinton) Limited,Adult Gaming Centre,"Summit Leisure (Swinton) Limited, 93 The Parade, Swinton, Manchester",M27 4BD,Salford,E0800006,E05013032,Swinton & Wardley,E02001161,Clifton,E01005672,Salford 005B,E08000006,Salford,-2.337919,53.511916
T E Cordwell (Hyde) Limited,Adult Gaming Centre,"T E Cordwell (Hyde), Duke Street, Ashton-Under-Lyne",OL6 7RS,Tameside,E0800008,E05014535,St Peter's,E02001241,Ashton Central,E01005948,Tameside 013A,E08000008,Tameside,-2.093898,53.488034
T E Cordwell (Hyde) Limited,Adult Gaming Centre,"T E Cordwell (Hyde), 64 Market Street, Hyde",SK14 1ES,Tameside,E0800008,E05014532,Hyde Werneth,E02001256,Hyde South,E01006040,Tameside 028E,E08000008,Tameside,-2.078847,53.450106
T E Cordwell (Hyde) Limited,Adult Gaming Centre,"T E Cordwell (Hyde), 5 Clarendon Street, Hyde",SK14 2EL,Tameside,E0800008,E05014530,Hyde Godley,E02001256,Hyde South,E01006028,Tameside 028A,E08000008,Tameside,-2.079016,53.452057
T E Cordwell (Hyde) Limited,Adult Gaming Centre,"T E Cordwell (Hyde) Limited, 85A Old Street, Ashton-Under-Lyne",OL6 7RS,Tameside,E0800008,E05014535,St Peter's,E02001241,Ashton Central,E01005948,Tameside 013A,E08000008,Tameside,-2.093898,53.488034
Storey Group Limited,Adult Gaming Centre,"The Storey Group Limited, 4 Henshaw Street, Oldham",OL1 3AA,Oldham,E0800004,E05014650,Coldhurst,E02001111,Oldham Town North,E01005350,Oldham 014B,E08000004,Oldham,-2.115068,53.542611
Inspired Gaming (UK) Limited,Family Entertainment Centre,"Voyager Family Entertainment Centre, Terminal 1 Departures, Airside, Manchester Airport, Manchester",M90 1QX,Manchester,E0800003,E05011381,Woodhouse Park,E02001097,Woodhouse Park & Airport,E01005316,Manchester 053D,E08000003,Manchester,-2.270841,53.361881
Webbers Leisure Limited,Adult Gaming Centre,"Webbers Leisure Limited, Unit 152a, Lady Harriet Walk, Bolton Road, Worsley, Manchester",M28 3ZH,Salford,E0800006,E05013034,Walkden North,E02001158,Walkden North West,E01005708,Salford 002D,E08000006,Salford,-2.400383,53.525045
William Hill Organization Limited,Betting Shop,"William Hill, Unit 1, 21 Copson Street, Manchester",M20 3HE,Manchester,E0800003,E05011375,Old Moat,E02001082,Withington West,E01005274,Manchester 038A,E08000003,Manchester,-2.229695,53.433705
William Hill Organization Limited,Betting Shop,"William Hill, 47 Deansgate, Manchester",M3 2AY,Manchester,E0800003,E05011361,Deansgate,E02006902,City Centre North & Collyhurst,E01033658,Manchester 054C,E08000003,Manchester,-2.24622,53.48292
William Hill Organization Limited,Betting Shop,"William Hill, 30 High Street, Manchester",M4 1QB,Manchester,E0800003,E05011376,Piccadilly,E02006902,City Centre North & Collyhurst,E01033658,Manchester 054C,E08000003,Manchester,-2.238969,53.482789
William Hill Organization Limited,Betting Shop,"William Hill, 482 Wilbraham Road, Manchester",M21 9AS,Manchester,E0800003,E05011357,Chorlton,E02001073,Chorlton North,E01005150,Manchester 029A,E08000003,Manchester,-2.278777,53.442767
William Hill Organization Limited,Betting Shop,"William Hill, 66 Lee Lane, Horwich, Bolton",BL6 7AE,Bolton,E0800001,E05014827,Horwich North,E02000987,Horwich North,E01004890,Bolton 004E,E08000001,Bolton,-2.547067,53.600476
William Hill Organization Limited,Betting Shop,"William Hill, 760/762 Oldham Road, Failsworth, Manchester",M35 9FE,Oldham,E0800004,E05014652,Failsworth East,E02001128,Failsworth East,E01005368,Oldham 031C,E08000004,Oldham,-2.147244,53.516987
William Hill Organization Limited,Betting Shop,"William Hill, 17 Blackburn Street, Radcliffe, Manchester",M26 1NN,Bury,E0800002,E05014160,Radcliffe East,E02001034,Radcliffe,E01005009,Bury 016E,E08000002,Bury,-2.325718,53.558958
William Hill Organization Limited,Betting Shop,"William Hill, 113-117 King Street, Dukinfield",SK16 4NQ,Tameside,E0800008,E05014528,Dukinfield,E02001245,Dukinfield West,E01006016,Tameside 017E,E08000008,Tameside,-2.09397,53.479909
William Hill Organization Limited,Betting Shop,"William Hill, 465 Chorley Road, Manchester",M27 9RH,Salford,E0800006,E05013032,Swinton & Wardley,E02001165,Swinton West,E01005687,Salford 009A,E08000006,Salford,-2.351199,53.516866
William Hill Organization Limited,Betting Shop,"William Hill, Fiveways, 164A Greenside Lane, Droylsden, Manchester",M43 7UR,Tameside,E0800008,E05014527,Droylsden West,E02001239,Droylsden Central,E01006004,Tameside 011D,E08000008,Tameside,-2.151021,53.484858
William Hill Organization Limited,Betting Shop,"William Hill, 1068 Ashton New Road, Manchester",M11 4PE,Manchester,E0800003,E05011359,Clayton & Openshaw,E02001056,Clayton Vale,E01005094,Manchester 012B,E08000003,Manchester,-2.167868,53.480935
William Hill Organization Limited,Betting Shop,"William Hill, 37 Old Street, Ashton-Under-Lyne",OL6 6BB,Tameside,E0800008,E05014535,St Peter's,E02001241,Ashton Central,E01005948,Tameside 013A,E08000008,Tameside,-2.092241,53.488415
William Hill Organization Limited,Betting Shop,"William Hill, 375 Bolton Road, Salford",M6 7NJ,Salford,E0800006,E05013023,Claremont,E02001174,Lightoaks,E01005622,Salford 018A,E08000006,Salford,-2.308735,53.500671
William Hill Organization Limited,Betting Shop,"William Hill, 46 Market Street, Atherton, Manchester",M46 0DG,Wigan,E08000010,E05014994,Atherton South & Lilford,E02001309,Atherton South West,E01006244,Wigan 023C,E08000010,Wigan,-2.492122,53.523587
William Hill Organization Limited,Betting Shop,"William Hill, 2-8 Bradshawgate, Leigh",WN7 4LX,Wigan,E08000010,E05015001,Leigh Central & Higher Folds,E02001316,Leigh Central,E01006333,Wigan 030B,E08000010,Wigan,-2.518335,53.496258
William Hill Organization Limited,Betting Shop,"William Hill, 3-5 Manchester Road, Denton, Manchester",M34 3JU,Tameside,E0800008,E05014523,Denton North East,E02001249,Denton North,E01005974,Tameside 021C,E08000008,Tameside,-2.115226,53.456053
William Hill Organization Limited,Betting Shop,"William Hill, 9 Market Place, Hyde",SK14 2LX,Tameside,E0800008,E05014530,Hyde Godley,E02001256,Hyde South,E01006028,Tameside 028A,E08000008,Tameside,-2.078368,53.451696
William Hill Organization Limited,Betting Shop,"William Hill, 10 Melbourne Street, Stalybridge",SK15 2JE,Tameside,E0800008,E05014529,Dukinfield Stalybridge,E02001243,Stalybridge South,E01006022,Tameside 015A,E08000008,Tameside,-2.057584,53.482916
William Hill Organization Limited,Betting Shop,"William Hill, 135-137 Market Street, Droylsden, Manchester",M43 7AR,Tameside,E0800008,E05014526,Droylsden East,E02001238,Droylsden East,E01006000,Tameside 010E,E08000008,Tameside,-2.145428,53.480252
William Hill Organization Limited,Betting Shop,"William Hill, 165 Poolstock Lane, Wigan",WN3 5HW,Wigan,E08000010,E05015013,Worsley Mesnes,E02001306,Worsley Mesnes & Hawkley,E01006406,Wigan 020A,E08000010,Wigan,-2.644645,53.52831
William Hill Organization Limited,Betting Shop,"William Hill, 761-763 Ormskirk Road, Wigan",WN5 8AT,Wigan,E08000010,E05015006,Pemberton,E02001300,Pemberton South,E01006358,Wigan 014D,E08000010,Wigan,-2.683335,53.536469
William Hill Organization Limited,Betting Shop,"William Hill, 287 Middleton Road, Manchester",M8 4LY,Bury,E0800002,E05014165,Sedgley,E02001044,Sedgley Park,E01005040,Bury 026A,E08000002,Bury,-2.24722,53.528326
William Hill Organization Limited,Betting Shop,"William Hill, 279 Rishton Lane, Bolton",BL3 2EH,Bolton,E0800001,E05014824,Great Lever,E02001005,Burnden & Great Lever,E01004813,Bolton 022C,E08000001,Bolton,-2.428829,53.560657
William Hill Organization Limited,Betting Shop,"William Hill, 593-595 Ashton New Road, Manchester",M11 4EA,Manchester,E0800003,E05011359,Clayton & Openshaw,E02001059,"Beswick, Eastlands & Openshaw Park",E01033669,Manchester 015G,E08000003,Manchester,-2.187077,53.483585
William Hill Organization Limited,Betting Shop,"William Hill, 283 Cheetham Hill Road, Manchester",M8 0SN,Manchester,E0800003,E05011356,Cheetham,E02006913,Cheetham Hill,E01005143,Manchester 056A,E08000003,Manchester,-2.236273,53.501654
William Hill Organization Limited,Betting Shop,"William Hill, 369-371 Palatine Road, Manchester",M22 4FY,Manchester,E0800003,E05011374,Northenden,E02001090,Northenden,E01005268,Manchester 046C,E08000003,Manchester,-2.257759,53.407696
William Hill Organization Limited,Betting Shop,"William Hill, 110-112 Withington Road, Manchester",M16 8FA,Manchester,E0800003,E05011379,Whalley Range,E02001072,Whalley Range North,E01033680,Manchester 028E,E08000003,Manchester,-2.257717,53.453071
William Hill Organization Limited,Betting Shop,"William Hill, 160 Hollyhedge Road, Manchester",M22 9UE,Manchester,E0800003,E05011378,Sharston,E02001093,Benchill North & Sharston,E01005089,Manchester 049C,E08000003,Manchester,-2.258965,53.388388
William Hill Organization Limited,Betting Shop,"William Hill, 243 Manchester Road, Swinton, Manchester",M27 4TT,Salford,E0800006,E05013033,Swinton Park,E02001168,Swinton Worsley Road,E01005674,Salford 012B,E08000006,Salford,-2.331435,53.508051
William Hill Organization Limited,Betting Shop,"William Hill, 85 Manchester Road, Altrincham",WA14 4RJ,Trafford,E0800009,E05015239,Altrincham,E02001282,Altrincham East,E01006078,Trafford 024A,E08000009,Trafford,-2.352422,53.396795
William Hill Organization Limited,Betting Shop,"William Hill, 28 Moss Road, Stretford, Manchester",M32 0AH,Trafford,E0800009,E05015256,Stretford & Humphrey Park,E02001269,Stretford East,E01006181,Trafford 011E,E08000009,Trafford,-2.310018,53.451213
William Hill Organization Limited,Betting Shop,"William Hill, 256 Stockport Road, Timperley, Altrincham",WA15 7UT,Trafford,E0800009,E05015257,Timperley Central,E02001280,Timperley East,E01006204,Trafford 022A,E08000009,Trafford,-2.317462,53.397568
William Hill Organization Limited,Betting Shop,"William Hill, 8A & 8B Wood Street, Middleton, Manchester",M24 5TF,Rochdale,E0800005,E05014048,South Middleton,E02001155,Middleton Town & Rhodes,E01005539,Rochdale 024B,E08000005,Rochdale,-2.199128,53.55016
William Hill Organization Limited,Betting Shop,"William Hill, 505-507 Liverpool Street, Salford",M6 5QQ,Salford,E0800006,E05013036,Weaste & Seedley,E02001179,Langworthy Buile Hill,E01005654,Salford 023A,E08000006,Salford,-2.296918,53.483802
William Hill Organization Limited,Betting Shop,"William Hill, 446/448 Oldham Road, Middleton, Manchester",M24 2FA,Rochdale,E0800005,E05014037,East Middleton,E02001154,Middleton East,E01005540,Rochdale 023E,E08000005,Rochdale,-2.177652,53.550803
William Hill Organization Limited,Betting Shop,"William Hill, 409-411 Oldham Road, Rochdale",OL16 4SZ,Rochdale,E0800005,E05014040,Kingsway,E02001143,Kingsway,E01005469,Rochdale 012A,E08000005,Rochdale,-2.146125,53.603439
William Hill Organization Limited,Betting Shop,"William Hill, 102 Mauldeth Road, Manchester",M14 6SQ,Manchester,E0800003,E05011380,Withington,E02001080,Ladybarn,E01005311,Manchester 036D,E08000003,Manchester,-2.213428,53.434839
William Hill Organization Limited,Betting Shop,"William Hill, 74 Mauldeth Road West, Withington, Manchester",M20 3FQ,Manchester,E0800003,E05011375,Old Moat,E02001079,Withington North & Old Moat,E01005273,Manchester 035C,E08000003,Manchester,-2.230697,53.43817
William Hill Organization Limited,Betting Shop,"William Hill, 1294 Ashton Old Road, Manchester",M11 1JG,Manchester,E0800003,E05011359,Clayton & Openshaw,E02001061,Openshaw & Gorton North,E01034112,Manchester 017H,E08000003,Manchester,-2.162034,53.472591
William Hill Organization Limited,Betting Shop,"William Hill, 11-13 Market Street, Royton, Oldham",OL2 5QA,Oldham,E0800004,E05014656,Royton North,E02001105,Royton South West,E01005392,Oldham 008B,E08000004,Oldham,-2.12386,53.565731
William Hill Organization Limited,Betting Shop,"William Hill, 175 Huddersfield Road, Oldham",OL1 3PA,Oldham,E0800004,E05014662,St James',E02001108,Derker,E01005421,Oldham 011A,E08000004,Oldham,-2.090405,53.54701
William Hill Organization Limited,Betting Shop,"William Hill, 101 High Street, Lees, Oldham",OL4 4LY,Oldham,E0800004,E05014660,Saddleworth West & Lees,E02001115,Lees & Hey,E01005389,Oldham 018C,E08000004,Oldham,-2.070951,53.537765
William Hill Organization Limited,Betting Shop,"William Hill, 18 High Street, Oldham",OL1 1JA,Oldham,E0800004,E05014650,Coldhurst,E02001121,Oldham Town South,E01005434,Oldham 024B,E08000004,Oldham,-2.112819,53.541797
William Hill Organization Limited,Betting Shop,"William Hill, 83 York Street, Heywood",OL10 4NR,Rochdale,E0800005,E05014045,North Heywood,E02001149,Heywood Town,E01005501,Rochdale 018B,E08000005,Rochdale,-2.215952,53.593544
William Hill Organization Limited,Betting Shop,"William Hill, 223 Boarshaw Road, Middleton, Manchester",M24 2WQ,Rochdale,E0800005,E05014046,North Middleton,E02001154,Middleton East,E01005538,Rochdale 023D,E08000005,Rochdale,-2.187053,53.55675
William Hill Organization Limited,Betting Shop,"William Hill, 256-258 Chorley Old Road, Bolton",BL1 4JE,Bolton,E0800001,E05014832,Queens Park & Central,E02000998,Gilnow & Victory,E01004869,Bolton 015B,E08000001,Bolton,-2.451159,53.586531
William Hill Organization Limited,Betting Shop,"William Hill, 32 Market Street, Westhoughton, Bolton",BL5 3AN,Bolton,E0800001,E05014836,Westhoughton North & Hunger Hill,E02001011,Westhoughton East,E01004894,Bolton 028C,E08000001,Bolton,-2.521213,53.5489
William Hill Organization Limited,Betting Shop,"William Hill, 227/229 Halliwell Road, Bolton",BL1 3NT,Bolton,E0800001,E05014825,Halliwell,E02000994,Halliwell & Brownlow Fold,E01004820,Bolton 011A,E08000001,Bolton,-2.436881,53.591953
William Hill Organization Limited,Betting Shop,"William Hill, 58 Stockport Road, Manchester",M12 6AL,Manchester,E0800003,E05011351,Ardwick,E02001062,Ardwick,E01005065,Manchester 018D,E08000003,Manchester,-2.221987,53.468458
William Hill Organization Limited,Betting Shop,"William Hill, 562-564 Stockport Road, Manchester",M12 4JJ,Manchester,E0800003,E05011370,Longsight,E02001064,Belle Vue & West Gorton,E01005232,Manchester 020C,E08000003,Manchester,-2.200752,53.456838
William Hill Organization Limited,Betting Shop,"William Hill, 147-151 Northenden Road, Sale",M33 2HS,Trafford,E0800009,E05015255,Sale Moor,E02001272,Sale East,E01006174,Trafford 014D,E08000009,Trafford,-2.30323,53.420031
William Hill Organization Limited,Betting Shop,"William Hill, Unit C, 311 Liverpool Road, Eccles, Manchester",M30 0QN,Salford,E0800006,E05013018,Barton & Winton,E02001183,Patricroft,E01005603,Salford 027A,E08000006,Salford,-2.357027,53.481544
William Hill Organization Limited,Betting Shop,"William Hill, 418-420 Manchester Road, Stockport",SK4 5BY,Stockport,E0800007,E05015034,Reddish South,E02001192,Heaton Chapel & Shaw Road,E01005866,Stockport 006C,E08000007,Stockport,-2.175063,53.427955
William Hill Organization Limited,Betting Shop,"William Hill, 25A The Gerard Centre, Gerard Street, Ashton-In-Makerfield, Wigan",WN4 9AN,Wigan,E08000010,E05014990,Ashton-in-Makerfield South,E02001322,Ashton-in-Makerfield West,E01006223,Wigan 036A,E08000010,Wigan,-2.63676,53.4864
William Hill Organization Limited,Betting Shop,"William Hill, 12 Market Street, Shaw",OL2 8NH,Oldham,E0800004,E05014661,Shaw,E02001100,Clough & Shaw Side,E01005447,Oldham 003D,E08000004,Oldham,-2.093915,53.577083
William Hill Organization Limited,Betting Shop,"William Hill, 189/191 Elliot Street, Tyldesley",M29 8DR,Wigan,E08000010,E05015009,Tyldesley & Mosley Common,E02001311,Tyldesley North,E01006294,Wigan 025B,E08000010,Wigan,-2.465999,53.514075
William Hill Organization Limited,Betting Shop,"William Hill, Unit 9, Hulton District Centre, Worsley, Manchester",M28 0BA,Salford,E0800006,E05013027,Little Hulton,E02001157,Little Hulton North,E01005660,Salford 001B,E08000006,Salford,-2.422182,53.529887
William Hill Organization Limited,Betting Shop,"William Hill, 1/3 Market Place, Bury",BL9 0LD,Bury,E0800002,E05014153,Bury East,E02001026,Fernhill & Pimhole,E01005024,Bury 008E,E08000002,Bury,-2.297383,53.593403
William Hill Organization Limited,Betting Shop,"William Hill, 62/64 Stockport Road, Manchester",M12 6AL,Manchester,E0800003,E05011351,Ardwick,E02001062,Ardwick,E01005065,Manchester 018D,E08000003,Manchester,-2.221987,53.468458
William Hill Organization Limited,Betting Shop,"William Hill, 4/6 Baillie Street, Rochdale",OL16 1JG,Rochdale,E0800005,E05014036,Central Rochdale,E02001141,Central Rochdale & Mandale Park,E01005482,Rochdale 010C,E08000005,Rochdale,-2.157647,53.617508
William Hill Organization Limited,Betting Shop,"William Hill, 40-42 Oxford Street, Manchester",M1 5EJ,Manchester,E0800003,E05011361,Deansgate,E02006917,Castlefield & Deansgate,E01033677,Manchester 060A,E08000003,Manchester,-2.242546,53.47587
William Hill Organization Limited,Betting Shop,"William Hill, 50 Church Street, Littleborough",OL15 8AU,Rochdale,E0800005,E05014041,Littleborough Lakeside,E02001132,Littleborough North & Calderbook,E01005523,Rochdale 001D,E08000005,Rochdale,-2.097829,53.643656
William Hill Organization Limited,Betting Shop,"William Hill, 285-287 Mauldeth Road, Manchester",M19 1HL,Manchester,E0800003,E05011354,Burnage,E02001078,Levenshulme South & Burnage North,E01005120,Manchester 034B,E08000003,Manchester,-2.201453,53.432767
William Hill Organization Limited,Betting Shop,"William Hill, 18 Princes Street, Stockport",SK1 1SE,Stockport,E0800007,E05015018,Brinnington & Stockport Central,E02001193,South Reddish & Heaton Norris,E01005917,Stockport 007D,E08000007,Stockport,-2.160015,53.412568
William Hill Organization Limited,Betting Shop,"William Hill, 5-9 Leamington Road, Stockport",SK5 6BD,Stockport,E0800007,E05015033,Reddish North,E02001189,Central Reddish,E01005921,Stockport 003E,E08000007,Stockport,-2.161254,53.437449
William Hill Organization Limited,Betting Shop,"William Hill, 604-608 Gorton Road, Stockport",SK5 6RE,Stockport,E0800007,E05015033,Reddish North,E02001188,North Reddish,E01005896,Stockport 002D,E08000007,Stockport,-2.157535,53.453444
William Hill Organization Limited,Betting Shop,"William Hill, Brinnignton Shopping Centre, 7-8 Exeter Road, Stockport",SK5 8BA,Stockport,E0800007,E05015018,Brinnington & Stockport Central,E02001190,Brinnington,E01005755,Stockport 004C,E08000007,Stockport,-2.135505,53.425875
William Hill Organization Limited,Betting Shop,"William Hill, 41 Woodley Precinct, Woodley, Stockport",SK6 1RJ,Stockport,E0800007,E05015016,Bredbury & Woodley,E02001191,Woodley,E01005746,Stockport 005B,E08000007,Stockport,-2.101211,53.426162
William Hill Organization Limited,Betting Shop,"William Hill, 19 High Street, Cheadle",SK8 1AX,Stockport,E0800007,E05015021,Cheadle West & Gatley,E02001208,Cheadle East,E01005769,Stockport 022A,E08000007,Stockport,-2.2141,53.39483
William Hill Organization Limited,Betting Shop,"William Hill, 186-188 London Road, Hazel Grove, Stockport",SK7 4DQ,Stockport,E0800007,E05015024,Hazel Grove,E02001217,Hazel Grove North,E01005840,Stockport 031D,E08000007,Stockport,-2.121936,53.379834
William Hill Organization Limited,Betting Shop,"William Hill, 140 Lisburne Lane, Stockport",SK2 5RH,Stockport,E0800007,E05015032,Offerton,E02001207,Offerton East & Bosden Farm,E01005832,Stockport 021A,E08000007,Stockport,-2.12364,53.397369
William Hill Organization Limited,Betting Shop,"William Hill, 64-66 Buxton Road, Stockport",SK2 6NB,Stockport,E0800007,E05015022,Davenport & Cale Green,E02001209,Davenport,E01005797,Stockport 023C,E08000007,Stockport,-2.150662,53.396421
William Hill Organization Limited,Betting Shop,"William Hill, 276 Adswood Road, Stockport",SK3 8PN,Stockport,E0800007,E05015022,Davenport & Cale Green,E02001212,Adswood,E01005763,Stockport 026C,E08000007,Stockport,-2.169912,53.389481
William Hill Organization Limited,Betting Shop,"William Hill, 17 Castle Street, Stockport",SK3 9AT,Stockport,E0800007,E05015023,Edgeley,E02001200,"Central Stockport, Portwood & Shaw Heath",E01005766,Stockport 014C,E08000007,Stockport,-2.165015,53.402029
William Hill Organization Limited,Betting Shop,"William Hill, 154-156 Grenville Street, Stockport",SK3 9EU,Stockport,E0800007,E05015023,Edgeley,E02001202,Edgeley,E01005822,Stockport 016D,E08000007,Stockport,-2.169675,53.401796
William Hill Organization Limited,Betting Shop,"William Hill, 153 Councillor Lane, Cheadle",SK8 2JE,Stockport,E0800007,E05015019,Cheadle East & Cheadle Hulme North,E02001208,Cheadle East,E01005780,Stockport 022D,E08000007,Stockport,-2.194159,53.391081
William Hill Organization Limited,Betting Shop,"William Hill, 317-319 Moston Lane, Manchester",M40 9NL,Manchester,E0800003,E05011373,Moston,E02001051,Moston West,E01005223,Manchester 007A,E08000003,Manchester,-2.199381,53.514017
William Hill Organization Limited,Betting Shop,"William Hill, 112/114 Whitworth Road, Rochdale",OL12 0JG,Rochdale,E0800005,E05014036,Central Rochdale,E02001139,Wardleworth & Newbold Brow,E01005580,Rochdale 008A,E08000005,Rochdale,-2.155847,53.625376
William Hill Organization Limited,Betting Shop,"William Hill, 59/61 Old Church Street, Manchester",M40 2JN,Manchester,E0800003,E05011371,Miles Platting & Newton Heath,E02001055,Newton Heath,E01005256,Manchester 011A,E08000003,Manchester,-2.1804,53.501131
William Hill Organization Limited,Betting Shop,"William Hill, Unit 3, Westlake Retail Park, Ashton Old Road, Manchester",M11 2SL,Manchester,E0800003,E05011359,Clayton & Openshaw,E02001061,Openshaw & Gorton North,E01034113,Manchester 017I,E08000003,Manchester,-2.177722,53.473451
William Hill Organization Limited,Betting Shop,"William Hill, 162 Whitworth Road, Rochdale",OL12 0JG,Rochdale,E0800005,E05014036,Central Rochdale,E02001139,Wardleworth & Newbold Brow,E01005580,Rochdale 008A,E08000005,Rochdale,-2.155847,53.625376
Talarius Limited,Adult Gaming Centre,"Winners Amusements, 19-21 Henshaw Street, Oldham",OL1 1NH,Oldham,E0800004,E05014650,Coldhurst,E02001111,Oldham Town North,E01005350,Oldham 014B,E08000004,Oldham,-2.115328,53.543026
