{
"type": "FeatureCollection",
"crs": { "type": "name", "properties": { "name": "urn:ogc:def:crs:OGC:1.3:CRS84" } },
"features": [
{ "type": "Feature", "properties": { "name": "Alexandra Park (Manchester)", "website": "http:\/\/www.greenflagaward.org.uk\/park-summary\/?park=2389", "area_code": "E08000003", "area_name": "Manchester" }, "geometry": { "type": "Point", "coordinates": [ -2.248757, 53.451398 ] } },
{ "type": "Feature", "properties": { "name": "Alexandra Park (Wigan)", "website": "http:\/\/www.greenflagaward.org.uk\/park-summary\/?park=569", "area_code": "E08000010", "area_name": "Wigan" }, "geometry": { "type": "Point", "coordinates": [ -2.654797, 53.535687 ] } },
{ "type": "Feature", "properties": { "name": "Barlow Hall", "website": "http:\/\/www.greenflagaward.org.uk\/park-summary\/?park=2923", "area_code": "E08000003", "area_name": "Manchester" }, "geometry": { "type": "Point", "coordinates": [ -2.267624, 53.428728 ] } },
{ "type": "Feature", "properties": { "name": "Blackleach Country Park", "website": "http:\/\/www.greenflagaward.org.uk\/park-summary\/?park=526", "area_code": "E08000006", "area_name": "Salford" }, "geometry": { "type": "Point", "coordinates": [ -2.398, 53.53 ] } },
{ "type": "Feature", "properties": { "name": "Blackley Cemetery & Crematorium", "website": "http:\/\/www.greenflagaward.org.uk\/park-summary\/?park=1717", "area_code": "E08000003", "area_name": "Manchester" }, "geometry": { "type": "Point", "coordinates": [ -2.234182, 53.529702 ] } },
{ "type": "Feature", "properties": { "name": "Bolton Road Park", "website": "http:\/\/www.greenflagaward.org.uk\/park-summary\/?park=518", "area_code": "E08000002", "area_name": "Bury" }, "geometry": { "type": "Point", "coordinates": [ -2.343955, 53.563459 ] } },
{ "type": "Feature", "properties": { "name": "Boothsbank Park", "website": "http:\/\/www.greenflagaward.org.uk\/park-summary\/?park=3123", "area_code": "E08000006", "area_name": "Salford" }, "geometry": { "type": "Point", "coordinates": [ -2.411407, 53.50153 ] } },
{ "type": "Feature", "properties": { "name": "Burrs Country Park", "website": "http:\/\/www.greenflagaward.org.uk\/park-summary\/?park=493", "area_code": "E08000002", "area_name": "Bury" }, "geometry": { "type": "Point", "coordinates": [ -2.304, 53.609 ] } },
{ "type": "Feature", "properties": { "name": "Clarence Park", "website": "http:\/\/www.greenflagaward.org.uk\/park-summary\/?park=452", "area_code": "E08000002", "area_name": "Bury" }, "geometry": { "type": "Point", "coordinates": [ -2.29, 53.604 ] } },
{ "type": "Feature", "properties": { "name": "Clifton Country Park", "website": "http:\/\/www.greenflagaward.org.uk\/park-summary\/?park=451", "area_code": "E08000006", "area_name": "Salford" }, "geometry": { "type": "Point", "coordinates": [ -2.346, 53.532 ] } },
{ "type": "Feature", "properties": { "name": "Close Park", "website": "http:\/\/www.greenflagaward.org.uk\/park-summary\/?park=447", "area_code": "E08000002", "area_name": "Bury" }, "geometry": { "type": "Point", "coordinates": [ -2.307, 53.565 ] } },
{ "type": "Feature", "properties": { "name": "Denehurst Park", "website": "http:\/\/www.greenflagaward.org.uk\/park-summary\/?park=3307", "area_code": "E08000005", "area_name": "Rochdale" }, "geometry": { "type": "Point", "coordinates": [ -2.183074, 53.621014 ] } },
{ "type": "Feature", "properties": { "name": "Denzell Gardens and The Devisdale", "website": "http:\/\/www.greenflagaward.org.uk\/park-summary\/?park=414", "area_code": "E08000009", "area_name": "Trafford" }, "geometry": { "type": "Point", "coordinates": [ -2.371, 53.382 ] } },
{ "type": "Feature", "properties": { "name": "Flixton Gardens", "website": "http:\/\/www.greenflagaward.org.uk\/park-summary\/?park=1300", "area_code": "E08000009", "area_name": "Trafford" }, "geometry": { "type": "Point", "coordinates": [ -2.383446, 53.445963 ] } },
{ "type": "Feature", "properties": { "name": "Gorton Cemetery", "website": "http:\/\/www.greenflagaward.org.uk\/park-summary\/?park=896", "area_code": "E08000003", "area_name": "Manchester" }, "geometry": { "type": "Point", "coordinates": [ -2.163, 53.456 ] } },
{ "type": "Feature", "properties": { "name": "Hare Hill Park", "website": "http:\/\/www.greenflagaward.org.uk\/park-summary\/?park=322", "area_code": "E08000005", "area_name": "Rochdale" }, "geometry": { "type": "Point", "coordinates": [ -2.098, 53.645 ] } },
{ "type": "Feature", "properties": { "name": "Hopwood Park, Heywood", "website": "http:\/\/www.greenflagaward.org.uk\/park-summary\/?park=3139", "area_code": "E08000005", "area_name": "Rochdale" }, "geometry": { "type": "Point", "coordinates": [ -2.210395, 53.581978 ] } },
{ "type": "Feature", "properties": { "name": "Hoyles Park", "website": "http:\/\/www.greenflagaward.org.uk\/park-summary\/?park=1180", "area_code": "E08000002", "area_name": "Bury" }, "geometry": { "type": "Point", "coordinates": [ -2.277689, 53.598401 ] } },
{ "type": "Feature", "properties": { "name": "Hullard Park", "website": "http:\/\/www.greenflagaward.org.uk\/park-summary\/?park=280", "area_code": "E08000009", "area_name": "Trafford" }, "geometry": { "type": "Point", "coordinates": [ -2.268, 53.461 ] } },
{ "type": "Feature", "properties": { "name": "John Leigh Park (Altrincham)", "website": "http:\/\/www.greenflagaward.org.uk\/park-summary\/?park=2824", "area_code": "E08000009", "area_name": "Trafford" }, "geometry": { "type": "Point", "coordinates": [ -2.356046, 53.390734 ] } },
{ "type": "Feature", "properties": { "name": "Jubilee Park", "website": "http:\/\/www.greenflagaward.org.uk\/park-summary\/?park=1085", "area_code": "E08000010", "area_name": "Wigan" }, "geometry": { "type": "Point", "coordinates": [ -2.64, 53.491 ] } },
{ "type": "Feature", "properties": { "name": "Jubilee Park, Middleton", "website": "http:\/\/www.greenflagaward.org.uk\/park-summary\/?park=3140", "area_code": "E08000005", "area_name": "Rochdale" }, "geometry": { "type": "Point", "coordinates": [ -2.196349, 53.552897 ] } },
{ "type": "Feature", "properties": { "name": "Lostock Park", "website": "http:\/\/www.greenflagaward.org.uk\/park-summary\/?park=3104", "area_code": "E08000009", "area_name": "Trafford" }, "geometry": { "type": "Point", "coordinates": [ -2.330704, 53.45664 ] } },
{ "type": "Feature", "properties": { "name": "Manchester Road Park", "website": "http:\/\/www.greenflagaward.org.uk\/park-summary\/?park=223", "area_code": "E08000002", "area_name": "Bury" }, "geometry": { "type": "Point", "coordinates": [ -2.296983, 53.586503 ] } },
{ "type": "Feature", "properties": { "name": "Mesnes Park", "website": "http:\/\/www.greenflagaward.org.uk\/park-summary\/?park=2385", "area_code": "E08000010", "area_name": "Wigan" }, "geometry": { "type": "Point", "coordinates": [ -2.636864, 53.552611 ] } },
{ "type": "Feature", "properties": { "name": "Middleton Cemetery", "website": "http:\/\/www.greenflagaward.org.uk\/park-summary\/?park=1356", "area_code": "E08000005", "area_name": "Rochdale" }, "geometry": { "type": "Point", "coordinates": [ -2.178, 53.558 ] } },
{ "type": "Feature", "properties": { "name": "Middleton Memorial Gardens", "website": "http:\/\/www.greenflagaward.org.uk\/park-summary\/?park=3308", "area_code": "E08000005", "area_name": "Rochdale" }, "geometry": { "type": "Point", "coordinates": [ -2.208214, 53.54657 ] } },
{ "type": "Feature", "properties": { "name": "Milnrow Memorial Park", "website": "http:\/\/www.greenflagaward.org.uk\/park-summary\/?park=195", "area_code": "E08000005", "area_name": "Rochdale" }, "geometry": { "type": "Point", "coordinates": [ -2.103, 53.602 ] } },
{ "type": "Feature", "properties": { "name": "Nuttall Park", "website": "http:\/\/www.greenflagaward.org.uk\/park-summary\/?park=172", "area_code": "E08000002", "area_name": "Bury" }, "geometry": { "type": "Point", "coordinates": [ -2.312073, 53.642186 ] } },
{ "type": "Feature", "properties": { "name": "Openshaw Park", "website": "http:\/\/www.greenflagaward.org.uk\/park-summary\/?park=160", "area_code": "E08000002", "area_name": "Bury" }, "geometry": { "type": "Point", "coordinates": [ -2.279, 53.591 ] } },
{ "type": "Feature", "properties": { "name": "Peak Forest Canal", "website": "http:\/\/www.greenflagaward.org.uk\/park-summary\/?park=2816", "area_code": "E08000007", "area_name": "Stockport" }, "geometry": { "type": "Point", "coordinates": [ -2.060261, 53.393256 ] } },
{ "type": "Feature", "properties": { "name": "Peel Green Cemetery", "website": "http:\/\/www.greenflagaward.org.uk\/park-summary\/?park=1177", "area_code": "E08000006", "area_name": "Salford" }, "geometry": { "type": "Point", "coordinates": [ -2.377, 53.475 ] } },
{ "type": "Feature", "properties": { "name": "Peel Park (Salford)", "website": "http:\/\/www.greenflagaward.org.uk\/park-summary\/?park=3124", "area_code": "E08000006", "area_name": "Salford" }, "geometry": { "type": "Point", "coordinates": [ -2.27108, 53.488403 ] } },
{ "type": "Feature", "properties": { "name": "Pennington Hall Park", "website": "http:\/\/www.greenflagaward.org.uk\/park-summary\/?park=1109", "area_code": "E08000010", "area_name": "Wigan" }, "geometry": { "type": "Point", "coordinates": [ -2.524, 53.487 ] } },
{ "type": "Feature", "properties": { "name": "Philips Park Cemetery", "website": "http:\/\/www.greenflagaward.org.uk\/park-summary\/?park=1178", "area_code": "E08000003", "area_name": "Manchester" }, "geometry": { "type": "Point", "coordinates": [ -2.194, 53.49 ] } },
{ "type": "Feature", "properties": { "name": "Queen’s Park Heywood", "website": "http:\/\/www.greenflagaward.org.uk\/park-summary\/?park=109", "area_code": "E08000005", "area_name": "Rochdale" }, "geometry": { "type": "Point", "coordinates": [ -2.215, 53.6 ] } },
{ "type": "Feature", "properties": { "name": "Queens Park (Bolton)", "website": "http:\/\/www.greenflagaward.org.uk\/park-summary\/?park=2900", "area_code": "E08000001", "area_name": "Bolton" }, "geometry": { "type": "Point", "coordinates": [ -2.444872, 53.577461 ] } },
{ "type": "Feature", "properties": { "name": "Rochdale Town Centre Parks", "website": "http:\/\/www.greenflagaward.org.uk\/park-summary\/?park=91", "area_code": "E08000005", "area_name": "Rochdale" }, "geometry": { "type": "Point", "coordinates": [ -2.159, 53.616 ] } },
{ "type": "Feature", "properties": { "name": "Southern Cemetery", "website": "http:\/\/www.greenflagaward.org.uk\/park-summary\/?park=1562", "area_code": "E08000003", "area_name": "Manchester" }, "geometry": { "type": "Point", "coordinates": [ -2.258, 53.429 ] } },
{ "type": "Feature", "properties": { "name": "St Mary’s Park", "website": "http:\/\/www.greenflagaward.org.uk\/park-summary\/?park=20", "area_code": "E08000002", "area_name": "Bury" }, "geometry": { "type": "Point", "coordinates": [ -2.27873, 53.528071 ] } },
{ "type": "Feature", "properties": { "name": "Stamford Park", "website": "http:\/\/www.greenflagaward.org.uk\/park-summary\/?park=2392", "area_code": "E08000008", "area_name": "Tameside" }, "geometry": { "type": "Point", "coordinates": [ -2.067493, 53.491276 ] } },
{ "type": "Feature", "properties": { "name": "Town Meadow Park", "website": "http:\/\/www.greenflagaward.org.uk\/park-summary\/?park=632", "area_code": "E08000002", "area_name": "Bury" }, "geometry": { "type": "Point", "coordinates": [ -2.338957, 53.613331 ] } },
{ "type": "Feature", "properties": { "name": "Truffet Park", "website": "http:\/\/www.greenflagaward.org.uk\/park-summary\/?park=915", "area_code": "E08000005", "area_name": "Rochdale" }, "geometry": { "type": "Point", "coordinates": [ -2.220927, 53.552469 ] } },
{ "type": "Feature", "properties": { "name": "Victoria Park (Salford)", "website": "http:\/\/www.greenflagaward.org.uk\/park-summary\/?park=659", "area_code": "E08000006", "area_name": "Salford" }, "geometry": { "type": "Point", "coordinates": [ -2.327, 53.508 ] } },
{ "type": "Feature", "properties": { "name": "Victoria Park (Trafford)", "website": "http:\/\/www.greenflagaward.org.uk\/park-summary\/?park=666", "area_code": "E08000009", "area_name": "Trafford" }, "geometry": { "type": "Point", "coordinates": [ -2.311768, 53.448678 ] } },
{ "type": "Feature", "properties": { "name": "Walkden Gardens", "website": "http:\/\/www.greenflagaward.org.uk\/park-summary\/?park=670", "area_code": "E08000009", "area_name": "Trafford" }, "geometry": { "type": "Point", "coordinates": [ -2.311, 53.418 ] } },
{ "type": "Feature", "properties": { "name": "Walton Park (Sale)", "website": "http:\/\/www.greenflagaward.org.uk\/park-summary\/?park=2822", "area_code": "E08000009", "area_name": "Trafford" }, "geometry": { "type": "Point", "coordinates": [ -2.332633, 53.41438 ] } },
{ "type": "Feature", "properties": { "name": "Whitefield Park", "website": "http:\/\/www.greenflagaward.org.uk\/park-summary\/?park=694", "area_code": "E08000002", "area_name": "Bury" }, "geometry": { "type": "Point", "coordinates": [ -2.293, 53.551 ] } },
{ "type": "Feature", "properties": { "name": "Whitehead Park", "website": "http:\/\/www.greenflagaward.org.uk\/park-summary\/?park=695", "area_code": "E08000002", "area_name": "Bury" }, "geometry": { "type": "Point", "coordinates": [ -2.3163, 53.594146 ] } },
{ "type": "Feature", "properties": { "name": "Winton Park", "website": "http:\/\/www.greenflagaward.org.uk\/park-summary\/?park=1653", "area_code": "E08000006", "area_name": "Salford" }, "geometry": { "type": "Point", "coordinates": [ -2.368, 53.487 ] } },
{ "type": "Feature", "properties": { "name": "Woodheys Park (Broadheath)", "website": "http:\/\/www.greenflagaward.org.uk\/park-summary\/?park=2823", "area_code": "E08000009", "area_name": "Trafford" }, "geometry": { "type": "Point", "coordinates": [ -2.353887, 53.409608 ] } },
{ "type": "Feature", "properties": { "name": "Worthington Park", "website": "http:\/\/www.greenflagaward.org.uk\/park-summary\/?park=711", "area_code": "E08000009", "area_name": "Trafford" }, "geometry": { "type": "Point", "coordinates": [ -2.312, 53.423 ] } }
]
}
